park_name,park_type,address,latitude,longitude,area
수락산<시공원>,기타,서울특별시 노원구 상계동 산3-1,37.69173100,127.06603380,6691885.3
남문,어린이공원,서울특별시 금천구 독산동 160-6,37.472321,126.900396,883.6
구룡,어린이공원,서울특별시 금천구 독산동 964,37.477891,126.9027669,934.9
반수,어린이공원,서울특별시 금천구 독산동 980-44,37.4740151,126.902233,990.6
한사랑,어린이공원,서울특별시 금천구 독산동 925-2,37.467716,126.904573,585.9
쌈지,어린이공원,서울특별시 금천구 독산동 189-1,37.47090493,126.9039831,982.8
소망,어린이공원,서울특별시 금천구 독산동 196-8,37.46936829,126.9016706,998
남서울,어린이공원,서울특별시 금천구 시흥동 986-2,37.448336,126.902123,1155.7
새재미,어린이공원,서울특별시 금천구 시흥동 855,37.45884579,126.904239,1185.2
해태,어린이공원,서울특별시 금천구 시흥동 871-24,37.457773,126.901866,962.6
부장천,어린이공원,서울특별시 금천구 시흥동 893,37.45266794,126.9044062,944
풍림,어린이공원,서울특별시 금천구 시흥동 1026-3,37.44783408,126.9017968663,2195
중앙,어린이공원,서울특별시 금천구 시흥동 1027-2,37.4464112594,126.9016027390,1515
꾸러기,어린이공원,서울특별시 금천구 시흥동 943-16,37.44316993,126.905877,359.4
비둘기,어린이공원,서울특별시 금천구 시흥동 947-4,37.441597,126.906264,985.2
까치,어린이공원,서울특별시 금천구 시흥동 959-2,37.439645,126.904994,925.3
진달래,어린이공원,서울특별시 금천구 시흥동 970-3,37.434878,126.904883,992.2
단군,어린이공원,서울특별시 금천구 시흥동 169-21,37.45569721,126.9086585,250
불암산<시공원>,기타,서울특별시 노원구 중계동 산101-1,37.65550096,127.08102250,5332422
신기,어린이공원,서울특별시 양천구 신정3동 1260,37.514092,126.854244,1534
계남,근린공원,"서울특별시 양천구 신정3동 521, 621일대",37.513745,126.844816,440173
푸른,어린이공원,서울특별시 양천구 신정3동 1283-1,37.511603,126.837445,2574.9
신이,어린이공원,서울특별시 양천구 신정3동 1284-1,37.512521,126.837529,1510.3
넘은들,근린공원,서울특별시 양천구 신정3동 1286,37.512951,126.840441,16159.6
하늘마루,어린이공원,서울특별시 양천구 신정3동 1316-2,37.512571,126.831703,1500
연의,근린공원,서울특별시 양천구 신정3동 1320-9외 6필지,37.514067,126.830401,37520
숲속,어린이공원,서울특별시 양천구 신정3동 1322-10,37.514551,126.830941,1500
넓은들,어린이공원,서울특별시 양천구 신정3동 767,37.511317,126.839385,3288
신정3동소공원,소공원,서울특별시 양천구 신정3동 831,37.50612432,126.8339302,3353
동개울,어린이공원,서울특별시 양천구 신정4동 876-1,37.527916,126.856519,991.2
오구,어린이공원,서울특별시 양천구 신정4동 888-1,37.527272,126.861874,738.4
홍익,어린이공원,서울특별시 양천구 신정4동 896-22,37.528547,126.862274,990.8
앞산,어린이공원,서울특별시 양천구 신정4동 910-9,37.526441,126.858307,1050.5
진주,어린이공원,서울특별시 양천구 신정4동 920-3,37.526494,126.855036,940.5
음골,어린이공원,서울특별시 양천구 신정4동 936-13,37.527336,126.851231,995.4
안산,어린이공원,서울특별시 양천구 신정4동 949-4,37.524593,126.856172,992.1
새뚝,어린이공원,서울특별시 양천구 신정4동 955-1,37.524029,126.857728,961.3
은행정,어린이공원,서울특별시 양천구 신정4동 975-30,37.522027,126.855022,1062.2
아랫말,어린이공원,서울특별시 양천구 신정4동 990-1,37.525063,126.861828,947.7
양천,근린공원,서울특별시 양천구 신정6동 320,37.518124,126.867861,33797.9
꿈동산,어린이공원,서울특별시 양천구 신정6동 314-1,37.521912,126.867457,3730.1
다람쥐,어린이공원,서울특별시 양천구 신정6동 327-1,37.513482,126.866021,2265.5
까치,어린이공원,서울특별시 양천구 신정6동 328-1,37.514958,126.868243,2149.8
꿈나래,어린이공원,서울특별시 양천구 신정6동 329-2,37.516283,126.869774,2433.9
기린,어린이공원,서울특별시 양천구 신정6동 330-1,37.516283,126.869774,2029.7
사슴,어린이공원,서울특별시 양천구 신정6동 332-1,37.515672,126.873427,2511.3
갈산,근린공원,서울특별시 양천구 신정7동 162-56,37.508129,126.869032,139576
햇빛,어린이공원,서울특별시 강서구 내발산동 384-2,37.555822,126.826886,2066
마곡지구4호,근린공원,서울특별시 강서구 마곡동 811-5,37.568317,126.826463,35884
푸른수명산,소공원,서울특별시 강서구 화곡동 1091-15,37.544175,126.830269,822.9
마곡,소공원,서울특별시 강서구 마곡동 737-16,37.567478,126.822146,1085.2
염창,소공원,서울특별시 강서구염창동 309-1,37.549839,126.870745,1229.2
염창2,소공원,서울특별시 강서구염창동 306-1,37.551722,126.873857,272.5
탑산(가양동),문화공원,서울특별시 강서구가양동 1499,37.566194,126.846336,3783.8
새개,문화공원,서울특별시 강서구마곡동 800-7,37.558287,126.830030,3836.6
놋다리,문화공원,서울특별시 강서구마곡동 790-6,37.566207,126.846140,2574.7
똘고랑,문화공원,서울특별시 강서구 마곡동 756-4,37.571433,126.826326,3089.9
선두암,문화공원,서울특별시 강서구 마곡동 778-4,37.567379,126.838170,2581.3
한다리,문화공원,서울특별시 강서구 마곡동 727-1038,37.561060,126.830369,8298
가로공원1호,가로공원,서울특별시 강서구 마곡동 797-5,37.559061,126.837242,2618.5
청량,근린공원,서울특별시 성북구 석관동 409,37.602970635,127.053995363,329290
덕수천,근린공원,서울특별시 은평구진관동 14-3,37.6092510000,126.9065600000,5569.10
마고정,근린공원,서울특별시 은평구진관동 101-2,37.6117870000,126.9099810000,4551.60
우물골,근린공원,"서울특별시 은평구진관동 85-1,2,3",37.6351344788,126.9253781615,7203.10
신도,근린공원,서울특별시 은평구진관동 206-21,37.5942880000,126.9195950000,12020.00
마실길,근린공원,서울특별시 은평구진관동 125-22,37.6411847166,126.9428672690,45170.50
역촌동소공원,소공원,"서울특별시 은평구 역촌동85-34,36",37.6114420000,126.9101620000,318.00
거북이소공원,소공원,서울특별시 은평구 구산동 309-38,37.6148860000,126.9077740000,250.00
요  산소공원,소공원,서울특별시 은평구 불광동 13-33외 3,37.5918270000,126.9182520000,805.00
응암9구역소공원,소공원,서울특별시 은평구 응암동 761-7,37.6090410000,126.9293620000,880.80
불광3구역소공원,소공원,서울특별시 은평구 불광동641-1일대,37.6484970000,126.9298260000,7274.10
불광6구역소공원,소공원,서울특별시 은평구 불광동 638-3 일대,37.6484970000,126.9298260000,1919.00
불광7구역소공원,소공원,서울특별시 은평구 불광동 643-3,37.6461450000,126.9275560000,3120.00
응암3주택 재개발구역내소공원,소공원,서울특별시 은평구 응암동 762-4,37.6331980000,126.9190960000,1641.60
폭포동소공원,소공원,서울특별시 은평구 진관동 158-14일원,37.6370750000,126.9164930000,1087.80
잿말소공원,소공원,서울특별시 은평구 진관동 195-16,37.6341960000,126.9254280000,245.10
한옥마을소공원,소공원,서울특별시 은평구 진관동 211-34,37.6320160000,126.9307600000,58.70
신사동(새절)소공원,소공원,서울특별시 은평구 신사동372-1,37.6353990000,126.9347940000,782.60
녹번1-2지구 주택재개발정비구역내소공원,소공원,서울특별시 은평구 녹번동 283-7,37.6320160000,126.9307600000,5804.20
금암문화공원 (은평뉴타운제1호문화공원),주제공원,서울특별시 은평구 진관동 53-5,37.6248060000,126.9274100000,6857.10
제각말문화공원 (은평뉴타운제2호 문화공원),주제공원,서울특별시 은평구 진관동 135-26,37.6263690000,126.9253980000,55721.80
불광위령탑마을마당,기타공원,서울특별시 은평구 불광1 247-4,37.6136200000,126.9297770000,940.00
구산마을마당,기타공원,서울특별시 은평구 구산 산173-23,37.5955610000,126.9043470000,387.00
신사마을마당,기타공원,서울특별시 은평구 불광1 247,37.5943850000,126.9086430000,203.00
대조마을마당,기타공원,서울특별시 은평구 대조 48-42,37.6413420000,126.9422280000,183.50
자투리(녹번)마을마당,기타공원,서울특별시 은평구 녹번 103-23,37.5995520000,126.9155510000,165.00
자투리(신사)마을마당,기타공원,서울특별시 은평구 신사2 300-153,37.6182670000,126.9328120000,236.00
일원장미공원,어린이공원,서울특별시 강남구 일원동 732-4,37.480681,127.0808231,1500
일원개나리공원,어린이공원,서울특별시 강남구 일원동 730-3,37.48300519,127.0763956,4453.6
일원느티나무공원,어린이공원,서울특별시 강남구 일원동 730-2,37.483047,127.0774123,1825.7
일원소나무공원,어린이공원,서울특별시 강남구 일원동 718-1,37.484061,127.0817812,1500.6
일원상록수공원,어린이공원,서울특별시 강남구 일원동 734-1,37.482102,127.0822265,1500.4
일원비둘기공원,어린이공원,서울특별시 강남구 일원동 735-1,37.48327765,127.0860025,1501
일원진달래공원,어린이공원,서울특별시 강남구 일원동 716-1,37.484753,127.0847344,1500.1
일원새싹공원,어린이공원,서울특별시 강남구 수서동 746-1,37.484772,127.0890958,1500.2
수서까치공원,어린이공원,서울특별시 강남구 수서동 736-1,37.48713637,127.0979512,1500.2
수서은행나무공원,어린이공원,서울특별시 강남구 수서동 707-1,37.49213676,127.0997523,1500.4
수서목련공원,어린이공원,서울특별시 강남구 수서동 712-1,37.49062982,127.1036989,1418.8
수서개나리공원,어린이공원,서울특별시 강남구 수서동 723-1,37.487518,127.1054203,1500.1
아래반고개공원,어린이공원,서울특별시 강남구 세곡동 129-13,37.463874,127.1071102,863
윗반고개공원,어린이공원,서울특별시 강남구 세곡동 99-6,37.46569942,127.109147,1250
은곡마을공원,어린이공원,서울특별시 강남구 세곡동 369-3,37.46801863,127.1004611,2686
쟁골공원,어린이공원,서울특별시 강남구 자곡동 233-2,37.48190388,127.1020753,468
못골공원,어린이공원,서울특별시 강남구 자곡동 447-23,37.473573,127.100181,749
윗방죽마을공원,어린이공원,서울특별시 강남구 율현동 308-29,37.470276,127.104681,935
아래방죽마을공원,어린이공원,서울특별시 강남구 율현동 194-1,37.473276,127.1082321,386
충현공원,어린이공원,서울특별시 강남구 역삼동 666-2,37.50467201,127.0365347,2721.8
세곡천공원,어린이공원,서울특별시 강남구 세곡동 522-1,37.46321345,127.1012799,2645.1
대왕공원,어린이공원,서울특별시 강남구 세곡동 526-2,37.4624778,127.1049341,2633.1
세천근린공원,근린공원,서울특별시 강남구 세곡동 603,37.46652497,127.0949058,18856.7
세명근린공원,근린공원,서울특별시 강남구 자곡동 625,37.4692274,127.0902554,5236.8
새소리,어린이공원,서울특별시 성북구 돈암동 626-2,37.600751,127.0254039206,1371
종암,어린이공원,서울특별시 성북구 종암동 104-6,37.60012565,127.0372515,1514
솔향기,어린이공원,서울특별시 성북구 길음동 1190,37.608108,127.0213063991,4031
해맑은,어린이공원,서울특별시 성북구 길음동 591-17,37.6085186021,127.020925,2089
한울,어린이공원,서울특별시 성북구 정릉동 169-6,37.605709,127.0137089594,2675
솔숲,어린이공원,서울특별시 성북구 정릉동 170-10,37.6048086334,127.014971,2922
동망봉,어린이공원,서울특별시 성북구 보문동3가 229-1,37.5838591,127.017073,6730
맑은숲,어린이공원,서울특별시 성북구 장위동 317-1,37.62144056,127.0463288,1601
화랑,어린이공원,서울특별시 성북구 석관동 407-6,37.60715757,127.0547542,2213
고암,어린이공원,서울특별시 성북구 종암동 133-5,37.59998725,127.0318095,1449
옛시장,어린이공원,서울특별시 성북구 종암동 135-4,37.60232547,127.0339269,958
늘푸른,어린이공원,서울특별시 성북구 길음동 1284-14,37.607270609,127.016042121,1580
아름,어린이공원,서울특별시 성북구 길음동 1284,37.607275104,127.016118567,2167
벌집,어린이공원,서울특별시 성북구 종암동 134-3,37.599625,127.0367262,1788
일신,어린이공원,서울특별시 성북구 종암동 134-8,37.59999069,127.0395876,950
길음골,소공원,서울특별시 성북구 길음동 1285,37.609062949,127.020145152,1244
길섶,소공원,서울특별시 성북구 길음동 1285-10,37.609117029,127.020023418,383
잔월,소공원,서울특별시 성북구 하월곡동 230-1,37.6040624,127.031506,481
행복한,소공원,서울특별시 성북구 길음동 1284-13,37.608225129,127.019553178,1173
두레,소공원,서울특별시 성북구 길음동 1284-8,37.6065585058,127.0176650787,287
돌마루,소공원,서울특별시 성북구 삼선동3가 116-1,37.5880187,127.012142,877
되너미,소공원,서울특별시 성북구 돈암동 644-1,37.59849175,127.0137028,1069
꿈빛,소공원,서울특별시 성북구 정릉동 1039,37.60224083,127.0116561,719
한마음공원,어린이공원,서울특별시 강남구 개포동 12-3,37.49642631,127.0755359,2488.1
삼선,어린이공원,서울특별시 성북구 삼선동1가 303,37.5817991362,127.0091947262,10957
범바위,어린이공원,서울특별시 성북구 안암동2가 140-3,37.58549036,127.0214092,1514
꿈나라,어린이공원,서울특별시 성북구 보문동7가 108-2,37.58029718,127.023018,1564
동산,어린이공원,서울특별시 성북구 하월곡동 96-78,37.6045938575,127.034528,417
밤골,어린이공원,서울특별시 성북구 하월곡동 산2-140,37.607541,127.039921,600
햇살,어린이공원,서울특별시 성북구 상월곡동 97-37,37.60591304,127.0485162,300
향기,어린이공원,서울특별시 성북구 상월곡동 산1-1,37.60920187,127.045461,1000
동방,어린이공원,서울특별시 성북구 장위동 219-223,37.6166429742,127.0435038428,982
샛별,어린이공원,서울특별시 성북구 석관동 168-86,37.614016,127.0642987,1638
돌뫼,어린이공원,서울특별시 성북구 석관동 산1-77,37.60510034,127.0528072,350
북한산도시자연공원,기타,서울특별시 강북구 미아동 산108-19,37.6210716,127.0083592,84448.4
청암,어린이공원,서울특별시 강북구 삼양동 776-17,37.6241079,127.0171437,661
응달마을,어린이공원,서울특별시 강북구 송천동 707-73,37.618455,127.024343,866
하늘,어린이공원,서울특별시 강북구 삼양동 791-1776,37.6247032,127.012899,3367
송월,어린이공원,서울특별시 강북구 송중동 92-7,37.6163653,127.0321067,807
소망,소공원,서울특별시 강북구 삼양동 791-1467,37.6258055,127.0154221,320
미래,소공원,서울특별시 강북구 삼양동 791-1712,37.6246182,127.0145881,564
늘푸른,소공원,서울특별시 강북구 삼양동 797-9,37.6254089,127.0197435,646
폭포,소공원,서울특별시 강북구 삼각산동 813-6,37.612576,127.021656,1238
꼭지,소공원,서울특별시 강북구 삼각산동 811-7,37.6188024,127.017338,746
테두리,어린이공원,서울특별시 강북구 삼각산동 811-8,37.6186251,127.0176915,1913
고갯마루,어린이공원,서울특별시 강북구 삼각산동 811-13,37.6164203,127.0169389,2185.8
미아,어린이공원,서울특별시 강북구 송중동 8-73,37.6152567,127.0375807,992
미,소공원,서울특별시 강북구 송중동 71-1,37.6137937,127.0305656,424.4
번남,어린이공원,서울특별시 강북구 번1동 447-1,37.6357586,127.0247969,1014.9
논골,어린이공원,서울특별시 강북구 번1동 417-27,37.6386856,127.0279086,991.7
샛강,어린이공원,서울특별시 강북구 번1동 472-44,37.6395202,127.0329966,858.2
영일어린이공원,어린이공원,서울특별시 영등포구 영등포동 647-3,37.51015183,126.903919,5413
중마루근린공원,근린공원,서울특별시 영등포구 영등포동2가 222,37.519919,126.911497,6456
꿈에그린어린이공원,어린이공원,서울특별시 영등포구 신길동 4937-1,37.50300166,126.9088394,1619
문래소공원,소공원,서울특별시 영등포구 문래동6가 25-1,37.5197992,126.8869024,1954
인스빌1 소공원,소공원,서울특별시 영등포구 문래동4가 67-1,37.514461,126.888327,1194
인스빌2 소공원,소공원,서울특별시 영등포구 문래동4가 68-1,37.513622,126.890546,1007
꽃담 소공원,소공원,서울특별시 영등포구 당산동5가 4-23,37.53120144,126.900161,2582
(가칭)신길14재정비촉진구역 소공원,소공원,서울특별시 영등포구 신길동 4955-3,37.504367,126.906287,1732
당산역 소공원,소공원,서울특별시 영등포구 당산동5가 9-29,37.533517,126.900642,417
파밀리에 소공원,소공원,서울특별시 영등포구 대림1동 1124-3,37.495012,126.903451,395
도리미 소공원,소공원,서울특별시 영등포구 도림동 821-3,37.509476,126.9021917,1859
새말소공원,소공원,서울특별시 영등포구 당산동4가 85,37.531292,126.8975129,1642
이음소공원,소공원,서울특별시 영등포구 당산동4가 98-1,37.527424,126.902467,732
당산나루소공원,소공원,서울특별시 영등포구 당산동5가 9-3,37.532814,126.900128,1339
(가칭)모아미래도 소공원,소공원,서울특별시 영등포구 문래동5가 67-2,37.51655014,126.8871262,1505
(가칭)당산4구역 소공원,소공원,서울특별시 영등포구 당산동4가 99-1,37.528846,126.903737,396
(가칭)신길7재정비촉진구역 소공원,소공원,서울특별시 영등포구 신길동 4950-1,37.501274,126.9162891,1024.1
(가칭)신길11재정비촉진구역 소공원,소공원,서울특별시 영등포구 신길동 4945-1,37.504638,126.906631,1661.4
아크로타워 역사공원,역사공원,서울특별시 영등포구 영등포동7가 205-1,37.52257451,126.9077566,2962
(가칭)신길5재정비촉진구역 소공원,소공원,서울특별시 영등포구 신길동 1980-1,37.50373971,126.9175044,1638
(가칭)신길5구역어린이공원,어린이공원,서울특별시 영등포구 신길동 541,37.503015,126.920286,1981
신길9구역 근린공원,근린공원,서울특별시 영등포구 신길동 243-58,37.503954,126.9145992,13776
상아현대어린이공원,어린이공원,서울특별시 영등포구 당산동5가 4-13,37.53047853,126.9029504,1587
대림3주택어린이공원,어린이공원,서울특별시 영등포구 대림동 1127-6,37.494598,126.908478,2878
녹번동,근린공원,서울특별시 은평구 녹번동 산27,37.6032511658,126.9322993236,25854.70
거 북 골,근린공원,서울특별시 은평구구산동 산37-4,37.5999150000,126.9259920000,43812.60
구  산,근린공원,서울특별시 은평구구산동 산48-7,37.5871110000,126.9190330000,12445.70
상림,근린공원,서울특별시 은평구진관동 5-3,37.6147620000,126.9079010000,4749.80
못자리골,근린공원,"서울특별시 은평구진관동13-2, 12-1",37.5867310000,126.9230940000,16176.10
은하수,어린이공원,서울특별시 강서구 방화동 853,37.570507,126.806548,3825.8
능말,어린이공원,서울특별시 강서구 방화동 815,37.577955,126.810607,1520.7
메아리,어린이공원,서울특별시 강서구 방화동 826,37.578615,126.814351,1511.6
느티,어린이공원,서울특별시 강서구 방화동 799,37.579421,126.810313,1512.9
돌샘,어린이공원,서울특별시 강서구 방화동 837,37.576054,126.818966,1500.3
꿈나무,어린이공원,서울특별시 강서구 방화동 840,37.575194,126.818941,1500.2
개화,어린이공원,서울특별시 강서구 방화동 818,37.580248,126.812534,1512.2
긴등마을,어린이공원,서울특별시 강서구 공항동 4-36,37.563075,126.818681,1645.3
꿈자람,어린이공원,서울특별시 강서구 공항동 484,37.564793,126.819154,2014
다솜,어린이공원,서울특별시 강서구 공항동 4,37.563003,126.818161,511
풀잎,어린이공원,서울특별시 강서구 공항동 705,37.556989,126.816565,1945
푸르미,어린이공원,서울특별시 강서구 마곡동 316-1,37.570478,126.825219,1494
예솔,어린이공원,서울특별시 강서구 마곡동 397-1,37.563629,126.822694,864
솔,어린이공원,서울특별시 강서구 외발산동 69-1,37.555856,126.825767,2000
진  관,근린공원,서울특별시 은평구 진관동 산95 일대,37.6163400000,126.9314550000,585480.10
향   림,근린공원,서울특별시 은평구진관동 산52,37.6293321935,126.9273553535,202993.00
신  사,근린공원,서울특별시 은평구 신사동 산80-64일대,37.6046860000,126.9152350000,71848.10
물 푸 레,근린공원,서울특별시 은평구 진관동 산100-44,37.6378399622,126.9165116853,147441.60
기 자 촌,근린공원,서울특별시 은평구 진관동 106-17,37.6214040000,126.9285960000,128953.70
녹번서,근린공원,서울특별시 은평구 녹번동 85-1,37.6140340000,126.9205020000,29945.00
미아도심소,어린이공원,서울특별시 강북구 미아동 258-148,37.62544556,127.0313106,1127
오패,어린이공원,서울특별시 강북구 미아동 258-236,37.6223139,127.0323129,1084
한빛,어린이공원,서울특별시 강북구 미아동 222-20,37.6275981,127.0229662,1192.1
운산,어린이공원,서울특별시 강북구 미아동 165-3,37.6321329,127.025456,995.1
솔샘,어린이공원,서울특별시 강북구 송천동 329-15,37.6184142,127.0270508,1264.1
으뜸,어린이공원,서울특별시 강북구 미아동 309-43,37.6236134,127.0262421,681
세일,어린이공원,서울특별시 강북구 미아동 159-71,37.6338794,127.0252746,839.7
봉선화,어린이공원,서울특별시 강서구 방화동 645-13,37.566522,126.806987,552
민들레,어린이공원,서울특별시 강서구 방화동 648-13,37.567221,126.806731,589
내촌,어린이공원,서울특별시 강서구 방화동 551-26,37.570073,126.808687,1149
신대부석,어린이공원,서울특별시 강서구 방화동 411,37.583724,126.816494,1132
목련,어린이공원,서울특별시 강서구 방화동 616-1,37.564958,126.807825,251
샛별,어린이공원,서울특별시 강서구 방화동 558,37.572732,126.809505,294
새싹교통,어린이공원,서울특별시 강서구 방화동 583,37.569485,126.809344,4939
개포까치공원,어린이공원,서울특별시 강남구 개포동 169-3,37.48370515,127.0608782,1690.2
개포은행나무공원,어린이공원,서울특별시 강남구 개포동 1220,37.47602964,127.0492625,1641.7
개포목련공원,어린이공원,서울특별시 강남구 개포동 1176,37.47429924,127.0524432,1639.1
일원은행나무공원,어린이공원,서울특별시 강남구 일원동 615-2,37.492002,127.0769753,1500.3
일원목련공원,어린이공원,서울특별시 강남구 일원동 658,37.491431,127.0855901,1613.8
일원까치공원,어린이공원,서울특별시 강남구 일원동 712-4,37.4918904,127.0882309,1476.3
궁마을공원,어린이공원,서울특별시 강남구 수서동 465-15,37.484831,127.0994148,306
예지공원,어린이공원,서울특별시 강남구 개포동 12-7,37.49183156,127.0733493,1535.9
한강대로공원,소공원,서울특별시 용산구 한강로동 65-587,37.524103,126.963575,466
이태원부군당,역사공원,서울특별시 용산구 이태원동 191-3,37.535801,126.989755,2020
이봉창역사공원,역사공원,서울특별시 용산구 효창동 286-7,37.54010272,126.960877,484.4
신용산가로공원,기타,서울특별시 용산구 한강로2가 424-1,37.52947726,126.9690828,2410
한강로가로공원,기타,서울특별시 용산구 한강로3가 65-690,37.524249,126.963959,1076.3
한마음어린이공원,어린이공원,서울특별시 용산구 용산동5가 30-4,37.52856458,126.9696756,2998.5
우정소공원,소공원,서울특별시 용산구 효창동 287-2,37.540454,126.964126,806.1
녹색소공원,소공원,서울특별시 용산구 효창동 287-6,37.539217,126.962694,1569.9
역삼문화공원,문화공원,서울특별시 강남구 역삼동 635,37.50251536,127.0303909,33974.9
다솜소공원,소공원,서울특별시 강남구 역삼동 763-18,37.49577558,127.0478708,604.1
도곡단비소공원,소공원,서울특별시 강남구 도곡동 539-6,37.49389921,127.0472249,896.5
도곡동 426-9(로덴하우스)소공원,소공원,서울특별시 강남구 도곡동 462-9,37.48560304,127.0460585,80
역삼나들이소공원,소공원,서울특별시 강남구 역삼동 716-5,37.500748,127.0504317,650
아크로힐스소공원,소공원,서울특별시 강남구 논현동 276-2,37.51003194,127.0395693,800
논현까치공원,어린이공원,서울특별시 강남구 논현동 162-11,37.50852892,127.0250971,956.7
논현목련공원,어린이공원,서울특별시 강남구 논현동 137-18,37.5108669,127.0267093,986
논현은행나무공원,어린이공원,서울특별시 강남구 논현동 47-13,37.51259546,127.0224572,1014.5
논현개나리공원,어린이공원,서울특별시 강남구 논현동 150-5,37.51122564,127.0300758,1652.9
논현무궁화공원,어린이공원,서울특별시 강남구 논현동 205-7,37.50667179,127.0307039,1879.7
논현소나무공원,어린이공원,서울특별시 강남구 논현동 239,37.51573112,127.0374539,1819.9
학동공원,어린이공원,서울특별시 강남구 논현동 263-23,37.511646,127.0387639,1498.5
신사은행나무공원,어린이공원,서울특별시 강남구 신사동 558,37.52059722,127.0260394,1240.1
신사목련공원,어린이공원,서울특별시 강남구 신사동 567-37,37.52291399,127.0258327,1001.1
이태원마을숲,소공원,서울특별시 용산구 이태원동 260-87,37.5412484,126.991493,867
독서당공원,소공원,서울특별시 용산구 한남동 1-32,37.5345083,127.012481,469
한남공원,소공원,서울특별시 용산구 한남동 15-5,37.537238,127.013882,432
이태원어린이놀이터,소공원,서울특별시 용산구 이태원동 190-11,37.535685,126.989937,278
진달래,어린이공원,서울특별시 강서구 가양동 1486-1,37.562375,126.860979,1500
발음,어린이공원,서울특별시 강서구 내발산동 697,37.552042,126.833204,913.6
광명,어린이공원,서울특별시 강서구 내발산동 221-1,37.546857,126.822944,1739
수정,어린이공원,서울특별시 강서구 내발산동 741-2,37.554043,126.828743,4000.3
은행나무,어린이공원,서울특별시 강서구 내발산동 753-1,37.552158,126.823201,1764.4
신광명,어린이공원,서울특별시 강서구 내발산동 761,37.547313,126.823007,8596.6
원당,어린이공원,서울특별시 강서구 내발산동 650,37.557413,126.842084,992
가곡,어린이공원,서울특별시 강서구 내발산동 657-2,37.555964,126.837765,2747.9
꿈빛,어린이공원,서울특별시 강서구 내발산동 657-3,37.556117,126.840003,1500
활주로,어린이공원,서울특별시 강서구 공항동1341,37.554212,126.815978,2116.4
다솔,어린이공원,서울특별시 강서구 공항동1361,37.554428,126.818292,2492.7
장미,어린이공원,서울특별시 강서구 공항동668,37.556809,126.813805,1661.5
송정,어린이공원,서울특별시 강서구 공항동42-11,37.560635,126.811276,397
쌈지,어린이공원,서울특별시 강서구 방화동 266-24,37.571268,126.814976,3973
개나리,어린이공원,서울특별시 강서구 방화동 569-14,37.573113,126.812217,252
긴등,어린이공원,서울특별시 강서구 방화동 247-201,37.568020,126.816194,253
문성,어린이공원,서울특별시 강서구 방화동 608-112,37.564839,126.815435,254
새싹,어린이공원,서울특별시 강서구 방화동 448-5,37.574806,126.812748,334
도레미,어린이공원,서울특별시 강서구 방화동 184-66,37.571792,126.819136,6649
들꽃,어린이공원,서울특별시 강서구 방화동 890-1,37.570615,126.821227,705
봉은역사공원,역사공원,서울특별시 강남구 삼성동 75,37.51391154,127.0554916,75635.7
벽오산,어린이공원,서울특별시 강북구 미아동 258-56,37.6275862,127.0302734,1250
장 암,어린이공원,서울특별시 노원구 상계동 1312-5,37.68747717,127.05355480,1500
전주동,어린이공원,서울특별시 노원구 중계동 154-9,37.65965495,127.07371760,288
종달새,어린이공원,서울특별시 노원구 상계동 636,37.66826830,127.06253880,4051
중  평,어린이공원,서울특별시 노원구 하계동 271-1,37.63753357,127.06396510,5840.5
중  현,어린이공원,서울특별시 노원구 하계동 272-1,37.63251462,127.06595210,7123.5
중계,소공원,서울특별시 노원구 중계동 514-8,37.64529403,127.06797260,1358.2
중계소공원2,소공원,서울특별시 노원구 중계동 514-8,37.64511693,127.06692160,700
참  새,어린이공원,서울특별시 노원구 상계동 652-3,37.66595352,127.05465900,1500.1
채송화,어린이공원,서울특별시 노원구 상계동 737-1,37.65081661,127.05615220,1500
철  쭉,어린이공원,서울특별시 노원구 상계동 1096-16,37.67736864,127.05155600,995
청  솔,어린이공원,서울특별시 노원구 공릉동 110-2,37.62503484,127.08740010,1500.1
초  안,어린이공원,서울특별시 노원구 월계동 775-1,37.63311634,127.05199950,1479.1
초안산<시공원>,근린공원,서울특별시 노원구 월계동 산1,37.64354845,127.05145870,950643
코스모스,어린이공원,서울특별시 노원구 상계동 1293-2,37.66816023,127.08123400,1385.7
하  계,어린이공원,서울특별시 노원구 하계동 273-3,37.63204326,127.06795180,6128.9
한글비,근린공원,서울특별시 노원구 하계동 288-2,37.64451236,127.07292570,13614.5
한무리,문화공원,서울특별시 노원구 공릉동 481-2,37.63131395,127.07244010,1963.7
한아름,어린이공원,서울특별시 노원구 상계동 692-3,37.65771366,127.06169510,1500.2
공릉 2,기타,서울특별시 노원구 공릉동2 230-9,37.62523220,127.08242580,1614.8
간  촌,기타,서울특별시 노원구 상계5동 154-3,37.66379480,127.06862440,455
다우리,기타,서울특별시 노원구 상계5동 430-19,37.66204110,127.06401850,180
나누리,기타,서울특별시 노원구 상계5동 456-145,37.66545630,127.06451870,178
달님공원,소공원,서울특별시 용산구 문배동 46,37.538428,126.969601,1195
별님공원,소공원,서울특별시 용산구 문배동 11-1,37.538165,126.969201,1137
개운산,근린공원,서울특별시 성북구 돈암동 산3-15,37.5972067134,127.0257184,208618
개명,소공원,서울특별시 구로구 개봉동 314-14,37.48292941,126.8481689,5415
오류동(대체공원),소공원,서울특별시 구로구 오류동 332-36,37.4934436,126.842953,895
연지마을,소공원,서울특별시 구로구 천왕동 7-36,37.482231,126.843715,431
푸른수목원,근린공원,서울특별시 구로구 항동 31,37.48196844,126.8236695,100809
성북,근린공원,서울특별시 성북구 성북동 168-274,37.5951220028,127.0072874928,69676.5
신길8구역소공원,소공원,서울특별시 영등포구 신길동 3126,37.502528,126.912451,2361
신길9구역소공원,소공원,서울특별시 영등포구 신길동 3403,37.502802,126.911686,2133
신길12구역소공원,소공원,서울특별시 영등포구 신길동 336-317,37.504178,126.9067851,2650
골목,어린이공원,서울특별시 구로구 고척동 224-3,37.507017,126.853545,266
도레미,어린이공원,서울특별시 구로구 고척동 331-1,37.508017,126.852322,326.3
꿈마을,어린이공원,서울특별시 구로구 구로동 777-1,37.487173,126.8901545,909
환경,어린이공원,서울특별시 구로구 구로동 797-1,37.48502191,126.888408,528
희망,어린이공원,서울특별시 구로구 구로동 745-74,37.48703809,126.886243,669
삼각,어린이공원,서울특별시 구로구 구로동 47,37.50135772,126.8920128,2633.5
삭새,어린이공원,서울특별시 구로구 궁동 237-6,37.496337,126.825012,2077
수른,어린이공원,서울특별시 구로구 궁동 279-6,37.49794413,126.829601,332
온수,어린이공원,서울특별시 구로구 온수동 73-5,37.494631,126.8177077,475
화원,어린이공원,서울특별시 구로구 구로동 478-1,37.49791653,126.8804405,4544
신도림,어린이공원,서울특별시 구로구 신도림동 646-1,37.51070916,126.8883753,2292
구로리,어린이공원,서울특별시 구로구 구로동 139-82,37.4904165,126.891578,7782
애경,어린이공원,서울특별시 구로구 구로동 501-22,37.500156,126.8846598,2996
미래사랑,어린이공원,서울특별시 구로구 신도림동 314-2,37.50984705,126.8890762,5870
솔길,어린이공원,서울특별시 구로구 구로동 391-1,37.48918401,126.8804792,1999
오동나무,어린이공원,서울특별시 구로구 오류동 353-4,37.485594,126.838383,1815
버들,어린이공원,서울특별시 구로구 천왕동 277-14,37.48155019,126.8406417,6167
이펜시아,어린이공원,서울특별시 구로구 천왕동 2-5,37.483092,126.8473137,1506
와룡,소공원,서울특별시 구로구 온수동 155-3,37.4979921,126.8214922,2500.1
갈매,소공원,서울특별시 구로구 온수동 155-4,37.49669974,126.8228085,3200.1
개봉동과장미,소공원,서울특별시 구로구 개봉동 345-14,37.48810124,126.854735,657.2
무궁화,소공원,서울특별시 구로구 고척동 341-2,37.50495918,126.8650559,1166
구로동(다울),소공원,서울특별시 구로구 구로동 1286-1,37.49253575,126.888217,243.39
현화,소공원,서울특별시 구로구 고척동 342-1,37.50432419,126.8600969,720
개봉,소공원,"서울특별시 구로구 개봉동 492-1,-2",37.49958755,126.849609,3023
천왕역,소공원,서울특별시 구로구 천왕동 13-56,37.48530509,126.8400322,1711.6
꿀벌,어린이공원,서울특별시 양천구 신월4동 531,37.519986,126.842014,1005.2
당곡,어린이공원,서울특별시 양천구 신월4동 542,37.518649,126.840006,1055.3
당뒤,어린이공원,서울특별시 양천구 신월5동 13-1,37.541496,126.828616,1068.8
방아다리,어린이공원,서울특별시 양천구 신월5동 56-1,37.538641,126.828308,927.3
송죽,어린이공원,서울특별시 양천구 신월5동 65,37.539399,126.833858,444.9
신오,어린이공원,서울특별시 양천구 신월5동 73-2,37.538178,126.831469,932.4
강월,어린이공원,서울특별시 양천구 신월6동 1004,37.515639,126.836422,2755.6
강신,어린이공원,서울특별시 양천구 신월6동 1012-2,37.515669,126.838421,1500
아동,어린이공원,서울특별시 양천구 신월7동 922-1,37.523024,126.833504,1500.2
한울,근린공원,서울특별시 양천구 신월7동 956,37.519698,126.832681,15465.4
오솔길,근린공원,서울특별시 양천구 신월7동 977,37.521068,126.836526,18047.2
금실,어린이공원,서울특별시 양천구 신월7동 985,37.518409,126.837199,3378.8
독서,근린공원,서울특별시 양천구 신월7동 987,37.519783,126.834992,19380.8
신월,근린공원,서울특별시 양천구 신월7동 987-2,37.517521,126.833892,33058
곰달래,근린공원,서울특별시 양천구 신월7동 904-1,37.524918,126.833053,12234
양지,근린공원,서울특별시 양천구 신월7동 936,37.522204,126.830867,9013.4
온수도시자연공원,도시농업공원,서울특별시 양천구 신월동 산85-4 일대,37.505895,126.840021,1003471
해태,어린이공원,서울특별시 양천구 신정1동 1017-5,37.521748,126.862147,1046.8
양명,어린이공원,서울특별시 양천구 신정1동 1050-3,37.519271,126.854392,667.4
신트리,근린공원,서울특별시 양천구 신정1동 310-7,37.514686,126.856359,16409.3
꿈나무,어린이공원,서울특별시 양천구 신정1동 311-1,37.517641,126.858518,3148.2
개나리,어린이공원,서울특별시 양천구 신정1동 312-2,37.517709,126.862844,3500
꽃사과,어린이공원,서울특별시 양천구 신정1동 313-2,37.520069,126.864623,1738.6
단지,어린이공원,서울특별시 양천구 신정1동 1033-18,37.519694,126.854131,3997.9
신정,어린이공원,서울특별시 양천구 신정2동 128-198,37.520437,126.874778,487
신세계,어린이공원,서울특별시 양천구 신정2동 119-3,37.521691,126.875895,1674
꽃사슴,어린이공원,서울특별시 양천구 신정3동 1195,37.521702,126.848443,1009.1
학마을,어린이공원,서울특별시 양천구 신정3동 1293-4,37.508919,126.843669,1500
박장,어린이공원,서울특별시 강서구 화곡동 56-25,37.540768,126.849087,929
참새,어린이공원,서울특별시 강서구 화곡동 56-638,37.539725,126.847003,256
한글,어린이공원,서울특별시 강서구 화곡동 56-3,37.538536,126.850451,965
효심,어린이공원,서울특별시 강서구 화곡동 922-10,37.529495,126.840632,1056.5
버들,어린이공원,서울특별시 강서구 화곡동 424-45,37.531101,126.841222,1087.2
필마,어린이공원,서울특별시 강서구 화곡동 355-12,37.531491,126.838820,1615.5
다운,어린이공원,서울특별시 강서구 화곡동 346-26,37.532101,126.844653,1290.6
호돌이,어린이공원,서울특별시 강서구 화곡동 906-26,37.528191,126.846009,811.6
곰돌이,어린이공원,서울특별시 강서구 화곡동 900-46,37.529614,126.845017,1006.9
골말,어린이공원,서울특별시 강서구 화곡동 865-1,37.533313,126.856050,977.9
뜸부기,어린이공원,서울특별시 강서구 화곡동 845-19,37.530115,126.856902,998.4
하마터,어린이공원,서울특별시 강서구 화곡동 883-3,37.530115,126.853739,1026.8
바탕골,어린이공원,서울특별시 강서구 화곡동 1016-34,37.544700,126.834711,976.6
미리내,어린이공원,서울특별시 강서구 화곡동 1008-32,37.547649,126.834751,967.5
수명산,어린이공원,서울특별시 강서구 화곡동 1044-31,37.540958,126.834336,984.9
대원,어린이공원,서울특별시 강서구 화곡동 1022,37.544928,126.835911,276.9
천사,어린이공원,서울특별시 강서구 화곡동 1139-1,37.546830,126.833001,2395.2
두레,어린이공원,서울특별시 강서구 화곡동 792-9,37.531104,126.859414,986.1
달빛,어린이공원,서울특별시 강서구 화곡동783-1,37.531248,126.862932,976.2
무지개,어린이공원,서울특별시 강서구 화곡동806-10,37.533937,126.861301,976.2
능골,어린이공원,서울특별시 강서구 화곡동468-1,37.536752,126.855316,997.2
개웅,어린이공원,서울특별시 구로구 개봉동 340-8,37.489928,126.852866,1797.4
소막골,어린이공원,서울특별시 구로구 개봉동 271-17,37.48853123,126.852386,516
절골,어린이공원,서울특별시 구로구 개봉동 312-25,37.482821,126.851652,369
가린열,어린이공원,서울특별시 구로구 개봉동 458-4,37.500611,126.8542042,332.9
오금,어린이공원,서울특별시 구로구 고척동 57-22,37.505038,126.866221,348
능골,어린이공원,서울특별시 구로구 고척동 220-3,37.506852,126.854254,357
오동,근린공원,서울특별시 성북구 하월곡동 산2-1,37.6106462838,127.0404131369,233989.7
숭인,근린공원,서울특별시 성북구 보문동6가 산14-6,37.577699791,127.017864069,5332.6
온수(반달지구),근린공원,서울특별시 구로구 오류동 18-141,37.49947855,126.8418368,1529.2
온수(궁동지구),근린공원,서울특별시 구로구 오류동 산4,37.49780089,126.8375987,868
온수(벽산지구),근린공원,서울특별시 구로구 온수동 9-44,37.49459859,126.8244691,26074.7
온수(온수골지구),근린공원,서울특별시 구로구 온수동 산4-25,37.4940823,126.821833,7985.3
온수(온수체육지구),근린공원,서울특별시 구로구 온수동 산10-4,37.49330391,126.8193736,17413.2
고척,근린공원,서울특별시 구로구 고척동 산9-14,37.50658242,126.8532783,108120
계남,근린공원,서울특별시 구로구 고척동 산8,37.509285,126.850122,158814
개웅산,근린공원,서울특별시 구로구 개봉동 산53-3,37.48690364,126.8471261,411972
천왕(시)(천왕골),근린공원,서울특별시 구로구 천왕동 173,37.48261513,126.8337054,9908
천왕(시)(항골),근린공원,서울특별시 구로구 항동 147-2,37.47854975,126.8290997,52032.4
천왕(구),근린공원,서울특별시 구로구 천왕동 276,37.4764232,126.8417584,33677
연지,근린공원,서울특별시 구로구 천왕동 274-2,37.47965771,126.8379653,44478
봉화대,근린공원,서울특별시 구로구 천왕동 산13-1,37.48469858,126.8424192,60975
구로,근린공원,서울특별시 구로구 구로동 102,37.49748278,126.8896027,7901
신도림테크노,근린공원,서울특별시 구로구 구로동 3-33,37.50811753,126.8908707,10482
덕의,근린공원,서울특별시 구로구 고척동 339-4,37.50702571,126.8558381,5565
항동 2호,근린공원,서울특별시 구로구 항동 76-1,37.48192505,126.826833,14425.6
항동 3호,근린공원,서울특별시 구로구 항동 산50-2,37.4751259,126.8154416,12549.5
항동 4호,근린공원,서울특별시 구로구 항동 산50-3,37.47418114,126.8176643,14084.4
항동,근린공원,서울특별시 구로구 오류동 산45-5,37.4892532223,126.8273744799,10701
대성디큐브시티,문화공원,서울특별시 구로구 신도림동 692-1,37.50923794,126.8902377,3322
오류역,문화공원,서울특별시 구로구 오류동 299-29,37.49463217,126.8455221,7510
고척,문화공원,서울특별시 구로구 고척동 100,37.49813087,126.8585712,3733
항동,체육공원,서울특별시 구로구 항동 162,37.47613508,126.8220008,12813
개봉,기타,서울특별시 구로구 개봉동 492-1,37.49958755,126.849609,3684.6
양남어린이공원,어린이공원,서울특별시 영등포구 양평동1가 205,37.523205,126.888303,1467
산성어린이공원,어린이공원,서울특별시 영등포구 대림동 752-60,37.49697742,126.902594,413
다사랑어린이공원,어린이공원,서울특별시 영등포구 대림동 703-6,37.492834,126.899215,1632
고추말어린이공원,어린이공원,서울특별시 영등포구 도림동 23-1,37.511577,126.9070507,3071
대림어린이공원,어린이공원,서울특별시 영등포구 대림동 870,37.491332,126.903016,6969
신사근린공원,근린공원,서울특별시 강남구 압구정동 422,37.526708,127.0212651,6800
대청근린공원,근린공원,서울특별시 강남구 일원동 621,37.49319912,127.0830019,14089.1
늘푸른근린공원,근린공원,서울특별시 강남구 일원동 690,37.48951135,127.0773393,11410.3
개포서근린공원,근린공원,서울특별시 강남구 개포동 180,37.4885944,127.0635583,11219.2
개포동근린공원,근린공원,서울특별시 강남구 개포동 182-1,37.48970641,127.0682905,9705.6
대치근린공원,근린공원,서울특별시 강남구 대치동 512,37.495123,127.0699032,10408.9
늘벗근린공원,근린공원,서울특별시 강남구 대치동 501,37.48928087,127.0563303,19812.3
독골근린공원,근린공원,서울특별시 강남구 도곡동 461,37.484552,127.0468249,10022.9
포이근린공원,근린공원,서울특별시 강남구 개포동 1239-21,37.47967612,127.0447815,16811.4
청룡근린공원,근린공원,서울특별시 강남구 개포동 649-1,37.48528514,127.0537972,9367
배밭근린공원,근린공원,서울특별시 강남구 개포동 181,37.48821488,127.0594681,11627.2
학여울근린공원,근린공원,서울특별시 강남구 개포동 183-1,37.48970641,127.0682905,12505.6
청수근린공원,근린공원,서울특별시 강남구 청담동 134-13,37.523249,127.0584463,17402
청담근린공원,근린공원,서울특별시 강남구 청담동 66,37.52152002,127.0522736,59347
한티근린공원,근린공원,서울특별시 강남구 대치동 212-1,37.49524119,127.0622107,19200
개포근린공원,근린공원,서울특별시 강남구 개포동 139,37.4830336,127.063861,90063.9
달터근린공원,근린공원,서울특별시 강남구 개포동 156,37.485434,127.0596369,232078.2
대진근린공원,근린공원,서울특별시 강남구 개포동 13-1,37.496049,127.0788531,13568.4
온수(잣절지구),근린공원,서울특별시 구로구 개봉동 45-2,37.5019961685,126.8397231408,77320.6
샘  터,어린이공원,서울특별시 중랑구 면목동 656,37.5730300000,127.0834002000,1591.7
송  계,어린이공원,서울특별시 중랑구 면목동 42-1,37.5892198400,127.0956963000,1019.5
소  파,어린이공원,서울특별시 중랑구 면목동 86-3,37.5914818800,127.0925459000,1015.5
섬  들,어린이공원,서울특별시 중랑구 면목동 178-19,37.5881687900,127.0769075000,1005
한  신,어린이공원,서울특별시 중랑구 면목동 30-38,37.5870182700,127.1003895000,995.4
이  화,어린이공원,서울특별시 중랑구 상봉동 114-1,37.5950538500,127.0844896000,215
면목1(가칭),어린이공원,서울특별시 중랑구 상봉동 122-31,37.5931312000,127.0824887000,1578.6
봉  황,어린이공원,서울특별시 중랑구 상봉동 136-35,37.5919367200,127.0739354000,1013.6
상  봉,어린이공원,서울특별시 중랑구 중화동 302-57,37.5982736300,127.0773921000,1057.5
상  리,어린이공원,서울특별시 중랑구 중화동 280-16,37.6040362100,127.0805855000,1005.3
봉  화,어린이공원,서울특별시 중랑구 중화동 323-14,37.5957492000,127.0727829000,824.8
중화리,어린이공원,서울특별시 중랑구 중화동 332-48,37.6041874000,127.0749772000,941.8
초  롱,어린이공원,서울특별시 중랑구 중화동 328-14,37.5992089500,127.0738061000,1433.4
배  꽃,어린이공원,서울특별시 중랑구 중화동 131-20,37.6011363700,127.0857752000,1396
세  화,어린이공원,서울특별시 중랑구 묵동 240-100,37.6111429300,127.0748852000,1147.8
본  동,어린이공원,서울특별시 중랑구 묵동 177-5,37.6115371500,127.0790717000,248
소  망,어린이공원,서울특별시 중랑구 망우동 492-6,37.5977392400,127.0966044000,1224.5
먹  골,어린이공원,서울특별시 중랑구 망우동 155-2,37.5991493600,127.1035307000,1006.3
등나무,어린이공원,서울특별시 중랑구 망우동 344-11,37.6024039200,127.1026933000,988.1
갓바위,어린이공원,서울특별시 중랑구 면목동 164-2,37.5990300000,127.1033000000,996
방  죽,어린이공원,서울특별시 중랑구 묵동 396-1,37.6171215400,127.0813554000,1002.3
새  싹,어린이공원,서울특별시 중랑구 면목동 1508-11,37.5828299000,127.0837025000,6793.5
묵  동,어린이공원,서울특별시 중랑구 묵동 396-2,37.6147236000,127.0824770000,1686.9
묵동소공원,소공원,서울특별시 중랑구 묵동 164-52,37.6153126300,127.0780960000,165.9
묵1동소공원,소공원,서울특별시 중랑구 묵동 396-2,37.6147730000,127.0824600000,854.6
코오롱하늘채앞소공원,소공원,서울특별시 중랑구 면목동 1537-1,37.5719339100,127.0864310000,1221.8
불  광,근린공원,서울특별시 은평구 불광동 산33-1,37.6149680000,126.9103270000,118314.20
백  련,근린공원,서울특별시 은평구응암동 산1-27,37.6083600000,126.9194860000,205090.90
구릉공원,근린공원,서울특별시 중랑구 신내동 234,37.6187314900,127.1123335000,25600.7
능말공원,근린공원,서울특별시 중랑구 신내동 111-31,37.6153560000,127.1070690000,19098.6
배말공원,근린공원,서울특별시 중랑구 신내동 산8-9,37.6140140000,127.1123050000,19887.9
청남공원,근린공원,서울특별시 중랑구 신내동 산2-45,37.6201197400,127.1104604000,223100
원  묵,어린이공원,서울특별시 중랑구 묵동 20-1,37.6170640900,127.0881222000,1500.9
서  당,어린이공원,서울특별시 중랑구 신내동 650-1,37.6156627000,127.0912651000,2000.1
은하수,어린이공원,서울특별시 중랑구 용마산로100길 20,37.5912487300,127.0991535000,1999.7
꽃동산,어린이공원,서울특별시 중랑구 망우동 520-6,37.5922133900,127.0951870000,1004
달동산,어린이공원,서울특별시 중랑구 망우동 416-1,37.5933946200,127.1008446000,984.5
샛  별,어린이공원,서울특별시 중랑구 망우동 474-11,37.5936072100,127.0952679000,950.1
햇  님,어린이공원,서울특별시 중랑구 신내동 474-33,37.6045318200,127.0978631000,593
안  골,어린이공원,서울특별시 중랑구 신내동 656-1,37.6132819100,127.0941169000,184
한아름,어린이공원,서울특별시 중랑구 신내동 660-1,37.6084271200,127.0940364000,2005.7
꽃피울,어린이공원,서울특별시 중랑구 상봉동 484-1,37.6034717200,127.0897486000,1500.1
신  현,어린이공원,서울특별시 중랑구 망우동 583-2,37.6021553900,127.1038444000,1492.3
망우동,어린이공원,서울특별시 중랑구 면목동 127-33,37.5895639100,127.0859226000,2908.8
면  목,어린이공원,서울특별시 중랑구 면목동 127-33,37.5895000000,127.0859000000,993
양  지,어린이공원,서울특별시 중랑구 면목동 98-20,37.5902049100,127.0888870000,979.8
겸  재,어린이공원,서울특별시 중랑구 면목동 70-3,37.5879400000,127.0932000000,975.9
오거리,어린이공원,서울특별시 중랑구 면목동 142-15,37.5885713200,127.0809543000,1357
열  매,어린이공원,서울특별시 중랑구 면목동 153-6,37.5856476300,127.0818678000,1192.7
사  랑,어린이공원,서울특별시 중랑구 면목동 110-1,37.5854894700,127.0912564000,1009.9
남  촌,어린이공원,서울특별시 중랑구 면목동 110-1,37.5854894700,127.0912564000,1010.6
햇  살,어린이공원,서울특별시 중랑구 면목동 137-14,37.5899334000,127.0832000000,867.4
까  치,어린이공원,서울특별시 중랑구 면목동 570,37.5835000000,127.0869690000,3231.7
서오능,근린공원,서울특별시 은평구 진관동 산63-4,37.6384025764,126.9138098934,58509.50
봉산,근린공원,서울특별시 은평구 구산동 산136-5,37.5851950000,126.8919410000,173394.20
목동누리,어린이공원,서울특별시 양천구 목3동 965-1,37.546104,126.865222,2190
나말,어린이공원,서울특별시 양천구 목4동 724-1,37.538689,126.864464,1002.2
정목,어린이공원,서울특별시 양천구 목4동 767-1,37.536923,126.868305,987.3
모세미,어린이공원,서울특별시 양천구 목4동 772-1,37.535262,126.868644,988.9
마장,어린이공원,서울특별시 양천구 목4동 791-22,37.533508,126.864686,785.4
파리,문화공원,서울특별시 양천구 목5동 906,37.534645,126.877186,29619.3
목마,근린공원,서울특별시 양천구 목5동 910,37.538161,126.885426,12816.8
햇님,어린이공원,서울특별시 양천구 목5동 901-2,37.539933,126.879386,2299.5
별님,어린이공원,서울특별시 양천구 목5동 902-2,37.537814,126.875231,4211.4
영도,어린이공원,서울특별시 양천구 목5동 903-2,37.535067,126.872941,2985.4
진달래,어린이공원,서울특별시 양천구 목5동 904-1,37.531972,126.870154,6517
달님,어린이공원,서울특별시 양천구 목5동 911-5,37.535171,126.885482,3659.2
장미,어린이공원,서울특별시 양천구 목5동 912-1,37.534427,126.882744,3963.8
은하수,어린이공원,서울특별시 양천구 목5동 913-1,37.533387,126.878583,3815.8
신대,어린이공원,서울특별시 양천구 신월1동 100-1,37.534828,126.832752,1003.1
돌다리,어린이공원,서울특별시 양천구 신월1동 119,37.531941,126.835812,925.1
반곡,어린이공원,서울특별시 양천구 신월1동 230-1,37.529181,126.835481,946.7
곰달래,어린이공원,서울특별시 양천구 신월1동 234-11외 4,37.528711,126.837905,945.1
신월,어린이공원,서울특별시 양천구 신월1동 240,37.527015,126.838167,1148.2
신곡,어린이공원,서울특별시 양천구 신월2동 459,37.526252,126.845112,990.4
꽃동산,어린이공원,서울특별시 양천구 신월2동 471,37.526443,126.848436,1002.9
신장,어린이공원,서울특별시 양천구 신월2동 486,37.524231,126.842737,983.8
신월2동소공원,소공원,서울특별시 양천구 신월2동 1063-3,37.517502,126.848298,3001
남부,어린이공원,서울특별시 양천구 신월3동 156,37.534821,126.826044,995.9
경인,어린이공원,서울특별시 양천구 신월3동 196,37.532106,126.828788,1161.6
태양,어린이공원,서울특별시 양천구 신월4동 422-1,37.524353,126.838614,998.1
남도,어린이공원,서울특별시 양천구 신월4동 426-4,37.524405,126.840798,1009.9
문화,어린이공원,서울특별시 양천구 신월4동 515,37.521202,126.842733,992.1
용마산근린공원,근린공원,서울특별시 중랑구 망우동 산69-1,37.5968915200,127.1026620000,588871.2
봉화산근린공원,근린공원,서울특별시 중랑구 묵동 산 46-19,37.6089926700,127.0868214000,556451.3
신내공원,근린공원,서울특별시 중랑구 신내동 652,37.6137490000,127.0892090000,18698.7
신내어울공원,근린공원,서울특별시 중랑구 신내동 315-5,37.6139852300,127.0986292000,12915.6
능산공원,근린공원,서울특별시 중랑구 신내동 317-2,37.6116350000,127.0973915000,12350.6
이촌공원,소공원,서울특별시 용산구 이촌동 301-60,37.518766,126.979792,1736
새푸리공원,소공원,서울특별시 용산구 이촌동 399,37.5215843,126.967831,231
도원어린이공원,어린이공원,서울특별시 용산구 도원동 21,37.537154,126.9546234,1500
강변공원,소공원,서울특별시 용산구 이촌동 408,37.521338,126.975039,1766
솔밭어린이공원,어린이공원,서울특별시 용산구 한강로1가 30-3,37.537229,126.973668,2090
신창동어린이공원,어린이공원,서울특별시 용산구 신창동 100,37.5366983,126.954145,257
서빙고공원,근린공원,서울특별시 용산구 용산동5가 24-2,37.524782,126.9712832,11879
기와터공원,근린공원,서울특별시 용산구 한강로3가 63-388,37.52581297,126.969661,2225
문배어린이공원,어린이공원,서울특별시 용산구 문배동 24-1,37.536628,126.9698073,842
서계가로어린이공원,어린이공원,서울특별시 용산구 서계동 276-7,37.551285,126.964252,183
후암어린이공원,어린이공원,서울특별시 용산구 후암동 406-80,37.54722997,126.9836734,182
비상공원,소공원,서울특별시 용산구 이촌동 417,37.522342,126.971394,889
청탑공원,소공원,서울특별시 용산구 이촌동 425,37.517808,126.977273,546
사촌공원,소공원,서울특별시 용산구 이촌동 429,37.520666,126.9709256,1500
강변복지공원,소공원,서울특별시 용산구 이촌동 421,37.521114,126.9658983,377
이촌한우리공원,소공원,서울특별시 용산구 이촌동 437,37.5172264,126.981103,4325
아름드리,근린공원,서울특별시 성북구 하월곡동 225-2,37.60992341,127.037977,3782
꿈나무공원,소공원,서울특별시 용산구 이촌동 301-86,37.520795,126.971721,1412
새싹어린이공원,어린이공원,서울특별시 용산구 이촌동 206-1,37.526961,126.954522,480
삼각지어린이공원,어린이공원,서울특별시 용산구 용산동3가 1-96,37.534406,126.9754551,803
응봉공원,근린공원,서울특별시 용산구 한남동 산8-1,37.544987,127.0047763,187834
동빙고공원,근린공원,서울특별시 용산구 용산동6가 69-163,37.517396,126.983984,55740
두텁바위어린이공원,어린이공원,서울특별시 용산구 동자동 50,37.552054,126.972944,2623
효창어린이공원,어린이공원,서울특별시 용산구 효창동 5-712,37.54303936,126.9590411,525
새꿈어린이공원,어린이공원,서울특별시 용산구 동자동 8,37.552563,126.974476,1828
돌모루어린이공원,어린이공원,서울특별시 용산구 청파동3가 118-102,37.542772,126.9685904,3447
신계공원,역사공원,서울특별시 용산구 신계동 55,37.535079,126.966284,15000
소월길어린이공원,어린이공원,서울특별시 용산구 이태원동 463,37.543563,126.989243,1630
까망돌,어린이공원,서울특별시 동작구 흑석동 335-10,37.506578,126.964102,1904.5
해밀,어린이공원,서울특별시 동작구 사당동 1157-1,37.48852684,126.9744312,2392
영도,소공원,서울특별시 동작구 상도동 535-6,37.50338581,126.9411913,1737
나비,소공원,서울특별시 동작구 상도동 535-3,37.50334639,126.943593,564.1
꽃담길,소공원,서울특별시 동작구 상도동 25-8,37.505644,126.942102,206
흑석,소공원,서울특별시 동작구 흑석동 186-135,37.50916104,126.957863,442
칸나,소공원,서울특별시 동작구 신대방동 698,37.48562691,126.9043083,241
꿈나래,어린이공원,서울특별시 동작구 상도동 36-1,37.5052677,126.9481801,1720.2
새빛,소공원,서울특별시 동작구 사당동 164-1,37.48733571,126.9744112,1680
까막골,소공원,서울특별시 동작구 흑석동 231-31,37.5045058,126.9605347,1420.1
비둘기,어린이공원,서울특별시 동작구 상도1동 558,37.505903,126.9518335,2114.7
효창공원,근린공원,서울특별시 용산구 효창동 255,37.544278,126.959255,171277
새나라어린이공원,어린이공원,서울특별시 용산구 후암동 190-1,37.548319,126.9763669,2340
늘푸른어린이공원,어린이공원,서울특별시 용산구 원효로3가 1-139,37.53479369,126.956553,2300
청파문화공원,문화공원,서울특별시 용산구 서계동 226-3,37.553546,126.9682992,4296.4
동자어린이공원,어린이공원,서울특별시 용산구 동자동 24-11,37.55008633,126.973945,712
이태원어린이공원,어린이공원,서울특별시 용산구 이태원동 286-1,37.538407,126.989041,2858
곰돌이,어린이공원,서울특별시 강서구 가양동 1482-1,37.562311,126.857433,1612.3
비둘기,어린이공원,서울특별시 강서구 가양동 1489-1,37.559504,126.862944,1622.8
종달새,어린이공원,서울특별시 강서구 화곡동819-5,37.535302,126.858021,991.4
화곡2주구1,어린이공원,서울특별시 강서구 화곡동1159-2,37.550201,126.838658,2438.3
화곡2주구2,어린이공원,서울특별시 강서구 화곡동1159-3,37.548723,126.838700,2438.2
범바위,어린이공원,서울특별시 강서구 화곡동1061-36,37.543234,126.841377,973.6
개나리,어린이공원,서울특별시 강서구 화곡동75-3,37.548372,126.844024,285
화곡3주구1,어린이공원,서울특별시 강서구 화곡동1165-2,37.546140,126.836964,4504.2
화곡3주구2,어린이공원,서울특별시 강서구 화곡동1165-6,37.545177,126.840547,3466.8
역말,어린이공원,서울특별시 강서구 화곡동978-18,37.549726,126.848944,982.1
새말,어린이공원,서울특별시 강서구 화곡동994-5,37.552035,126.846474,969.6
연지,어린이공원,서울특별시 강서구 화곡동1109,37.554707,126.853537,629.1
백연,어린이공원,서울특별시 강서구 화곡동980-2,37.550667,126.851903,1107.4
솔뫼,어린이공원,서울특별시 강서구 화곡동379-32,37.538112,126.838674,1981.5
월정,어린이공원,서울특별시 강서구 화곡동372-26,37.535153,126.836008,1181.5
초롱,어린이공원,서울특별시 강서구 화곡동1088-16,37.538100,126.836229,946
은행,어린이공원,서울특별시 강서구 화곡동369-11,37.535821,126.840511,1123.6
까치산,어린이공원,서울특별시 강서구 화곡동354-14,37.533488,126.841904,1163.6
배다리,어린이공원,서울특별시 강서구 화곡동341-24,37.532144,126.848303,1630.1
안골,어린이공원,서울특별시 강서구 화곡동155-1,37.535964,126.850746,2381.8
대무,어린이공원,서울특별시 강서구 화곡동409-84,37.538002,126.847506,946
모태,어린이공원,서울특별시 강서구 화곡동892-17,37.529543,126.849512,1003.4
더부리,어린이공원,서울특별시 강서구 화곡동339-19,37.534902,126.846751,1263.7
나들이,어린이공원,서울특별시 강서구 가양동 1459-1,37.571854,126.844243,1500
아름,어린이공원,서울특별시 강서구 가양동 1465,37.568594,126.848864,1956
꽃동네,어린이공원,서울특별시 강서구 가양동 1461-1,37.570095,126.847132,1510
가양,어린이공원,서울특별시 강서구 가양동 1462-2,37.569758,126.844804,1500
엄지,어린이공원,서울특별시 강서구 가양동 1474-1,37.565810,126.854721,1511.6
무지개,어린이공원,서울특별시 강서구 가양동 1478-1,37.565086,126.851657,1500
풀피리,어린이공원,서울특별시 강서구 가양동 1481-1,37.563578,126.8545998997,1562
가온,어린이공원,서울특별시 서초구 신원동 399,37.459986865,127.069996237,1554.4
으뜸,어린이공원,서울특별시 서초구 서초동 1336,37.4905096972,127.0283022980,1749
소라,어린이공원,서울특별시 서초구 방배동 997-1,37.4784784594,127.0029766825,1782.4
원지,어린이공원,서울특별시 서초구 원지동 368-1,37.4444644290,127.0556581941,1938
서초무지개,어린이공원,서울특별시 서초구 서초동 1355,37.4856046634,127.0280788344,4395.4
꽃마을1,소공원,서울특별시 서초구 서초동 1500-6,37.4904879964,127.0071045811,2440.6
꽃마을2,소공원,서울특별시 서초구 서초동 1499-17,37.4909416848,127.0056374106,380.7
잠원,소공원,서울특별시 서초구 잠원동 158-1,37.5157961895,127.0118739448,1500
잠원성심,소공원,서울특별시 서초구 잠원동 161-1,37.509891509,127.009919268,2000
오솔길,소공원,서울특별시 서초구 반포동 30-28,37.5033516424,127.0147080157,2802.8
달님,소공원,서울특별시 서초구 방배동 424-30,37.4835879705,126.9864630764,259.5
큰마을,소공원,서울특별시 서초구 우면동 669,37.4669491284,127.0212330991,1964.4
솔말,소공원,서울특별시 서초구 우면동 793,37.4597298283,127.0259861059,2720
느티나무,소공원,서울특별시 서초구 염곡동 56-3,37.4639707136,127.0545626050,396
언남,소공원,서울특별시 서초구 염곡동 53-3,37.4638716294,127.0547305247,306
햇살,소공원,서울특별시 서초구 내곡동 184-1,37.4549491368,127.0649235346,1094.5
산새,소공원,서울특별시 서초구 신원동 215,37.44001929,127.050002186,1166.1
벌말,소공원,서울특별시 서초구 신원동 266,37.4485517909,127.0560649758,1032.5
서릿개,소공원,서울특별시 서초구 잠원동 64-8,37.509964006,126.999954758,3912
누에,소공원,서울특별시 서초구 잠원동 160-3,37.5091712490,127.0084300173,1720
새봄,소공원,서울특별시 서초구 방배동 3278-1,37.4792377881,127.0023586281,1471.8
잠원흥동,소공원,서울특별시 서초구 잠원동 74-2,37.5064603387,127.0021941277,2000
방배경남,소공원,서울특별시 서초구 방배동 1028-1,37.4765915178,126.9997144535,1662.25
우면산트러스트,소공원,서울특별시 서초구 서초동 431-5,37.4823297933,127.0205158608,4679
우면,수변공원,서울특별시 서초구 우면동 749,37.4561305714,127.0109898244,21609.1
신원천,수변공원,서울특별시 서초구 내곡동 139,37.4546898457,127.0625465846,11854
청계산,수변공원,서울특별시 서초구 신원동 482-2,37.4543563624,127.0523937572,98587
서초종합,체육공원,서울특별시 서초구 원지동 28번지,37.449959027,127.040023994,20923
태양,어린이공원,서울특별시 동작구 상도동 527-1외 2,37.506795,126.944663,1514.5
서달,소공원,서울특별시 동작구 흑석동 339-4,37.50115916,126.9599134,254.8
희망,어린이공원,서울특별시 동작구 동작동 333-3,37.49388882,126.9801298,2654.3
남성,소공원,서울특별시 동작구 사당동 1131-17(영아),37.48499215,126.9721592,924.1
충효,소공원,서울특별시 동작구 본동 494-9,37.51401526,126.950109,1081.8
꿈나무,어린이공원,서울특별시 동작구 상도동 521-1,37.50329035,126.9427329,1500
빙수골,소공원,서울특별시 동작구 상도동 296-6,37.49668291,126.932279,822
국화원,소공원,서울특별시 동작구 상도동 529-1 상도두산위브아파트,37.50479617,126.942298,757
흐리목,소공원,서울특별시 동작구 상도동 531-2,37.49448602,126.9530398,1869.7
비계,소공원,서울특별시 동작구 흑석동 335-7,37.505468,126.966378,298.4
아랫샘,어린이공원,서울특별시 서초구 내곡동 1-2173,37.4607101716,127.0720756314,1059
윗샘,어린이공원,서울특별시 서초구 내곡동 1-2128,37.4584885872,127.0716789158,1084
능안,어린이공원,서울특별시 서초구 내곡동 168-10,37.4545086001,127.0657519065,1156
아람,어린이공원,서울특별시 서초구 내곡동 산48-1,37.450022664,127.059982359,1533.5
새쟁이,어린이공원,서울특별시 서초구 신원동 9-2,37.4355854980,127.0686480407,1586
염곡,어린이공원,서울특별시 서초구 염곡동 143-9,37.4631545950,127.0543869119,1318
안골,어린이공원,서울특별시 서초구 내곡동 192-1,37.4561949295,127.0631859522,1192
홍씨마을,어린이공원,서울특별시 서초구 내곡동 156-8,37.4531671962,127.0656581599,1461
래미안라클래시소공원,소공원,서울특별시 강남구 삼섬동  19-4,37.51863809,127.0497099,1320
원촌,근린공원,서울특별시 서초구 반포동 20-46,37.5059173390,127.0102448719,9941.7
반포,근린공원,서울특별시 서초구 반포동 114-3,37.4988531475,126.9905156577,26092.2
신반포,근린공원,서울특별시 서초구 반포동 18-5,37.5016446319,126.9989770329,13606.8
서래골,근린공원,서울특별시 서초구 반포동 63-2,37.5016296259,127.0030008295,4690.8
도구머리,근린공원,서울특별시 서초구 방배동 산75-1,37.4795576296,126.9881614490,69578.4
방배동,근린공원,서울특별시 서초구 방배동 산102-20,37.4746307811,126.9850908579,7003
방아다리1,근린공원,서울특별시 서초구 양재동 62,37.4783358875,127.0355876232,2870.8
방아다리2,근린공원,서울특별시 서초구 양재동 72,37.4780473586,127.0352142764,2934.3
바우뫼,근린공원,서울특별시 서초구 양재동 105,37.4745667063,127.0344602553,16386.1
태봉,근린공원,서울특별시 서초구 우면동 694,37.4638204392,127.0227554596,26555.7
청계숲,어린이공원,서울특별시 서초구 신원동 251,37.670115924,126.870081392,1470
장미,어린이공원,서울특별시 관악구 봉천동 148-103,37.47914524,126.9624068,423
한라,어린이공원,서울특별시 관악구 신림동 750-39,37.475633,126.914788,479
서광,어린이공원,서울특별시 관악구 신림동 98-402,37.47521256,126.9427449,459
도덕,문화공원,서울특별시 관악구 신림동 241-13,37.469331,126.938168,394
남강,어린이공원,서울특별시 관악구 신림동 1678-12,37.47350474,126.924653,10350
목화,어린이공원,서울특별시 관악구 신림동 1716-1,37.46791528,126.942282,347
대협,어린이공원,서울특별시 관악구 신림동 746-32,37.47482451,126.913364,391
인헌,어린이공원,서울특별시 관악구 봉천동 196-240,37.475334,126.962545,379
충효,어린이공원,서울특별시 관악구 봉천동 1526-1,37.48101912,126.941048,3188
해바라기,어린이공원,서울특별시 관악구 신림동 321-5,37.461967,126.930214,416
영락,어린이공원,서울특별시 관악구 봉천동 1555-16,37.47682732,126.943804,206
오성,어린이공원,서울특별시 관악구 신림동 655-104,37.467908,126.920805,225
미림,어린이공원,서울특별시 관악구 신림동 254-256,37.466517,126.935286,185
미성,소공원,서울특별시 관악구 신림동 762-2,37.477136,126.9137588,159
약수,어린이공원,서울특별시 관악구 신림동 1685,37.473131,126.912442,533
삼육,소공원,서울특별시 관악구 봉천동 661-118,37.487922,126.934307,119
양산,어린이공원,서울특별시 관악구 신림동 395-35,37.473626,126.932549,297
합실,어린이공원,서울특별시 관악구 신림동 1704-4,37.46514148,126.927068,1297
행운동,소공원,서울특별시 관악구 봉천동 28-82,37.483375,126.959752,401
봉천,어린이공원,서울특별시 관악구 봉천동 1707-2,37.46931172,126.9643575,652
까치산,소공원,서울특별시 관악구 봉천동 1728-2,37.48311896,126.960301,964
남태령제2,소공원,서울특별시 관악구 남현동 612-52,37.471931,126.982172,1310
남현,소공원,서울특별시 관악구 남현동 1063-1,37.4756777776,126.9792770789,1607
세원,어린이공원,서울특별시 서초구 신원동 500-5,37.4559439824,127.0499505788,1369
본마을,어린이공원,서울특별시 서초구 신원동 445,37.4545418823,127.0531676780,1234
분토골어린이공원,어린이공원,서울특별시 은평구 증산 163-34,37.6214820000,126.9157070000,996.00
서갈현어린이공원,어린이공원,서울특별시 은평구 갈현 434-38,37.5832680000,126.9161270000,1532.20
새장골어린이공원,어린이공원,서울특별시 은평구 불광 444-1,37.6110110000,126.9080750000,992.00
시내어린이공원,어린이공원,서울특별시 은평구 불광 444-15,37.6071880000,126.9077770000,659.00
관동어린이공원,어린이공원,서울특별시 은평구 불광 270-11,37.6239920000,126.9165080000,331.00
가람어린이공원,어린이공원,서울특별시 은평구 불광 448-51,37.5867110000,126.9116990000,249.00
신흥어린이공원,어린이공원,서울특별시 은평구 신사 31-2,37.6063100000,126.9342000000,937.90
아까시아어린이공원,어린이공원,서울특별시 은평구 신사 200-27,37.5913120000,126.9289710000,982.00
개나리어린이공원,어린이공원,서울특별시 은평구 신사 237-177,37.5907210000,126.9058130000,2896.00
응암4동어린이공원,어린이공원,서울특별시 은평구 응암 742-9,37.6054830000,126.9309220000,1526.00
불광어린이공원,어린이공원,서울특별시 은평구 불광 236-5,37.6031570000,126.9292880000,496.00
응암9어린이공원,어린이공원,서울특별시 은평구 응암동 761-9,37.6034590000,126.9322370000,2244.30
응암어린이공원,어린이공원,서울특별시 은평구 응암 85-41,37.6153230000,126.9197450000,992.10
신록어린이공원,어린이공원,서울특별시 은평구 녹번 20-6,37.6146890000,126.9156850000,469.00
참다래어린이공원,어린이공원,서울특별시 은평구 응암 120-22,37.6172650000,126.9132950000,954.40
포수동어린이공원,어린이공원,서울특별시 은평구 응암 115-25,37.6251350000,126.9185350000,987.80
시루메어린이공원,어린이공원,서울특별시 은평구 증산 185-1,37.6039730000,126.9237280000,999.60
연서어린이공원,어린이공원,서울특별시 은평구 역촌 32-36,37.6051140000,126.9381260000,956.00
역마을어린이공원,어린이공원,서울특별시 은평구 역촌 39-2,37.6016790000,126.9235170000,949.10
역말어린이공원,어린이공원,서울특별시 은평구 역촌 47-1,37.5980430000,126.9194460000,966.30
인조유기비어린이공원,어린이공원,서울특별시 은평구 역촌 8-11,37.5953670000,126.9173740000,1256.90
대조어린이공원,어린이공원,서울특별시 은평구 대조 212,37.6010730000,126.9184780000,4176.90
길마어린이공원,어린이공원,서울특별시 은평구 갈현 474-1,37.6068760000,126.9142380000,1596.70
궁말어린이공원,어린이공원,서울특별시 은평구 갈현 327-21,37.6086410000,126.9165130000,1190.00
박석어린이공원,어린이공원,서울특별시 은평구 갈현 416-3,37.6168460000,126.9089510000,856.90
좌월어린이공원,어린이공원,서울특별시 은평구 갈현 513-1,37.5989140000,126.9113120000,1398.30
갈곡리어린이공원,어린이공원,서울특별시 은평구 갈현 436-51,37.5959460000,126.9119540000,1738.70
새락골어린이공원,어린이공원,서울특별시 은평구 신사 5-21,37.5829940000,126.9065590000,994.00
호연어린이공원,어린이공원,서울특별시 은평구 녹번 95-44,37.6040980000,126.9166510000,528.00
물굽이공원,수변공원,서울특별시 강남구 세곡동 537,37.46520915,127.093755,3713.3
쉼표소공원,소공원,서울특별시 강남구 세곡동 549,37.467518,127.099851,1199.2
역삼미소공원,소공원,서울특별시 강남구 역삼동 711-5,37.50142477,127.0439883,576
도곡햇살소공원,소공원,서울특별시 강남구 도곡동 538-4,37.49575164,127.0524907,558.5
도담공원,어린이공원,서울특별시 강남구 세곡동 548,37.46732499,127.0986125,4282.7
행복공원,어린이공원,서울특별시 강남구 세곡동 546,37.46728874,127.0971653,2483.5
대치에스케이뷰1 소공원,소공원,서울특별시 강남구 대치동 1029-2,37.49576505,127.0595115,302
대치에스케이뷰2 소공원,소공원,서울특별시 강남구 대치동 1029-3,37.49605146,127.0614886,481
래미안대치팰리스소공원1,소공원,서울특별시 강남구 대치동 1027-1,37.4943606,127.0598416,3845
래미안대치팰리스소공원2,소공원,서울특별시 강남구 대치동 1028-1,37.4949289,127.061663,990
방죽소공원,소공원,서울특별시 강남구 율현동  354,37.4724532,127.1065987,5704
솔밭소공원,소공원,서울특별시 강남구 율현동  431,37.4738142,127.1082681,692
대치제2지구소공원,소공원,서울특별시 강남구 대치동 977,37.50195628,127.0648309,595.5
행당4구역,소공원,서울특별시 성동구 행당동 323-24,37.5555693,127.0320798,1235
도장골,소공원,서울특별시 성동구 행당동 346-2,37.5548088817,127.0273997152,678.3
도선,어린이공원,서울특별시 성동구 홍익동 370,37.56550468,127.031418,2332.5
살구골,어린이공원,서울특별시 성동구 행당동 376-3,37.55573009,127.0335764,1573.9
금동,어린이공원,서울특별시 성동구 금호동2가 1218,37.5494222880,127.0256914528,2591
논골새싹,어린이공원,서울특별시 성동구 행당동 347-2,37.5575113137,127.0250458,2837.1
꽃재,어린이공원,서울특별시 성동구 하왕십리동 1069,37.5678193398,127.0278897345,2810
전관원,어린이공원,서울특별시 성동구 행당동 90-2,37.5546744736,127.0404901794,4760
동부,소공원,서울특별시 성동구 성수동1가 656-1735,37.5452458330,127.0474356,251
청송,소공원,서울특별시 성동구 성수동2가 277-23,37.5459959331,127.0587894152,798.7
향림,소공원,서울특별시 성동구 성수동2가 289-28,37.5470366590,127.0533154,987.8
장미,소공원,서울특별시 성동구 송정동 107,37.5522684,127.0694221960,485.4
금옥,소공원,서울특별시 성동구 금호동2가 1213,37.5530604673,127.0214355952,1230
금남,소공원,서울특별시 성동구 금호동3가 701,37.5505481318,127.0213924385,834
옥정,소공원,서울특별시 성동구 옥수동 562-1,37.5458337,127.0153489,711.76
매봉,소공원,서울특별시 성동구 옥수동 561-1,37.5472954910,127.0121475,2006.7
왕십리 KCC스위첸,소공원,서울특별시 성동구 하왕십리동 1002-1,37.56067856,127.0268747531,1514.1
뉴타운2구역,기타,서울특별시 성동구 상왕십리동 811-3,37.5678250213,127.0250535959,2517
뉴타운1구역,기타,서울특별시 성동구 하왕십리동 1066-1,37.5678250213,127.0250535959,2452.4
청계꿈나무,어린이공원,서울특별시 성동구 하왕십리동 1068,37.56781934,127.0278905,1705
푸른,어린이공원,서울특별시 성동구 금호동4가 235-3,37.5473327732,127.0235968,1681.8
견우,어린이공원,서울특별시 성동구 상왕십리동 816-3,37.5665904987,127.0240824632,1500
직녀,어린이공원,서울특별시 성동구 하왕십리동 1070-5,37.5667467,127.0278177,1500
트리마제,소공원,서울특별시 성동구 성수동1가 718,37.53923821,127.0446715182,2762.8
하왕1-5구역,소공원,서울특별시 성동구 하왕십리동 1071-2,37.5600753850,127.0241246196,1451.1
잠원,근린공원,서울특별시 서초구 잠원동 62-5,37.5129242322,127.0101419757,2373.5
신동,근린공원,서울특별시 서초구 잠원동 58-14,37.5143620075,127.0145570581,6648.4
명주,근린공원,서울특별시 서초구 잠원동 50-4,37.5171749665,127.0151419225,4952.6
세빛,근린공원,서울특별시 서초구 반포동 2-15번지,37.500124598,126.989923698,3452.2
서리풀,근린공원,서울특별시 서초구 방배동 산23-1,37.4846544467,127.0004196458,465938.3
방배,근린공원,서울특별시 서초구 방배동 산 43-7,37.470535455,126.98959984,74847.6
말죽거리,근린공원,서울특별시 서초구 양재동 산57-34,37.4792943946,127.0293042021,132020.3
청계산,근린공원,서울특별시 서초구 원지동 421,37.4425616196,127.0532997634,19622.8
우면산,근린공원,서울특별시 서초구 우면동 71,37.4732487346,127.0288883929,63411.2
인능산,근린공원,서울특별시 서초구 신원동 156-1,37.4432803862,127.0613337402,49839.4
용허리,근린공원,서울특별시 서초구 서초동 1324-1,37.4942807373,127.0230154033,4641.9
명달,근린공원,서울특별시 서초구 서초동 1313-17,37.4990529249,127.0211214817,5466.4
사평리,근린공원,서울특별시 서초구 잠원동 51-3,37.5198769095,127.0147323334,1913.7
샛말,어린이공원,서울특별시 서초구 우면동 732,37.4619375386,127.0245635437,1644.7
원터,어린이공원,서울특별시 서초구 원지동 419-7,37.4435890073,127.0552646858,553
동산,어린이공원,서울특별시 서초구 양재동 376-3,37.4713608503,127.0450508218,1890.4
잔디,어린이공원,서울특별시 서초구 양재동 205-4,37.4662436679,127.0354768734,1664.3
게리,어린이공원,서울특별시 서초구 양재동 325,37.4696654831,127.0405692854,1057.9
구룡,어린이공원,서울특별시 서초구 양재동 399,37.4716396071,127.0485046841,1651.3
개뜰,어린이공원,서울특별시 서초구 양재동 260,37.4739906676,127.0411987885,1530.4
버들,어린이공원,서울특별시 서초구 양재동 298,37.4737866547,127.0457122882,1487.4
샛별,어린이공원,서울특별시 서초구 양재동 370-4,37.4703105604,127.0446122280,1500.1
두둑재,어린이공원,서울특별시 서초구 양재동 357,37.4679421969,127.0440433356,1703.8
용말,어린이공원,서울특별시 서초구 양재동 218-3,37.4628349239,127.0346811276,1994.5
늘푸른,어린이공원,서울특별시 서초구 잠원동 70-7,37.5083037052,127.0055352085,1600
아름,어린이공원,서울특별시 서초구 잠원동 70-8,37.5074305715,127.0047589171,1100
청룡,어린이공원,서울특별시 서초구 반포동 86-1,37.4958717834,126.9997212849,945.1
서래,어린이공원,서울특별시 서초구 반포동 71-6,37.4982725050,127.0003099480,997.1
미도,어린이공원,서울특별시 서초구 반포동 53-1,37.5017906052,127.0107365324,988.3
새말,어린이공원,서울특별시 서초구 방배동 794-16,37.4933153456,126.9886122727,984.8
너른골,어린이공원,서울특별시 서초구 방배동 144-18,37.4875533380,126.9947018389,1216
효령,어린이공원,서울특별시 서초구 방배동 906-14,37.4831002755,126.9975448699,1432.8
청두,어린이공원,서울특별시 서초구 방배동 463-14,37.4806264371,126.9850072047,1657.9
안산,어린이공원,서울특별시 서초구 방배동 979-44,37.4800989984,126.9924823394,1615.6
남태령,어린이공원,서울특별시 서초구 방배동 2956-4,37.4664255363,126.9883749134,1328
햇님,어린이공원,서울특별시 서초구 방배동 424-29,37.4829733526,126.9851406065,2119.1
정문,어린이공원,서울특별시 서초구 방배동 985-3,37.4811567540,126.9996186051,993.1
방현,어린이공원,서울특별시 서초구 방배동 537-50,37.4782273593,126.9916282568,1781.5
동덕,어린이공원,서울특별시 서초구 방배동 593-43,37.4755627164,126.9937092168,936
뒷벌,어린이공원,서울특별시 서초구 방배동 821-1,37.4909076362,126.9869295553,5794.8
가꿀,어린이공원,서울특별시 서초구 방배동 859-1,37.4879703096,126.9875857663,993.5
종열,어린이공원,서울특별시 서초구 양재동 103-4,37.4740451058,127.0337156622,847.8
암산,어린이공원,서울특별시 서초구 우면동 46-12,37.4732747721,127.0256785689,1506
성형촌,어린이공원,서울특별시 서초구 우면동 211,37.4663296490,127.0199789465,2167
식유촌,어린이공원,서울특별시 서초구 우면동 598-3,37.4578878107,127.0133849777,1009
송동,어린이공원,서울특별시 서초구 우면동 491,37.4611116554,127.0155506904,1042
양재,어린이공원,서울특별시 서초구 양재동 9-29,37.4833596481,127.0392922689,990.4
비석,어린이공원,서울특별시 서초구 양재동 90-1,37.4787665643,127.0410897472,1500.6
횃불,어린이공원,서울특별시 서초구 양재동 66-4,37.4783029386,127.0375086861,1496.9
바우뫼,어린이공원,서울특별시 서초구 우면동 60,37.4706523558,127.0234499067,2023.7
동문,어린이공원,서울특별시 서초구 우면동 70-1,37.4725722684,127.0266908005,1515.2
효자,어린이공원,서울특별시 서초구 우면동 55,37.4735198768,127.0244307208,2481
섶다리,어린이공원,서울특별시 서초구 우면동 716,37.4636900537,127.0275358036,1729.5
신중,어린이공원,서울특별시 서초구 서초동 1484-14,37.4823707628,127.0106930422,974.9
장안,어린이공원,서울특별시 서초구 서초동 1556-5,37.4916994765,127.0114439841,969
상명달,어린이공원,서울특별시 서초구 서초동 1488-4,37.4821552536,127.0056396371,991.5
궁현,어린이공원,서울특별시 서초구 서초동 1547-2,37.4883428334,127.0103823107,985.5
하명달,어린이공원,서울특별시 서초구 서초동 1518-1,37.4858349860,127.0054546493,991.9
교대,어린이공원,서울특별시 서초구 서초동 1712-1,37.4943024358,127.0115430877,993.2
새싹,어린이공원,서울특별시 서초구 서초동 1686-10,37.4975074153,127.0182663812,840
누리숲,어린이공원,서울특별시 서초구 서초동 1301-25,37.5020145614,127.0210886407,2233.1
싸리재,어린이공원,서울특별시 서초구 잠원동 30-10,37.5134223198,127.0182497587,991.9
주흥,어린이공원,서울특별시 서초구 잠원동 33-6,37.5121330877,127.0166761868,959.2
고무래,어린이공원,서울특별시 서초구 반포동 30-5,37.5035404452,127.0154237813,5506.9
언구비,어린이공원,서울특별시 서초구 반포동 720,37.5089340748,127.0201712143,1031.9
파랑새,어린이공원,서울특별시 서초구 반포동 4-2,37.5051177479,126.9948227430,4188.3
반원,어린이공원,서울특별시 서초구 잠원동 72-1,37.5091727773,127.0036765410,6020.9
코아,어린이공원,서울특별시 서초구 잠원동 72-4,37.5089193956,127.0040223970,1717
새터,어린이공원,서울특별시 서초구 잠원동 70-6,37.5080907042,127.0068091661,1100
현충,근린공원,서울특별시 동작구 사당동 산24-17,37.48538566,126.9757312,1106402.2
사육신,역사공원,서울특별시 동작구 노량진동 155-1,37.51345628,126.9494127,47832
꿈동산,어린이공원,서울특별시 동작구 상도동 426,37.50336478,126.9543235,613.8
해님,어린이공원,서울특별시 동작구 상도1동 424,37.5015852,126.951273,876
별님,어린이공원,서울특별시 동작구 상도4동 211-415,37.498885,126.944953,259
삼일,근린공원,서울특별시 동작구 사당동 산32,37.483419,126.966736,36660
까치,어린이공원,서울특별시 동작구 사당동 1028-1,37.48053895,126.979537,1604.3
까치산,근린공원,서울특별시 동작구 흑석동141-2일대,37.51066813,126.9627656,384026
은하수,어린이공원,서울특별시 동작구 신대방동 492-222외 1,37.494528,126.912513,4726
장미,어린이공원,서울특별시 동작구 상도동 380-2,37.49366825,126.936031,410.5
노루,어린이공원,서울특별시 동작구 사당동 316-23,37.48182555,126.974225,337
새싹,어린이공원,서울특별시 동작구 사당동 316-33,37.479905,126.973124,780
꿈돌이,어린이공원,서울특별시 동작구 사당동 300-26,37.48033513,126.9699916,761
동산,어린이공원,서울특별시 동작구 사당동 1000,37.47945513,126.9697982,466.1
토끼,어린이공원,서울특별시 동작구 사당동 1000-13,37.47817735,126.970241,821.7
참새,어린이공원,서울특별시 동작구 대방동 414-29 외 5,37.498336,126.921885,2982.7
양지,어린이공원,서울특별시 동작구 사당동 316-37,37.4798868,126.974021,568
새벽,어린이공원,서울특별시 동작구 상도동 335-141,37.50092249,126.930155,496
옹달샘,어린이공원,서울특별시 동작구 상도동 299-193,37.49518283,126.929617,445
동작주차,근린공원,서울특별시 동작구 동작동 326외 1,37.503828,126.977294,42220
샛별,어린이공원,서울특별시 동작구 사당동 1144,37.48740186,126.965401,344.7
반달,어린이공원,서울특별시 동작구 사당동 233-12,37.48355007,126.967932,182
늘푸른,어린이공원,서울특별시 동작구 사당동 산32-76,37.48244858,126.9690493,1503
본동,어린이공원,서울특별시 동작구 본동 483,37.51062857,126.9544535,2195.5
개나리,어린이공원,서울특별시 동작구 사당동 1138-1,37.48622359,126.965684,454
청명,어린이공원,서울특별시 동작구 신대방동 719-1,37.487572,126.9080022,1024
해당화,어린이공원,서울특별시 동작구 신대방동 719-3,37.48687458,126.905905,374
다래어린이공원,어린이공원,서울특별시 은평구 응암동751-22,37.5924200000,126.9105840000,584.90
연신어린이공원,어린이공원,서울특별시 은평구 불광 339,37.6002680000,126.9064720000,1236.00
양천리누리터 어린이공원,어린이공원,서울특별시 은평구 녹번동 281-4,37.6400750000,126.9328820000,5153.30
응암3재건축구역내 어린이공원,어린이공원,서울특별시 은평구 응암동 240-7,37.5930200359,126.9221859255,1602.00
응암10재개발구역내 어린이공원,어린이공원,서울특별시 은평구 응암동 767-1,37.6187840000,126.9308340000,4144.80
응암1구역어린이공원,어린이공원,서울특별시 은평구 응암동764-2,37.6293660000,126.9270140000,3090.10
북한산,근린공원,서울특별시 은평구 불광동 산42-5,37.6057990000,126.9409030000,60789.00
새록어린이공원,어린이공원,서울특별시 은평구 녹번 158-1,37.6250920000,126.9261780000,956.00
섬들,근린공원,서울특별시 서초구 우면동 729,37.4627496589,127.0264455421,15590.3
망루,근린공원,서울특별시 서초구 우면동 703,37.4641050718,127.0203438255,56497.1
송동,근린공원,서울특별시 서초구 우면동 777,37.4587945238,127.0203372714,27472.8
양재천,근린공원,서울특별시 서초구 양재동 261-22,37.4766194114,127.0422083117,19258
마방,근린공원,서울특별시 서초구 양재동 237,37.4723090660,127.0382418728,6546.6
양재,근린공원,서울특별시 서초구 양재동 311,37.4718934165,127.0424301409,32523.4
고인돌,근린공원,서울특별시 서초구 양재동 390,37.4712537032,127.0467743787,4579
분토골,어린이공원,서울특별시 서초구 서초동 1627-4,37.4883788620,127.0174569855,999.1
당골,어린이공원,서울특별시 서초구 서초동 1436-6,37.4854576399,127.0225089517,1616.2
사도감,어린이공원,서울특별시 서초구 서초동 1359-12,37.4857832015,127.0312470813,946.7
마산말,어린이공원,서울특별시 서초구 서초동 1343-8,37.4871947771,127.0267204049,984.9
예술,어린이공원,서울특별시 서초구 서초동 1455-4,37.4833042916,127.0146704518,1006.3
상도,근린공원,서울특별시 동작구 상도동 산75,37.49321807,126.9384079,359342.8
노량진,근린공원,서울특별시 동작구 노량진동 225-291,37.509371,126.943688,413203
용봉정,근린공원,"서울특별시 동작구 본동 산3-9일대, 흑석동 141-2일대",37.511663,126.958792,80804.2
오목,근린공원,서울특별시 양천구 목1동 921,37.527761,126.873091,21470.4
무지개,어린이공원,서울특별시 양천구 목1동 925-1,37.528935,126.867044,2375.1
용왕산,근린공원,서울특별시 양천구 목2동 199-51,37.541663,126.875061,213552
목동,근린공원,서울특별시 양천구 목2동 517 외 37,37.546529,126.879301,13366
달마을,근린공원,서울특별시 양천구 목2동 946-1,37.543331,126.868045,35214
한두,어린이공원,서울특별시 양천구 목3동 611-1,37.549391,126.865352,986.1
백석,어린이공원,서울특별시 양천구 목3동 646-23,37.545356,126.864912,708.4
무궁화,어린이공원,서울특별시 양천구 목3동 712-1,37.541877,126.864247,984.6
청룡,어린이공원,서울특별시 관악구 봉천동 1557-34,37.477619,126.944732,853
모래내,어린이공원,서울특별시 관악구 봉천동 1613-19,37.477901,126.955456,1667
연주대,소공원,서울특별시 관악구 신림동 231-6,37.469214,126.9420007,251
태양,어린이공원,서울특별시 관악구 신림동 1542-1,37.468445,126.936475,345
사우촌,어린이공원,서울특별시 관악구 신림동 1555-1,37.467506,126.934163,339
약수,어린이공원,서울특별시 관악구 봉천동 1510-19,37.4740095,126.9622372,304
탑골,어린이공원,서울특별시 관악구 봉천동 1510,37.47451989,126.9611358,597
장군봉근린공원,근린공원,서울특별시 관악구 신림동 산1-1,37.478631,126.939049,128100
비안,어린이공원,서울특별시 관악구 봉천동 1530-14,37.480767,126.9401567,1661
국사봉,어린이공원,서울특별시 관악구 봉천동 1511-5,37.48999461,126.934035,454
까치산근린공원,근린공원,서울특별시 관악구 봉천동 산66-1,37.47774405,126.9672315,64534
봉림,어린이공원,서울특별시 관악구 신림동 1510-2,37.48272102,126.935717,988
쑥고개,어린이공원,서울특별시 관악구 신림동 1564-68,37.475822,126.940794,1124
난곡,어린이공원,서울특별시 관악구 신림동 1563-56,37.47411595,126.9152598,695
신라,어린이공원,서울특별시 관악구 신림동 744-1,37.47360972,126.912623,514
학다리,어린이공원,서울특별시 관악구 봉천동 647-175,37.488732,126.937591,221
용담,어린이공원,서울특별시 관악구 봉천동 850-8,37.47550045,126.9436117,646
원당,어린이공원,서울특별시 관악구 봉천동 196-2,37.474839,126.963329,1647
교체,어린이공원,서울특별시 관악구 봉천동 196-193,37.4733206,126.9640439,813
노을,어린이공원,서울특별시 강서구 화곡동 105-194,37.539837,126.843928,1031
까치산,어린이공원,서울특별시 강서구 화곡동 102-206,37.538280,126.844436,1805
비둘기,어린이공원,서울특별시 강서구 화곡동 61-96,37.541392,126.846938,1086
큰별,어린이공원,서울특별시 강서구 화곡동 46-41,37.544454,126.848941,1067
꿈돌이,어린이공원,서울특별시 강서구 화곡동 24-128,37.546097,126.845352,1507
소나무,어린이공원,서울특별시 강서구 화곡동 29-31,37.547058,126.847807,942
산새,어린이공원,서울특별시 강서구 화곡동 772,37.546268,126.850385,539
용답휴식,근린공원,서울특별시 성동구 용답동 128-3,37.5699910562,127.0468202035,6046.9
성수,근린공원,서울특별시 성동구 성수동2가 302-25,37.5447708559,127.0518410535,5197.7
성원,어린이공원,서울특별시 성동구 성수동1가 13-21,37.55011556,127.0499031187,982.5
동마장,어린이공원,서울특별시 성동구 마장동 780-1,37.56622804,127.0456969,1090.9
응봉새말,어린이공원,서울특별시 성동구 응봉동 228-23,37.5517516244,127.035857,311
사근,어린이공원,서울특별시 성동구 사근동 291-10,37.563417,127.0475948007,496
마장,어린이공원,서울특별시 성동구 마장동 399-102,37.5623345806,127.0415003020,911
성삼,어린이공원,서울특별시 성동구 성수동2가 273-11,37.5419531271,127.0606154711,1812.2
은행나무터,어린이공원,서울특별시 성동구 성수동2가 316-9,37.5436943891,127.0537509400,675.4
아남,어린이공원,서울특별시 성동구 성수동2가 280-12,37.5473259773,127.0646690638,984.1
열림,어린이공원,서울특별시 성동구 성수2가1동 327-3,37.53962218,127.056782,198
응봉개나리,어린이공원,서울특별시 성동구 응봉동 270,37.5486697090,127.0318721634,462
서마장,어린이공원,서울특별시 성동구 마장동 450-67,37.5715230338,127.0374346984,350.3
송정,어린이공원,서울특별시 성동구 송정동 90-4,37.5551916664,127.0703837381,236.4
미소,어린이공원,서울특별시 성동구 하왕십리동 1055,37.5605100610,127.0235037355,3411
응삼,어린이공원,서울특별시 성동구 응봉동 15-1,37.5543398304,127.0348841525,1646.7
상원,어린이공원,서울특별시 성동구 성수동1가 715-1,37.5475329781,127.0483982207,2636
보람,어린이공원,서울특별시 성동구 마장동 827,37.56613727,127.0381819106,823.3
무지개,어린이공원,서울특별시 성동구 성수동2가 844,37.5415739384,127.0534385882,2143
제비,어린이공원,서울특별시 동작구 대방동 362-11,37.506438,126.925844,1813.9
이수,어린이공원,서울특별시 강서구 염창동 281-3,37.548299,126.874234,1805.1
백합,어린이공원,서울특별시 강서구 염창동 267-24,37.551163,126.869438,939.3
아리수,어린이공원,서울특별시 강서구 염창동 299-3,37.551693,126.875286,862.5
등서,어린이공원,서울특별시 강서구 등촌동 639-2,37.559235,126.854759,879.7
백석,어린이공원,서울특별시 강서구 등촌동 646-41,37.552610,126.863328,993.6
등마루,어린이공원,서울특별시 강서구 등촌동 641-5,37.556036,126.857412,970.9
도림,어린이공원,서울특별시 강서구 등촌동 635-1,37.555596,126.862861,1033.8
능안,어린이공원,서울특별시 강서구 등촌동 517-1,37.546638,126.859908,853.9
한마음,어린이공원,서울특별시 강서구 등촌동 690-3,37.560521,126.843248,1791.8
새나라,어린이공원,서울특별시 강서구 등촌동 707-2,37.561557,126.852004,1563.4
백합,어린이공원,서울특별시 강서구 등촌동 695-4,37.559219,126.844996,1547.4
채송화,어린이공원,서울특별시 강서구 등촌동 694-1,37.562841,126.846117,1544.9
푸르매,어린이공원,서울특별시 강서구 등촌동 705-3,37.559023,126.847504,1538.3
새벗,어린이공원,서울특별시 강서구 등촌동 688-3,37.560711,126.840304,1565.8
코끼리,어린이공원,서울특별시 강서구 등촌동 702-1,37.563238,126.848535,1594.5
구름,어린이공원,서울특별시 강서구 화곡동 98-22,37.543303,126.844116,833
볏골,어린이공원,서울특별시 강서구 화곡동 98-99,37.541815,126.844354,4219
상도근린공원,근린공원,서울특별시 관악구 봉천동 산 103-52,37.491879,126.9414281,87458
호박골,어린이공원,서울특별시 관악구 신림동 1580-22,37.48197587,126.923932,417
해태,어린이공원,서울특별시 관악구 신림동 103-141,37.472323,126.940612,1359
당곡,어린이공원,서울특별시 관악구 봉천동 662-122,37.48872668,126.9335718,294
군아파트,어린이공원,서울특별시 관악구 남현동 602-143,37.471823,126.978932,926
상록,어린이공원,서울특별시 관악구 남현동 602-196,37.472906,126.980544,1557
남현,어린이공원,서울특별시 관악구 남현동 602-333,37.47191194,126.981333,554
예촌,어린이공원,서울특별시 관악구 남현동 1083-1,37.47453441,126.9768782,1509
난우,어린이공원,서울특별시 관악구 신림동 652-160,37.466402,126.921869,241
남부,어린이공원,서울특별시 관악구 신림동 483-14,37.48480913,126.920679,990
새들,어린이공원,서울특별시 관악구 신림동 1441-42,37.48863225,126.925741,979
색동,어린이공원,서울특별시 관악구 신림동 1418-1,37.486533,126.932555,952
새숲,어린이공원,서울특별시 관악구 신림동 539-14,37.4824133,126.9130864,991
장군봉,소공원,서울특별시 관악구 신림동 94-252,37.4781262,126.939008,175
은천,어린이공원,서울특별시 관악구 봉천동 635-309,37.488223,126.942996,443
국회단지,어린이공원,서울특별시 관악구 봉천동 635-37,37.49031557,126.9431126,1200
송학,어린이공원,서울특별시 관악구 봉천동 877-21,37.480272,126.9493248,1013
신화,어린이공원,서울특별시 관악구 신림동 408-10,37.47672757,126.935702,850
미도,어린이공원,서울특별시 관악구 신림동 675-200,37.462803,126.915263,978
무궁화,어린이공원,서울특별시 관악구 신림동 645-1,37.46963167,126.9235717,660
숲자락근린공원,근린공원,서울특별시 강남구 자곡동 615,37.47298119,127.0929684,38003.6
못골위근린공원,근린공원,서울특별시 강남구 자곡동 608,37.47440226,127.0967379,24247.1
못골아래근린공원,근린공원,서울특별시 강남구 자곡동 607,37.47330498,127.0997276,21560.9
안개근린공원,근린공원,서울특별시 강남구 자곡동 647,37.47217989,127.1019482,19739.5
해찬솔근린공원,근린공원,서울특별시 강남구 자곡동 627,37.47039047,127.0923987,12093
물맞이공원,수변공원,서울특별시 강남구 세곡동 604-1,37.465664,127.097181,10399.2
모랫말,근린공원,서울특별시 성북구 하월곡동 90-206,37.604825,127.032787,1740
말죽거리,기타,서울특별시 서초구 서초동 산28,37.4808847672,127.0304688376,280822.6
도하,소공원,서울특별시 금천구 독산동 1149,37.458753,126.8953896,3057.7
박미사랑,소공원,서울특별시 금천구 시흥동 963-1,37.43762998,126.904519,2162.6
독산,문화공원,서울특별시 금천구 독산동 1160-2,37.437907,126.904519,1011.1
우면산,기타,서울특별시 서초구 방배동 산 92-1,37.4712522863,127.0024569784,3721692.4
청계산,기타,서울특별시 서초구 원지동 산 4-13,37.4368473543,127.0447250107,3609700.6
인능산,기타,서울특별시 서초구 신원동 산 39-1,37.4420845564,127.0678787364,2108968.6
대모산,기타,서울특별시 서초구 개포동 산 53-22,37.470020643,127.059953116,2201257.7
서리풀,기타,서울특별시 서초구 방배동 산24-3,37.4827569488,126.9987793858,204269.7
방배,기타,서울특별시 서초구 방배동 686-201,37.4742250877,126.9952976893,210517.2
산장,어린이공원,서울특별시 금천구 시흥동 3-17,37.46089265,126.9124998,678
장미,어린이공원,서울특별시 금천구 시흥동 3-82,37.46163335,126.912238,1207
신흥,어린이공원,서울특별시 금천구 시흥동 4-128,37.45990738,126.907849,312
효봉,어린이공원,서울특별시 금천구 시흥동 4-28,37.46069907,126.910507,503
송록,어린이공원,서울특별시 금천구 시흥동 791-35,37.46134022,126.906169,947.1
느티나무,어린이공원,서울특별시 금천구 시흥동 817,37.45613382,126.906735,939.2
은행,어린이공원,서울특별시 금천구 시흥동 836,37.45204371,126.9071079,865
별장길,어린이공원,서울특별시 금천구 시흥동 925-32,37.448147,126.908596,971.4
금나래중앙,문화공원,서울특별시 금천구 독산동 1151,37.4580752536,126.8949359318,16331.3
자양12지구소공원(가칭),소공원,서울특별시 광진구 자양동 510-38,37.536990,127.068941,310.2
아름드리,어린이공원,서울특별시 동대문구 전농동 688-7,37.5790248311,127.0596822635,2626.5
샛별,어린이공원,서울특별시 동대문구 장안동 379,37.5678428,127.0674928343,1652.9
천장,어린이공원,서울특별시 동대문구 이문동 264-181,37.5988944435,127.0538436211,1656
홍릉,근린공원,서울특별시 동대문구 청량리동 산1-145,37.5895837930,127.0435376259,102920
답십리,근린공원,서울특별시 동대문구 답십리동 산2-9,37.5733201070,127.0638171747,160857.6
배봉산,근린공원,서울특별시 동대문구 전농동 산32-20,37.5812122452,127.0675943339,232813.7
미리내,어린이공원,서울특별시 동대문구 장안동 93-29,37.5806911,127.0717358,833
이슬,어린이공원,서울특별시 동대문구 장안동 190-62,37.5678099,127.0635672748,336
용머리,어린이공원,서울특별시 동대문구 용두동 696-8,37.5727690875,127.0365661118,738.5
장일,어린이공원,서울특별시 동대문구 장안동 164-1,37.5698546,127.0651081,992
아름,어린이공원,서울특별시 동대문구 휘경동 43-275,37.5868279,127.0693157169,1116
동산,어린이공원,서울특별시 동대문구 답십리동 998-1,37.5668782,127.0575108378,1359.2
용두희망,어린이공원,서울특별시 동대문구 용두동 715,37.5801826883,127.0267395194,1291
방아다리,어린이공원,서울특별시 동대문구 제기동 132-1,37.5851297,127.034885,1537
용두,근린공원,서울특별시 동대문구 용두동 34-1,37.5732457315,127.0401114457,17182
텃골,근린공원,서울특별시 동대문구 전농동 553-1,37.5775463,127.051609,5282.7
새샘,근린공원,서울특별시 동대문구 답십리동 294-69,37.5689696,127.0549292,8910.1
장령당,소공원,서울특별시 동대문구 답십리동 1004-4,37.5697319,127.0534938545,1424.1
휘봉,어린이공원,서울특별시 동대문구 휘경동 43-275,37.5868939299,127.069321,1398
꿈동산,어린이공원,서울특별시 동대문구 답십리동 1002-1,37.5732902468,127.0458182218,1570.7
작은언덕,소공원,서울특별시 동대문구 회기동 351-6,37.5893275,127.0540547,400
선농단,역사공원,서울특별시 동대문구 제기동 274-1,37.5811837728,127.0318885094,3933
내길,소공원,서울특별시 동대문구 휘경동 368-4,37.5902902588,127.0650994635,514.9
진달래,어린이공원,서울특별시 동대문구 휘경동 49-384,37.5844985096,127.0686625560,2345
솔바람,소공원,서울특별시 동대문구 용두동 794-1,37.5799175737,127.0304109566,1763.2
샛말,어린이공원,서울특별시 동대문구 전농동 695-1,37.5774900018,127.0501308020,2545
새움,어린이공원,서울특별시 동대문구 답십리동 1009-1,37.5707601609,127.0486740836,2107
가재울,근린공원,서울특별시 노원구 중계동 515-4,37.64933112,127.06710130,10483.9
각  심,어린이공원,서울특별시 노원구 월계2동동 555,37.62916118,127.05160410,4664.4
갈  울,근린공원,서울특별시 노원구 상계동 644,37.66026965,127.06824780,9668.9
감나무,어린이공원,서울특별시 노원구 상계동 742-2,37.64826016,127.05821360,1500.3
갓바위,어린이공원,서울특별시 노원구 중계동 369-6,37.65748039,127.07743470,1538.1
개  미,어린이공원,서울특별시 노원구 공릉동 589-4,37.62069462,127.07799620,973.5
골마을,근린공원,서울특별시 노원구 하계동 251-8,37.63840362,127.07375110,9808.1
곰돌이,어린이공원,서울특별시 노원구 하계동1동256-6,37.64133774,127.07564690,1477.8
공릉동,근린공원,서울특별시 노원구 공릉동 63,37.62069673,127.08634910,11540
공릉사랑어린이공원,어린이공원,서울특별시 노원구 공릉2동 230-9,37.62524400,127.08475300,1759.8
광  석,어린이공원,서울특별시 노원구 중계동 364-11,37.64915853,127.08030580,1603.1
국  화,어린이공원,서울특별시 노원구 하계동 252-11,37.63675415,127.07620600,1495.6
기  린,어린이공원,서울특별시 노원구 상계동 737-3,37.65081661,127.05615220,1500.1
까  치,어린이공원,서울특별시 노원구 상계동 741-1,37.64826016,127.05821360,1500.2
꽃사슴,어린이공원,서울특별시 노원구 상계동 71-4,37.67262600,127.08464200,410
꿈나라,어린이공원,서울특별시 노원구 중계동 358-1,37.65581993,127.07611410,1623
나  래,어린이공원,서울특별시 노원구 공릉동 380-4,37.62672338,127.07072440,996.7
숯내,근린공원,서울특별시 송파구 문정동 150-8,37.48970385,127.111231,10206.5
아시아,근린공원,서울특별시 송파구 잠실동 84,37.51068203,127.0759347,66027.8
연화,근린공원,서울특별시 송파구 문정동 92,37.48549791,127.1290239,14318.2
오금,근린공원,서울특별시 송파구 오금동 51,37.499994,127.134853,219167.4
온조마루,근린공원,서울특별시 송파구 신천동 20-1,37.5199243965,127.1100845778,6734.2
웃말,근린공원,서울특별시 송파구 가락동 21,37.50167671,127.123153,11098.2
잠실,근린공원,서울특별시 송파구 잠실동 230,37.50621827,127.084165,6613.3
장수,근린공원,서울특별시 송파구 장지동 846,37.480889,127.1304766,9949
장지,근린공원,서울특별시 송파구 장지동 산 11 외,37.484721,127.134551,133122.1
천마,근린공원,서울특별시 송파구 마천동 산 2 외,37.500386,127.158815,182420
태양,근린공원,서울특별시 송파구 풍납동 389-2,37.5254428937,127.1152157077,6611.6
풍납,근린공원,서울특별시 송파구 풍납동 74,37.5380930380,127.1217719026,23746
하늘가람,근린공원,서울특별시 송파구 신천동 17-10,37.519327,127.1067029528,6612
한양,근린공원,서울특별시 송파구 송파동 152,37.5040759742,127.1153987410,4842.4
한우물,근린공원,"서울특별시 송파구 문정동 626,633",37.479138,127.1244919227,11385.8
훼밀리,근린공원,서울특별시 송파구 문정동 150-5,37.4907588068,127.1140908311,10528.6
오금지구 근린공원,근린공원,서울특별시 송파구 오금동 106-1 일원,37.505504,127.140584,11488
가야금,어린이공원,서울특별시 송파구 오금동 21,37.508629,127.1293118665,1500
개나리,어린이공원,서울특별시 송파구 문정동 81,37.482425,127.1283131,1312.2
개미,어린이공원,서울특별시 송파구 거여동 29,37.4921999,127.146735,1500.4
거북이,어린이공원,서울특별시 송파구 송파동 243-1,37.5017029768,127.119522,1594
거여,어린이공원,서울특별시 송파구 거여동 593-1,37.492626,127.1428081859,756.6
곰말,어린이공원,서울특별시 송파구 방이동 139,37.51190919,127.1177088,1707.2
굴렁쇠,어린이공원,서울특별시 송파구 문정동 150-6,37.490223,127.1124332975,1596.1
꿈나무,어린이공원,서울특별시 송파구 오금동 117-1,37.5032385952,127.141109,1496.3
나루터,어린이공원,서울특별시 송파구 삼전동 37,37.501606,127.0867436186,1472.9
남천,어린이공원,서울특별시 송파구 마천동 344,37.501303,127.1527102745,282.9
늘봄,어린이공원,서울특별시 송파구 장지동 123-1,37.487571,127.133988,3004.4
능골,어린이공원,서울특별시 송파구 가락동 198,37.493129,127.133207,1484.7
대건,어린이공원,서울특별시 송파구 가락동 165-4,37.4971171016,127.1320317166,1500
가락,근린공원,서울특별시 송파구 가락동 37,37.498469,127.125124,27648.2
개나리,근린공원,서울특별시 송파구 잠실동 44-6,37.507553,127.0941111649,6669.1
개롱,근린공원,서울특별시 송파구 가락동 195,37.493407,127.130026,21544.4
거여,근린공원,서울특별시 송파구 거여동 11,37.497007,127.140981,16185.1
건너말,근린공원,서울특별시 송파구 가락동 110,37.491603,127.123473,11327.8
글샘,근린공원,"서울특별시 송파구 문정동 621,625",37.4804452282,127.1205075295,27289.9
글샘작은,근린공원,서울특별시 송파구 문정동 631,37.477494,127.1212145803,10209.9
누에머리,근린공원,서울특별시 송파구 오금동 110,37.50381027,127.141799,18607.5
동산,근린공원,서울특별시 송파구 송파동 120,37.506226,127.1145004651,5660.8
마천,근린공원,서울특별시 송파구 마천동 11,37.50128584,127.1456483,10962.5
매미,근린공원,서울특별시 송파구 잠실동 35-4,37.5093435415,127.0887160597,8012.3
목련,근린공원,서울특별시 송파구 오금동 156,37.499035,127.138842,8127.4
문정,근린공원,서울특별시 송파구 문정동 18-4 외,37.486486,127.128916,49972
방이,근린공원,서울특별시 송파구 방이동 52,37.51435318,127.1136443,6930.1
백토,근린공원,서울특별시 송파구 오금동 6,37.50811694,127.132113,10024.1
뽕나무,근린공원,서울특별시 송파구 잠실동 19-3,37.5139763496,127.0816396630,11704.9
삼전,근린공원,서울특별시 송파구 삼전동 62-1,37.50179286,127.0933328,6607.6
소리,근린공원,서울특별시 송파구 문정동 357,37.48259805,127.1208964,36638.3
송파,근린공원,서울특별시 송파구 송파동 113,37.50633354,127.110451,6621.2
송파나루,근린공원,"서울특별시 송파구 신천동 32, 잠실동 47",37.51210416,127.1077049,285757.6
동산,어린이공원,서울특별시 금천구 독산동 993-29,37.47292006,126.9059645,1017.2
도담,어린이공원,서울특별시 송파구 마천동 583,37.4996209733,127.159557,4138
안  산,기타,서울특별시 노원구 상계5동 169-53,37.66230180,127.06977530,258
오장골,기타,서울특별시 노원구 상계5동 445-2,37.66304850,127.06688250,99
상계 10,기타,서울특별시 노원구 상계동10 675,37.66096240,127.06002210,825.2
오금지구 수변공원,수변공원,서울특별시 송파구 오금동 97-21 일원,37.507619,127.136866,4302
돌무데기놀이터,기타,서울특별시 송파구 마천동 277-52,37.492024,127.1572038975,455
풍납타이어,기타,서울특별시 송파구 풍납동 483-4,37.535938,127.121564,291
가락1(시영아파트),근린공원,서울특별시 송파구 가락동 479,37.49761457,127.1025318,19159.2
문이,근린공원,서울특별시 송파구 문정동 481,37.484857,127.113722,20856.2
위례 근린공원1호,근린공원,서울특별시 송파구 거여동 491임 일원,37.483179,127.144136,200327
위례 근린공원3호,근린공원,서울특별시 송파구 거여동 산26-7임 일원,37.490844,127.139533,42448
잠실주공5단지 근린공원,근린공원,서울특별시 송파구 잠실동 27 일원,37.512706,127.095491,10741
향유(거마재정비),근린공원,서울특별시 송파구 거여동 200-4 일대,37.494489,127.147614,10569
가락1(시영아파트),어린이공원,서울특별시 송파구 가락동 479,37.49761457,127.1025318,1617.7
문정동136 어린이공원,어린이공원,서울특별시 송파구 문정동 142 일대,37.487357,127.134752,4685
잠실진주,어린이공원,서울특별시 송파구 신천동 20-4 일원,37.518792,127.108557,4470
장미아파트1호,어린이공원,서울특별시 송파구 신천동 7 일원,37.518333,127.099146,5470
장미아파트2호,어린이공원,서울특별시 송파구 신천동 11 일원,37.520392,127.103546,3288
거여2(거마재정비),소공원,서울특별시 송파구 마천동 327-7 일대,37.491039,127.156702,1501
거여3(거마재정비),소공원,서울특별시 송파구 마천동 363-2 일대,37.494838,127.155509,591
거여4(거마재정비),소공원,서울특별시 송파구 마천동 364-8 일대,37.494411,127.156222,5420
거여5(거마재정비),소공원,서울특별시 송파구 마천동 276 일대,37.491148,127.157751,7682
거여6(거마재정비),소공원,서울특별시 송파구 마천동 586 일대,37.497464,127.154635,612
문정동136 소공원,소공원,서울특별시 송파구 문정동 123 일대,37.487951,127.133264,407.5
잠실주공5단지 소공원,소공원,서울특별시 송파구 잠실동 27 일원,37.513067,127.098124,8228
송례(위례 근린공원8호),근린공원,서울특별시 송파구 장지동 393임 일원,37.477529,127.141005,10024.6
신천어린이교통,근린공원,서울특별시 송파구 신천동 7-15,37.516022,127.101762,12755.5
방이동고분,역사공원,서울특별시 송파구 방이동 125,37.50757311,127.1181634,30293.7
백제초기적석총,역사공원,서울특별시 송파구 석촌동 248,37.50214179,127.102815,45137.8
성내천,기타,서울특별시 송파구 마천동 ~ 한강합류점,37.500542,127.139533,61050
올림픽공원,기타,서울특별시 송파구 방이동 88-3 외,37.520341,127.115518,1447122.3
탄천,기타,서울특별시 송파구 장지동 ~ 한강합류점,37.499063,127.088061,161970
두레어린이공원,어린이공원,서울특별시 송파구 마천동 364-5 일대,37.494278,127.156245,75
섬굴,어린이공원,서울특별시 송파구 마천동 128-2,37.496925,127.149266,368
솔바람,어린이공원,서울특별시 송파구 장지동 843-1,37.4788427251,127.129415,1500
솔밭,어린이공원,서울특별시 송파구 방이동 214,37.509068,127.1236308298,1500.1
수정,어린이공원,서울특별시 송파구 문정동 23-5,37.4889204298,127.126227,1494.6
아랫말,어린이공원,서울특별시 송파구 오금동 123-2,37.5048625237,127.137384,1500
아랫바람,어린이공원,서울특별시 송파구 풍납동 306-9,37.532301,127.112232,198
아름,어린이공원,서울특별시 송파구 석촌동 289-3,37.5033674806,127.1070590038,2338.7
안골,어린이공원,서울특별시 송파구 오금동 66-12,37.502813,127.135319,1500.1
안산골,어린이공원,서울특별시 송파구 가락동 152-3,37.497609,127.1266917571,1500.5
어사,어린이공원,서울특별시 송파구 송파동 129,37.5073137239,127.113002,1653.4
영풍,어린이공원,서울특별시 송파구 거여동 16,37.4951323392,127.1424979898,1500.4
옛동산,어린이공원,서울특별시 송파구 방이동 121,37.5096493679,127.115877,1266.3
오동나무,어린이공원,서울특별시 송파구 오금동 84,37.506227,127.1339064715,1500
오봉산,어린이공원,서울특별시 송파구 석촌동 162,37.50612827,127.1023092,1508
용마,어린이공원,서울특별시 송파구 마천동 45,37.4998404221,127.148556,1500.3
윗바람,어린이공원,서울특별시 송파구 풍납동 295-4,37.5343706439,127.112122,291
임금샘,어린이공원,서울특별시 송파구 방이동 189,37.51120967,127.125048,1500.3
잔버들,어린이공원,서울특별시 송파구 거여동 135-46,37.497372,127.144299,303
중대,어린이공원,서울특별시 송파구 송파동 188,37.499678,127.115427,1497.8
진달래,어린이공원,서울특별시 송파구 잠실본동 338,37.503675,127.086313,1738.1
천상,어린이공원,서울특별시 송파구 마천동 610,37.494277,127.1590673729,12464
초록,어린이공원,서울특별시 송파구 마천동 360,37.495639,127.156954,343.9
큰바위,어린이공원,서울특별시 송파구 거여동 7,37.4981101708,127.142529,1508.1
투구봉,어린이공원,서울특별시 송파구 가락동 185,37.494001,127.135365,1502.9
팔각정,어린이공원,서울특별시 송파구 가락본동 118,37.492637,127.124131,1497.5
한샘,어린이공원,서울특별시 송파구 문정동 66,37.484765,127.1250089454,1688
향나무,어린이공원,서울특별시 송파구 거여동 293-2,37.4897917094,127.1442043804,1512.4
훙이,어린이공원,서울특별시 송파구 가락본동 14,37.501139,127.1247542,1500
늘푸른,소공원,서울특별시 송파구 마천동 578,37.4986192701,127.1557171018,921
평화,소공원,서울특별시 송파구 방이동 42-2,37.516291,127.1119804576,1651.3
돌마리,어린이공원,서울특별시 송파구 석촌동 258,37.5006205,127.103249,1715.6
돌무데기,어린이공원,서울특별시 송파구 마천동 375,37.492001,127.155103,97.6
동호수,어린이공원,서울특별시 송파구 송파동 34,37.50991906,127.1070996,1469.7
모슬,어린이공원,서울특별시 송파구 거여동 28-7,37.492376,127.145466,550
몽촌,어린이공원,서울특별시 송파구 방이동 150,37.5129338861,127.114841,1560.8
무궁화,어린이공원,서울특별시 송파구 가락동 134,37.4931940068,127.127074,1500
문현,어린이공원,서울특별시 송파구 장지동 838-1,37.481238,127.128143,1523
반딧불,어린이공원,서울특별시 송파구 문정동 47,37.4878879558,127.1241011796,1489.2
방잇골,어린이공원,서울특별시 송파구 방이동 70-1,37.5134110572,127.110304,1629.6
방죽,어린이공원,서울특별시 송파구 가락본동 28,37.500653,127.122796,1492.1
배미골,어린이공원,서울특별시 송파구 거여동 291-1,37.490834,127.1471347485,1500.1
배밭,어린이공원,서울특별시 송파구 송파동 178,37.5016066635,127.115347,1475.8
버들,어린이공원,서울특별시 송파구 장지동 854-2,37.478761,127.133147,1886
벌말,어린이공원,서울특별시 송파구 오금동 132,37.501638,127.140281,1502.1
복숭아,어린이공원,서울특별시 송파구 오금동 27,37.506812,127.131379,1500.3
봉우리,어린이공원,서울특별시 송파구 가락본동 85,37.496495,127.119238,1495.2
부렴,어린이공원,서울특별시 송파구 잠실본동 296,37.505621,127.079254,1659.8
비둘기,어린이공원,서울특별시 송파구 방이동 195,37.512742,127.123352,1500.2
비석거리,어린이공원,서울특별시 송파구 가락본동 96-15,37.494525,127.117497,1624.5
뽕밭,어린이공원,서울특별시 송파구 잠실본동 220,37.507773,127.081067,1125.6
삼밭,어린이공원,서울특별시 송파구 삼전동 70,37.4995186536,127.092841,1646.1
삼밭나루,어린이공원,서울특별시 송파구 삼전동 95,37.505115,127.091718,1434.1
삼전,어린이공원,서울특별시 송파구 삼전동 51,37.5018109248,127.090203,1644.7
삼학사,어린이공원,서울특별시 송파구 삼전동 110-7,37.506232,127.095323,1648
새마을,어린이공원,서울특별시 송파구 잠실본동 209-4,37.508222,127.086579,1667.3
새말,어린이공원,서울특별시 송파구 가락동 145-10,37.494731,127.125727,1498.1
새싹,어린이공원,서울특별시 송파구 송파동 107,37.5048235089,127.1127220187,1806.4
샛별,어린이공원,서울특별시 송파구 가락본동 51,37.497957,127.121754,1500
샛팽이,어린이공원,서울특별시 송파구 가락동 170-6,37.496755,127.1339104,1500.7
석촌,어린이공원,서울특별시 송파구 석촌동 27,37.505901,127.0998172378,1638.4
샘물공원,어린이공원,서울특별시 강동구 명일1동 315-1,37.5510159,127.1447414,992.1
염주골공원,어린이공원,서울특별시 강동구 명일1동 326-10,37.549932,127.1456059,991.3
성내천공원,어린이공원,서울특별시 강동구 성내1동 463-4,37.526764,127.123929,1413.6
새장터공원,어린이공원,서울특별시 강동구 암사1동 468-2,37.55212624,127.130563,1592
광나루공원,어린이공원,서울특별시 강동구 암사2동 515,37.5500717,127.1255454,1637.7
볕우물공원,어린이공원,서울특별시 강동구 암사1동 453-8,37.553613,127.135704,1552.8
구암공원,어린이공원,서울특별시 강동구 암사3동 449-8,37.556567,127.137608,1647.8
선사공원,어린이공원,서울특별시 강동구 암사3동 440,37.55576061,127.1299975,1610.3
천사공원,어린이공원,서울특별시 강동구 천호2동 363-5,37.54380935,127.1284086,1617.2
고분다리공원,어린이공원,서울특별시 강동구 천호2동 300,37.54540502,127.131821,1621.8
동산공원,어린이공원,서울특별시 강동구 천호2동 305-11,37.547119,127.129682,1646
광진공원,어린이공원,서울특별시 강동구 천호2동 338-19,37.542946,127.122505,1672.7
고명공원,어린이공원,서울특별시 강동구 명일1동 312-30,37.552473,127.143352,545
일자산공원,근린공원,서울특별시 강동구 둔촌동 산140,37.5330568,127.1513563,632733
명일공원,근린공원,서울특별시 강동구 상일동 135,37.5512577,127.1634092,649709.6
명우공원,어린이공원,서울특별시 강동구 명일1동 312-206,37.551537,127.141455,403
혜림공원,어린이공원,서울특별시 강동구 천호1동 47-23,37.54460149,127.139905,992
성안공원,어린이공원,서울특별시 강동구 성내3동 405-18,37.531369,127.134773,1057.1
선린공원,어린이공원,서울특별시 강동구 성내3동 424,37.52851478,127.132711,1575.2
보람공원,어린이공원,서울특별시 강동구 성내3동 444-6,37.52471702,127.131302,989.9
안말공원,어린이공원,서울특별시 강동구 성내3동 512,37.531236,127.129903,2290.3
샛별공원,어린이공원,서울특별시 강동구 성내1동 566,37.526993,127.127036,2391.6
달님공원,어린이공원,서울특별시 강동구 길동 405-21,37.53621038,127.142551,998.6
무궁화공원,어린이공원,서울특별시 강동구 길동 340-17,37.5423345,127.1454038,996.3
희망공원,어린이공원,서울특별시 강동구 길동 365-6,37.53897711,127.142255,992.4
성심공원,어린이공원,서울특별시 강동구 길동 386-1,37.53831458,127.137376,992.3
구름공원,어린이공원,서울특별시 강동구 강일동 378,37.566745,127.179213,1540
이삭,어린이공원,서울특별시 동대문구 전농동 675,37.5787496869,127.0495026005,354.2
쉼터,어린이공원,서울특별시 동대문구 답십리동 952-5,37.5648469701,127.0593170789,1695
장안,근린공원,서울특별시 동대문구 장안동 300,37.5771652926,127.0709026361,14744.8
장평,근린공원,서울특별시 동대문구 장안동 356,37.5674881309,127.0737397772,15698.4
미나리,어린이공원,서울특별시 동대문구 장안동 449,37.5638584042,127.067902,1636.3
장미,어린이공원,서울특별시 동대문구 장안동 386,37.5716161977,127.0691871981,1652.8
손기정체육공원,체육공원,서울특별시 중구 만리동2가 6-1,37.55592073,126.9645377,29682.2
서소문역사공원,역사공원,서울특별시 중구 의주로2가 16-2,37.56056785,126.9688672,21363
한빛미디어파크,역사공원,서울특별시 중구 삼각동 118,37.56800871,126.9851012,2105.7
정동역사공원,역사공원,서울특별시 중구 정동 15-1,37.56773915,126.9713585,8160
순화문화공원,문화공원,서울특별시 중구 순화동 216-2,37.56013992,126.9715294,2102.5
명동문화공원,문화공원,서울특별시 중구 저동1가 91-2,37.56472834,126.9869241,2117
남대문로5가문화공원,문화공원,서울특별시 중구 남대문로5가 831-1,37.56472834,126.9869241,1576.2
청량,근린공원,서울특별시 동대문구 청량리동 산1-1,37.5957317516,127.0448296044,119871
우산각,어린이공원,서울특별시 동대문구 신설동 109-4,37.5738565548,127.0241852123,5294.2
느티나무,어린이공원,서울특별시 동대문구 용두동 138-61,37.5789855529,127.032565,1719
안골,어린이공원,서울특별시 동대문구 장안동 402,37.5652643611,127.0643819023,1652.3
마로니에,어린이공원,서울특별시 동대문구 장안동 325,37.5749393,127.0737197757,1656.2
늘푸른,어린이공원,서울특별시 동대문구 장안동 303,37.5761895896,127.0715753563,1653.1
늘봄,어린이공원,서울특별시 동대문구 장안동 343,37.5713223988,127.0725892839,1659.2
한내,어린이공원,서울특별시 동대문구 장안동 348,37.5678945563,127.0711622919,1617.2
능골공원,근린공원,서울특별시 강동구 강일동 산19,37.556768,127.174727,31464.2
목련,어린이공원,서울특별시 양천구 신정7동 325-2,37.511439,126.858322,2498.5
호돌이,어린이공원,서울특별시 양천구 신정7동 326-2,37.512426,126.861336,3399.7
세양,어린이공원,서울특별시 양천구 신정7동 1306-2,37.506814,126.864025,1560.7
신정7동소공원,소공원,서울특별시 양천구 신정7동 171-61,37.5092629,126.8688037,2553
구산동마을공원확대,기타공원,서울특별시 은평구 구산동 345-6,37.6151200000,126.9077800000,157.00
구산초교앞마을마당,기타공원,서울특별시 은평구 구산동 153-2,37.5956020000,126.9190660000,135.00
팜스퀘어 소공원,기타공원,서울특별시 은평구 대조동 240-3,37.5970180000,126.9067340000,268.80
신사2동 공공공지,기타공원,서울특별시 은평구 신사2동 163-51,37.5938940000,126.9081120000,1848.00
오손길마을마당,기타공원,서울특별시 은평구 응암동 365-30,37.5915620000,126.9025670000,139.00
평화공원,기타공원,서울특별시 은평구 녹번동 153-1,37.6051488334,126.9230105000,5700.10
물빛공원,기타공원,서울특별시 은평구 갈현동 397,37.6189620031,126.9211621249,2051.00
꿈누리어린이공원,어린이공원,서울특별시 중구 신당동 851-9,37.5606932,127.0203973,2568.7
동화어린이공원,어린이공원,서울특별시 중구 신당동 852-4,37.56049514,127.0181196,3070.9
순화어린이공원,어린이공원,서울특별시 중구 순화동 217-6,37.56343951,126.9712668,1457.8
훈련원공원,근린공원,서울특별시 중구 을지로5가 40-3,37.56922545,127.0053319,17927.9
응봉근린공원,근린공원,서울특별시 중구 신당동 산 2-6,37.56251273,127.0250052,110176.5
무학봉공원,근린공원,서울특별시 중구 신당5동 산12-63,37.56251273,127.0250052,38054
저동1소공원,소공원,서울특별시 중구 을지로2가 203-1,37.56595598,126.9896256,210
저동2소공원,소공원,서울특별시 중구 을지로2가 203-4,37.56526144,126.9888661,200
저동3소공원,소공원,서울특별시 중구 저동2가 89-1,37.56563762,126.9890554,389.2
쌍림동소공원,소공원,서울특별시 중구 쌍림동 292-2,37.56350445,127.0030963,169.4
무교2소공원,소공원,서울특별시 중구 태평로1가 2-2,37.56883648,126.9776038,1245.4
경찰기념공원,소공원,서울특별시 중구 의주로1가 44-2,37.56056785,126.9688672,1039
진달래소공원,소공원,서울특별시 중구 정동 1-73,37.56801264,126.9747535,713
마루소공원,소공원,서울특별시 중구 다산동 432-1918,37.55116553,127.0043988,337
만리소공원(만리2구역1),소공원,서울특별시 중구 만리동2가 285(231-2),37.55446168,126.9658367,1204.2
만리소공원(만리2구역2),소공원,서울특별시 중구 만리동2가 281(211),37.55446168,126.9658367,3394.5
만리2구역3(가칭)_만리1,소공원,서울특별시 중구 만리동2가 12-53,37.55446168,126.9658367,427
서소문구역 제5지구(가칭),소공원,서울특별시 중구 서소문동 116,37.56288231,126.9754281,397.5
신당제11구역1(가칭),소공원,서울특별시 중구 신당동 856-6,37.56221478,127.0255059,284.7
신당제11구역2(가칭),소공원,서울특별시 중구 신당동 856-2,37.56312028,127.0255232,79.7
다동근린공원,근린공원,서울특별시 중구 다동51-1,37.56779209,126.9805245,1929
세운3소공원,소공원,서울특별시 중구 예관동 53-4,37.5645401,126.997423,1317.7
묵정어린이공원,어린이공원,서울특별시 중구 충무로5가 21,37.56368166,126.9998022,3907.4
쌍림어린이공원,어린이공원,서울특별시 중구 광희1가 242,37.56415396,127.0049461,1500
황학어린이공원,어린이공원,서울특별시 중구 황학동 755,37.56748267,127.0180129,1087
배재어린이공원,어린이공원,서울특별시 중구 정동 34-31,37.56440726,126.9726897,2877
청구어린이공원,어린이공원,서울특별시 중구 청구동 842-1,37.55566197,127.0138185,1655.7
충현어린이공원,어린이공원,서울특별시 중구 다산동 432-540,37.55110795,127.0056933,1571
다산어린이공원,어린이공원,서울특별시 중구 신당5동 123-1,37.56375032,127.0186793,3678.6
늘푸른어린이공원,어린이공원,서울특별시 중구 다산동 432-917,37.55110795,127.0056933,423
저동어린이공원,어린이공원,서울특별시 중구 저동1가 1-14,37.56474547,126.9878944,1050
미아12-2,소공원,서울특별시 강북구 미아동 812-3,37.6167822,127.0214537,1920
미아12-1,소공원,서울특별시 강북구 미아동 812-5,37.61628296,127.0195237,1637
미아9-1,어린이공원,서울특별시 강북구 송중동 1369-1,37.6207197,127.0335003,2828
어울림,소공원,서울특별시 강북구 송중동 4-1,37.6168529,127.0355326,1923
미아5구역,소공원,서울특별시 강북구 송천동 476-252,37.6125192,127.0267764,856
우이동가족캠핑장,문화공원,서울특별시 강북구 우이동 316,37.6658412,127.0117894,11561
오동도시자연공원,기타,서울특별시 강북구 번동 산27-5,37.62379857,127.0341655,327925.6
감로천생태공원,근린공원,서울특별시 금천구 독산동 373,37.46964774,126.9078499,15000
산기슭공원,근린공원,서울특별시 금천구 시흥동 산138-3,37.46364031,126.9076165,8412
금천체육공원,근린공원,서울특별시 금천구 독산동 산118-4,37.468313,126.908522,18083
삼성산시민휴식공원,근린공원,서울특별시 금천구 시흥동 산116,37.454747,126.9100496,10118
독산자연공원,근린공원,서울특별시 금천구 독산동 산89-5,37.47348901,126.9072777,7650
독산근린공원,근린공원,서울특별시 금천구 독산동 1086,37.46327361,126.8849344,18005.5
금천폭포공원,근린공원,서울특별시 금천구 시흥동 937-2,37.44639673,126.9044447,4835.2
조마,어린이공원,서울특별시 금천구 가산동 148-11,37.47561479,126.8955477,1003
오동근린공원,근린공원,서울특별시 강북구 번동 산20-1,37.6292331,127.0330524,1025284.1
오얏골,어린이공원,서울특별시 강북구 번2동 228,37.6341439,127.0344484,5070.7
벌리,어린이공원,서울특별시 강북구 번3동 240,37.6275219,127.0445034,4083.5
벌말,어린이공원,서울특별시 강북구 번2동 235,37.6296813,127.0396722,4641.3
오현,어린이공원,서울특별시 강북구 번3동 244,37.6245294,127.0466034,3661
색동,어린이공원,서울특별시 강북구 수유1동 49-7,37.6331377,127.0205711,2341.2
흰구름,어린이공원,서울특별시 강북구 수유2동 252-19,37.6455986,127.0205211,1064
희망,어린이공원,서울특별시 강북구 수유3동 194-41,37.6407466,127.0243466,976.9
은모루,어린이공원,서울특별시 강북구 수유3동 172-209,37.642469,127.0267036,918
소귀,어린이공원,서울특별시 강북구 수유3동 25-1,37.6385644,127.0186984,961
상산,어린이공원,서울특별시 강북구 수유3동 224-4,37.6383561,127.0240152,972.9
흰구름,소공원,서울특별시 강북구 수유2동 252-16,37.6459856,127.0204707,214
보등골,어린이공원,서울특별시 강북구 인수동 605-209,37.6350571,127.0184273,869
수유일공원,어린이공원,서울특별시 강북구 수유1동 605-389,37.6307116,127.0170455,2632
새싹,어린이공원,서울특별시 강북구 수유3동 134-40,37.6361119,127.0195804,651
푸른,어린이공원,서울특별시 강북구 인수동 516-44,37.6384972,127.0084905,992
무너미,어린이공원,서울특별시 강북구 수유동 281-2,37.6460654,127.0127414,380
빨래골,어린이공원,서울특별시 강북구 수유1동 475-115,37.6294229,127.0148533,476
장미원,어린이공원,서울특별시 강북구 수유2동 276-10,37.6464688,127.0157277,340
솔밭근린공원,근린공원,서울특별시 강북구 우이동 80,37.6530083,127.012253,34955
송중동,어린이공원,서울특별시 강북구 송중동 128-8,37.6225901,127.0286277,376.9
소귀,어린이공원,서울특별시 강북구 수유3동 25-1,37.6385644,127.0186984,961
북한산근린공원,근린공원,서울특별시 강북구 미아동 산108-19,37.6210716,127.0083592,123527.6
보등골,어린이공원,서울특별시 강북구 인수동 605-209,37.6350571,127.0184273,869
해님공원,소공원,서울특별시 용산구 문배동 45,37.539145,126.970123,1255
개화,근린공원,서울특별시 강서구 개화동 산17,37.588011,126.805798,386500
등마루,근린공원,서울특별시 강서구 화곡동 산199,37.552521,126.855152,74299
공암나루,근린공원,서울특별시 강서구 가양동 1459-9,37.570635,126.849087,25680.4
구암,근린공원,서울특별시 강서구 가양동 1471,37.567599,126.853729,29843.8
황금내,근린공원,서울특별시 강서구 가양동 1485-5,37.561783,126.864104,22002.9
원당,근린공원,서울특별시 강서구 등촌동 690-5,37.559782,126.842567,10096.4
등촌,근린공원,서울특별시 강서구 등촌동 687-4,37.563683,126.841391,10051.6
서낭당,근린공원,서울특별시 강서구 등촌동 706,37.558865,126.849984,10248.8
방화,근린공원,서울특별시 강서구 방화동 855,37.580907,126.814120,72132
옹기골,근린공원,서울특별시 강서구 방화동 842,37.573562,126.821695,9723.6
매화,근린공원,서울특별시 강서구 등촌동 630-14,37.557535,126.852151,1980.4
까치산,근린공원,서울특별시 강서구 화곡동 산162-1,37.536938,126.843936,27658
수명산,근린공원,서울특별시 강서구 내발산동 748,37.550967,126.829893,83807.1
발산,근린공원,서울특별시 강서구 내발산동 739,37.554540,126.825837,17825.5
서울식물원,근린공원,서울특별시 강서구 마곡동 255-1,37.569824,126.831830,503875
마곡나루,근린공원,서울특별시 강서구 방화동 210-1,37.566183,126.813091,17283
불광동마을마당,기타공원,서울특별시 은평구 불광 331-106,37.6182670000,126.9328120000,324.00
역촌동마을마당,기타공원,서울특별시 은평구 역촌 2-108,37.6192340000,126.9361280000,230.10
갈현동마을마당,기타공원,서울특별시 은평구 갈현 526-6,37.6192340000,126.9361280000,249.90
신사2동마을마당,기타공원,서울특별시 은평구 신사 200-170,37.6122700000,126.9392870000,175.00
역촌2동마을마당,기타공원,서울특별시 은평구 역촌2 62-21,37.6169030000,126.9289720000,395.70
응암1동마을마당,기타공원,서울특별시 은평구 응암 97-17,37.6300170000,126.9302440000,635.30
불광3동마을숲마을마당,기타공원,서울특별시 은평구 불광3 480-181,37.5870150000,126.9231410000,807.00
대조동청사옆마을마당,기타공원,서울특별시 은평구 대조 214-8,37.6443320000,126.9180090000,130.30
연천초교앞마을마당,기타공원,서울특별시 은평구 불광2 137-5,37.6051920000,126.9233870000,347.00
구산동마을공원,기타공원,서울특별시 은평구 구산동 340-1,37.6015180000,126.9297620000,2811.00
도원극장옆마을마당,기타공원,서울특별시 은평구 녹번동 74-5,37.6058480000,126.9268970000,48.80
응암3동마을마당,기타공원,서울특별시 은평구 응암3동 337-52,37.6059540000,126.9276160000,518.00
구현초교 앞마을마당,기타공원,서울특별시 은평구 구산동 산41-19,37.6161160000,126.9304210000,541.00
녹번동마을마당,기타공원,서울특별시 은평구 녹번동 104-7,37.6085360000,126.9072230000,754.00
연신초교옆마을마당,기타공원,서울특별시 은평구 불광3동 69,37.6105010000,126.9188880000,711.00
구산동청사앞소공원,기타공원,서울특별시 은평구 구산동 27-7,37.5993950000,126.9320510000,335.90
도란도란,소공원,서울특별시 성북구 석관동 410,37.609214952,127.026093901,426
상길례,문화공원,서울특별시 성북구 장위동 319,37.619624562,127.045322384,4090.2
북악산,근린공원,서울특별시 성북구 성북동 산 25-1,37.593017417,126.988020241,87616.5
북한산,근린공원,서울특별시 성북구 정릉동 산1-1,37.622876627,127.006762547,93472.9
삼청,근린공원,서울특별시 성북구 성북동 산25-1,37.592819106,126.98713708,73.6
우장,근린공원,서울특별시 강서구 화곡동 산60-1,37.552820,126.843808,359435.2
궁산,근린공원,서울특별시 강서구 가양동 산4-7,37.574254,126.841332,135002.7
염창,근린공원,서울특별시 강서구 염창동 산24-1,37.557765,126.868792,112070
꿩고개,근린공원,서울특별시 강서구 방화동 산97-1,37.578139,126.816895,180000
봉제산,근린공원,서울특별시 강서구 화곡동 산1,37.540731,126.858825,917190
도렴공원,역사공원,서울특별시 종로구 신문로1가 240-2,37.570953,126.973709,832.8
공평공원,역사공원,서울특별시 종로구 인사동 275,37.571239,126.985571,219.9
명륜공원,어린이공원,서울특별시 종로구 명륜1가 23-9,37.588055,126.998279,1149.5
새마을공원,어린이공원,서울특별시 종로구 평창동 327-1,37.606448,126.964642,397
인왕공원,어린이공원,서울특별시 종로구 무악동 55-1,37.577468,126.956975,1745.8
연지1공원,어린이공원,서울특별시 종로구 연지동 136-92,37.57418874,127.001063,474.2
경학공원,어린이공원,서울특별시 종로구 명륜3가 53-2,37.584487,126.996902,3269
지봉골공원,어린이공원,서울특별시 종로구 창신동 산6-25,37.578947,127.014468,2508
신문로공원,어린이공원,서울특별시 종로구 신문로2가 160-1,37.569026,126.9724105,665
경희궁공원,역사공원,서울특별시 종로구 신문로2가 2-1,37.57049685,126.9710752,100930
동묘공원,역사공원,서울특별시 종로구 숭인동 238-1,37.573162,127.018284,8450
내수어울공원,근린공원,서울특별시 종로구 내수동 71-2,37.57368596,126.9703773,2392.1
내수공원,근린공원,서울특별시 종로구 내수동 73-3,37.5723883,126.9715781,2192.2
사직공원,근린공원,서울특별시 종로구 사직동 1-28,37.57628582,126.9682319,168099.8
월암공원,근린공원,서울특별시 종로구 송월동 1-2,37.57077796,126.9657457,10662
삼청공원,근린공원,서울특별시 종로구 삼청동 산2-1,37.58769948,126.983451,468348.2
와룡공원,근린공원,서울특별시 종로구 명륜3가 53-52,37.591168,126.990122,204369
숭인공원,근린공원,서울특별시 종로구 숭인동 58,37.57756126,127.0181626,45615
흥인지문공원,근린공원,서울특별시 종로구 종로6가 70,37.57253066,127.0085453,11519.7
수송공원,근린공원,서울특별시 종로구 수송동 80-7,37.57375558,126.981143,3567.2
인왕산공원,근린공원,서울특별시 종로구 옥인동 179-1,37.58302366,126.9634885,201704
북한산공원,근린공원,서울특별시 종로구 평창동 산6-17,37.601976,126.980549,19902.4
마로니에공원,문화공원,서울특별시 종로구 동숭동 1-124,37.580336,127.002513,5802
후창공원,소공원,서울특별시 종로구 평창동 568-2,37.6101992,126.9646152,1920
서린공원,소공원,서울특별시 종로구 서린동 82,37.569989,126.980784,1398
덕수공원,소공원,서울특별시 종로구 신문로1가 174-7,37.569254,126.974735,869.2
평창공원,소공원,서울특별시 종로구 평창동 108-3,37.61062979,126.9778078,1117.6
달바위공원,소공원,서울특별시 종로구 송월동 145-2,37.57065597,126.9654229,3317.8
솔빛공원,소공원,서울특별시 종로구 송월동 145-3,37.569973,126.965539,1793.3
소담공원,소공원,서울특별시 종로구 행촌동 211-4,37.572146,126.9616546,491.4
부암튼튼공원,소공원,서울특별시 종로구 부암동 262-1,37.59228294,126.9645674,1258
의주공원,소공원,서울특별시 종로구 무악동 46-71,37.57384186,126.960267,364
창신공원,어린이공원,서울특별시 종로구 창신동 23-362,37.57798312,127.012931,710
무악공원,어린이공원,서울특별시 종로구 무악동 산2-83,37.57745181,126.960547,5136
낙산공원,어린이공원,서울특별시 종로구 창신동 611-19,37.579546,127.010184,660
참샘골공원,어린이공원,서울특별시 종로구 평창동 470,37.61517106,126.9746192,2737
감나무골공원,어린이공원,서울특별시 종로구 평창동 495-4,37.61276822,126.970377,2403
옥인공원,어린이공원,서울특별시 종로구 옥인동 187-2,37.58231136,126.9623815,472.1
창덕공원,근린공원,서울특별시 종로구 와룡동 2-71,37.578868,126.989712,491328
청진공원,근린공원,서울특별시 종로구 청진동 146-3,37.571415,126.9799007,2802
원서공원,근린공원,서울특별시 종로구 원서동 181,37.578234,126.988566,10004.6
탑골공원,근린공원,서울특별시 종로구 종로2가 38-1,37.570612,126.9880601,14808.7
연지공원,근린공원,서울특별시 종로구 연지동 1-38,37.575758,127.0008075,2827.6
파랑새,어린이공원,서울특별시 금천구 독산동 1095-1,37.454889,126.8888743,1500
철쭉,어린이공원,서울특별시 금천구 독산동 1112,37.45288913,126.8896337,1501.6
두산,어린이공원,서울특별시 금천구 독산동 298-1,37.47303262,126.8942618,974.9
다람쥐,어린이공원,서울특별시 금천구 독산동 999-11,37.46824515,126.8908193,1019.6
푸른골,어린이공원,서울특별시 금천구 독산동 1038-9,37.466546,126.9032037,977.3
무지개,어린이공원,서울특별시 금천구 독산동 1063-14,37.46282267,126.9009392,972.1
옥계,어린이공원,서울특별시 금천구 독산동 1067-9,37.460149,126.900302,1058.6
무궁화,어린이공원,서울특별시 금천구 독산동 378-291,37.46442655,126.9044106,1336
정훈,어린이공원,서울특별시 금천구 독산동 378-4,37.46567731,126.9063221,1094
꿈나무,어린이공원,서울특별시 금천구 독산동 378-434,37.46346975,126.9049179,567
목화,어린이공원,서울특별시 금천구 독산동 883-9,37.477455,126.907262,985.8
무아래,어린이공원,서울특별시 금천구 가산동 234-29,37.473337,126.893278,1162.6
골말,어린이공원,서울특별시 금천구 가산동 28-2,37.482876,126.884528,1485
참새,어린이공원,서울특별시 금천구 독산동 1088-2,37.45695474,126.8871937,1500.1
마곡하늬,근린공원,서울특별시 강서구 공항동 1220,37.556699,126.812659,24597
창천문화공원,문화공원,서울특별시 서대문구 창천동 57-18,37.5568595,126.935161,2326.9
궁동근린공원,근린공원,서울특별시 서대문구 연희동 산118-1,37.5687539,126.9195783,126026
명수어린이공원,어린이공원,서울특별시 서대문구 북아현동 210-24,37.560086,126.9507473,2269
대현문화공원,문화공원,서울특별시 서대문구 대현동 146,37.55779769,126.945455,3063.9
문화촌어린이공원,어린이공원,서울특별시 서대문구 홍제동 277-82,37.59512829,126.947351,1500
불천어린이공원,어린이공원,서울특별시 서대문구 홍제동 287-121,37.59743951,126.948142,2006
은가어린이공원,어린이공원,서울특별시 서대문구 북가좌동 3-39,37.58280507,126.919472,1312
백련근린공원,근린공원,서울특별시 서대문구 홍은동 산11-313,37.5906206,126.9333684,993724
동구물어린이공원,어린이공원,서울특별시 서대문구 연희동 109-2,37.571323,126.928045,275
궁뜰어린이공원,어린이공원,서울특별시 서대문구 연희동 123-5,37.56901942,126.9304024,983.8
궁말어린이공원,어린이공원,서울특별시 서대문구 연희동 86-3,37.571041,126.9336096,886.9
대궐재어린이공원,어린이공원,서울특별시 서대문구 연희동 73-8,37.574059,126.937078,971.9
연희어린이공원,어린이공원,서울특별시 서대문구 연희동 446-182,37.567723,126.921481,661
신가어린이공원,어린이공원,서울특별시 서대문구 북가좌동 318-1,37.580122,126.9083536,993.4
해담는어린이공원,어린이공원,서울특별시 서대문구 북가좌동 325-20,37.58242478,126.9104505,793
다람쥐어린이공원,어린이공원,서울특별시 서대문구 연희동 151-49,37.576037,126.934403,595
모랫재어린이공원,어린이공원,서울특별시 서대문구 홍제동 156-363,37.582955,126.9447011,529
상암곡어린이공원,어린이공원,서울특별시 서대문구 홍제동 322-72,37.582828,126.942227,294
홍남어린이공원,어린이공원,서울특별시 서대문구 홍은동 405-3,37.57799976,126.9291972,970.9
홍연어린이공원,어린이공원,서울특별시 서대문구 홍은동 408-4,37.58012707,126.926801,965.1
백련어린이공원,어린이공원,서울특별시 서대문구 홍은동 421-1,37.582234,126.9240153,985.8
남이마을어린이공원,어린이공원,서울특별시 서대문구 남가좌동 368,37.579028,126.919623,1397.6
연남어린이공원,어린이공원,서울특별시 서대문구 남가좌동 326-8,37.5782157,126.925305,991.7
실락어린이공원,어린이공원,서울특별시 서대문구 홍은동 455-4,37.594473,126.943334,17452
바람산어린이공원,어린이공원,서울특별시 서대문구 창천동 4-54,37.558263,126.9402044,627.1
독립근린공원,근린공원,서울특별시 서대문구 현저동 101,37.57610554,126.9554446,113021.7
가좌어린이공원,어린이공원,서울특별시 서대문구 남가좌동 376-4,37.57586791,126.9205476,1665
개나리어린이공원,어린이공원,서울특별시 서대문구 남가좌동 377-3,37.57778288,126.9177748,1653
창천근린공원,근린공원,서울특별시 서대문구 창천동 4-55,37.55787373,126.9402803,6322
홍제근린공원,근린공원,서울특별시 서대문구 홍제동 454-2,37.59485485,126.9530472,9888
기차길옆소공원,소공원,서울특별시 서대문구 합동 118-1,37.56222543,126.9653523,381.3
독립문어린이공원,어린이공원,서울특별시 서대문구 영천동 263,37.571549,126.9604898,2600
연서어린이공원,어린이공원,서울특별시 서대문구 연희동 519-7,37.57210598,126.9233003,1582
북가좌정원지구어린이공원,어린이공원,서울특별시 서대문구 북가좌동 459-1,37.579749,126.9167807,1869
홍은동어린이공원,어린이공원,서울특별시 서대문구 홍은동 8-158,37.601593,126.950296,1552
아름다운소공원,소공원,서울특별시 서대문구 홍제동 469-1,37.58485193,126.9471888,441.5
중앙근린공원,근린공원,서울특별시 서대문구 북가좌동 480,37.57514307,126.9133826,15466
솟대어린이공원,어린이공원,서울특별시 서대문구 남가좌동 379-3,37.572759,126.9128368,1474.5
나비울어린이공원,어린이공원,서울특별시 서대문구 북가좌동 475,37.57480967,126.909632,6757
홍은3소공원,소공원,서울특별시 서대문구 홍은동 산1-549,37.59965931,126.9433995,747
거꾸로어린이공원,어린이공원,서울특별시 서대문구 북가좌동 338-21,37.58503469,126.913284,1125.3
문화소공원,소공원,서울특별시 서대문구 홍제동 280-2,37.59467058,126.948792,1456
한울소공원,소공원,서울특별시 서대문구 남가좌동 382-5,37.57089843,126.9165627,1006
무궁화소공원,소공원,서울특별시 서대문구 홍제동 451-1,37.58489844,126.9401841,672
하늘소공원,소공원,서울특별시 서대문구 홍은동 445-3,37.59385753,126.942133,1375
모래내어린이공원,어린이공원,서울특별시 서대문구 남가좌동 383-2,37.57238084,126.9137262,1766.3
맑은소리,소공원,서울특별시 성북구 길음동 499,37.6108385,127.0245875,2549.1
정릉동,근린공원,서울특별시 성북구 정릉동 1021-2,37.61846189,127.0045308,5779.1
자주바위,어린이공원,서울특별시 성북구 보문동6가 458-3,37.58287149,127.0178925,1519.3
별빛누리,소공원,서울특별시 성북구 길음동 1284,37.607290872,127.016110077,949
돌이음,소공원,서울특별시 성북구 석관동 410,37.609278297,127.052369052,1103.4
휘경,어린이공원,서울특별시 동대문구 휘경동 372-2,37.5898404,127.0638031,3426.3
장이,소공원,서울특별시 동대문구 장안동 587-1,37.5690595,127.069425,1403.6
휘경마당,소공원,서울특별시 동대문구 휘경동 375-1,37.5898404,127.0638031,654
용두5구역,어린이공원,서울특별시 동대문구 용두동 795-2,37.5756117,127.0350625,4063
용두6구역,소공원,서울특별시 동대문구 용두동 765-12,37.5789781965,127.0265650495,1865
용두6구역 대체공원,소공원,서울특별시 동대문구 답십리동 53-43,37.5723427542,127.0583285711,142
간데메,근린공원,서울특별시 동대문구 답십리동 471,37.5727809772,127.0490643204,15179.7
가재울어린이공원,어린이공원,서울특별시 서대문구 남가좌동 385-2,37.57309232,126.9191177,9508
북아현어린이공원,어린이공원,서울특별시 서대문구 북아현동 216-59,37.55849107,126.9517607,2357.2
한성어린이공원,어린이공원,서울특별시 서대문구 북아현동 147-48,37.55900376,126.955252,2240.8
너른바위어린이공원,어린이공원,서울특별시 서대문구 북아현동 216-37,37.55832008,126.9522503,2592.2
복주산근린공원,근린공원,서울특별시 서대문구 북아현동176-25,37.56181347,126.9551252,11430
아현역소공원,소공원,서울특별시 서대문구 북아현동136-3,37.55768632,126.9559516,563
남가좌동소공원,소공원,서울특별시 서대문구 남가좌동 388-7,37.58077778,126.9196878886,402
남가좌동어린이공원,어린이공원,서울특별시 서대문구 남가좌동 224-114,37.57760952,126.9178882,4144
연희푸르지오어린이공원,어린이공원,서울특별시 서대문구 연희동 717-50,37.57668706,126.9300362,2053
상수소공원,소공원,서울특별시 마포구 상수동 399,37.545926,126.927163,1413.0
산사나무소공원,소공원,서울특별시 마포구 상암동 1618-1,37.575268,126.896265,714.0
현석소공원,소공원,서울특별시 마포구 현석동 225-2일대,37.542983,126.934492,6038.0
노고산소공원,소공원,서울특별시 마포구 노고산동 57-53,37.555063,126.935013,1510.0
무쇠막소공원,소공원,서울특별시 마포구 노고산동 123-1일원,37.552612,126.934174,449.1
독막소공원,소공원,서울특별시 마포구 대흥동 18-101일대,37.554491,126.943779,2626.0
아소정소공원,소공원,서울특별시 마포구 공덕동 479-1,37.545468,126.948266,1454.8
큰우물소공원,소공원,서울특별시 마포구 공덕동 479-4,37.545536,126.394964,547.4
소금동네소공원,소공원,서울특별시 마포구 염리동 532-8,37.554090,126.946358,1217.9
쌍룡산소공원,소공원,서울특별시 마포구 염리동 533-1,37.551687,126.950591,885.9
밤섬문화공원,문화공원,서울특별시 마포구 신정동 76-1,37.542784,126.931869,1638.0
서강나루문화공원,문화공원,서울특별시 마포구 창전동 165-5,37.545250,126.931077,2429.0
당인동문화공원,문화공원,서울특별시 마포구 당인동 27-9,37.545411,126.920154,301.0
가온문화공원,문화공원,서울특별시 마포구 상암동 1594,37.581827,126.887611,4631.0
DMC문화공원,문화공원,서울특별시 마포구 상암동 1611,37.578087,126.892245,3829.0
물빛문화공원,문화공원,"서울특별시 마포구 상암동 1608,1609",37.580050,126.893162,5827.0
휴암문화공원,문화공원,서울특별시 마포구 상암동 670,37.584719997,126.8781706721,5285.0
홍익문화공원,문화공원,서울특별시 마포구 서교동 359,37.552186,126.922987,2230.0
양화진역사공원,역사공원,서울특별시 마포구 합정동 139-21 일대,37.545546,126.911201,4804.0
외국인묘지공원,묘지공원,서울특별시 마포구 합정동145-3 등 10필지,37.546524,126.911775,13224.0
중동어린이공원,어린이공원,서울특별시 마포구 중동 228,37.568461,126.910438,377.0
샘터어린이공원,어린이공원,서울특별시 마포구 중동 36-34,37.569894,126.906749,123.0
개나리어린이공원,어린이공원,서울특별시 마포구 중동 40-5 일대,37.569918,126.909182,1481.0
새누리어린이공원,어린이공원,서울특별시 마포구 상암동 1619,37.575503,126.898226,2897.0
휴암어린이공원,어린이공원,서울특별시 마포구 상암동 14-5,37.577136,126.895662,921.0
부엉바위어린이공원,어린이공원,서울특별시 마포구 상암동 1636,37.575395,126.892472,1511.0
물치어린이공원,어린이공원,서울특별시 마포구 상암동 1656,37.577694,126.887921,1522.0
귀리어린이공원,어린이공원,서울특별시 마포구 상암동 1681,37.581473,126.880714,1504.0
목련어린이공원,어린이공원,서울특별시 마포구 상암동1742,37.587380,126.880225,1501.0
산수유어린이공원,어린이공원,서울특별시 마포구 상암동1744,37.585485,126.879008,2011.0
산딸나무어린이공원,어린이공원,서울특별시 마포구 상암동1753,37.583547,126.877927,1499.0
애오개도담어린이공원,어린이공원,서울특별시 마포구 아현동 800-6,37.553433,126.958529,3212.0
쌍룡산어린이공원,어린이공원,서울특별시 마포구 아현동 769,37.552173,126.950512,5911.0
토정어린이공원,어린이공원,서울특별시 마포구 용강동 63-2,37.540558,126.943410,2631.0
애오개어린이공원,어린이공원,서울특별시 마포구 아현동 802번지 일대,37.555353,126.958672,1424.0
망원어린이공원,어린이공원,서울특별시 마포구 망원동 458-64,37.552132,126.904303,2862.0
광흥창어린이공원,어린이공원,서울특별시 마포구 창전동 26-1,37.549510,126.930846,1353.0
신수어린이공원,어린이공원,서울특별시 마포구 신수동 95-5일원,37.550366,126.933878,3792.2
염리어린이공원,어린이공원,서울특별시 마포구 염리동 533-10,37.549782,126.946303,1933.0
공덕소공원,소공원,서울특별시 마포구 공덕동 475-1일대,37.548506,126.954637,1310.0
만리재소공원,소공원,서울특별시 마포구 신공덕동 176,37.544438,126.955226,883.0
단풍소공원,소공원,서울특별시 마포구 공덕동 470-3,37.548729,126.953344,274.0
아현새싹소공원,소공원,서울특별시 마포구 아현동 786,37.551847,126.954409,613.0
아현초록소공원,소공원,서울특별시 마포구 아현동 776,37.554389,126.953208,1035.0
용강나루소공원,소공원,서울특별시 마포구 용강동 506,37.541863,126.942271,1088.0
용강소공원,소공원,서울특별시 마포구 용강동 507,37.543026,126.940308,951.0
대흥소공원,소공원,서울특별시 마포구 대흥동 804-4,37.548567,126.941091,1820.0
복자기소공원,소공원,서울특별시 마포구 신수동 460,37.545885,126.936601,707.0
상수나루소공원,소공원,서울특별시 마포구 상수동 402-2,37.546110,126.926336,1359.0
복사꽃어린이공원,어린이공원,서울특별시 마포구 도화동 533,37.538935,126.946352,1553.0
도화소어린이공원,어린이공원,서울특별시 마포구 도화동 540,37.541053,126.945360,1646.0
삼개어린이공원,어린이공원,서울특별시 마포구 도화동 555-1,37.540357,126.945076,3029.0
대흥어린이공원,어린이공원,서울특별시 마포구 대흥동 660-1,37.543749,126.943687,1486.0
현석어린이공원,어린이공원,서울특별시 마포구 현석동 1-5,37.544342,126.933325,1622.0
창전어린이공원,어린이공원,서울특별시 마포구 창전동 35-28,37.550161,126.929162,1185.0
와우어린이공원,어린이공원,서울특별시 마포구 상수동 72-7,37.548829,126.925356,2924.0
서교어린이공원,어린이공원,서울특별시 마포구 서교동 391-1,37.552019,126.915475,1761.0
잔다리어린이공원,어린이공원,서울특별시 마포구 서교동 479-1,37.554524,126.912530,774.0
윗잔다리어린이공원,어린이공원,서울특별시 마포구 동교동 168-1,37.557013,126.925668,3251.0
동교어린이공원,어린이공원,서울특별시 마포구 동교동 197-17,37.560093,126.923451,978.0
합정어린이공원,어린이공원,서울특별시 마포구 서교동 489,37.551673,126.913138,3005.0
양화어린이공원,어린이공원,서울특별시 마포구 합정동 394-1,37.550350,126.908449,1388.0
한마음어린이공원,어린이공원,서울특별시 마포구 망원동 381-1,37.554689,126.908012,770.0
옹달샘어린이공원,어린이공원,서울특별시 마포구 망원동 408-3,37.555005,126.902213,1134.0
두리어린이공원,어린이공원,서울특별시 마포구 망원2동 436-1,37.560249,126.901287,1007.0
망원새싹어린이공원,어린이공원,서울특별시 마포구 망원2동 509-1,37.559070,126.898531,559.0
느티나무어린이공원,어린이공원,서울특별시 마포구 연남동 563-5,37.559509,126.918717,993.0
은행나무어린이공원,어린이공원,서울특별시 마포구 연남동 250-1,37.564634,126.922412,994.0
다솜어린이공원,어린이공원,서울특별시 마포구 성산동 113-2,37.562273,126.915497,975.0
뒤뜰어린이공원,어린이공원,서울특별시 마포구 성산동 588-8,37.563171,126.909337,530.0
외주목어린이공원,어린이공원,서울특별시 마포구 성산동 587-18 일대,37.562753,126.907962,263.0
성메어린이공원,어린이공원,서울특별시 마포구 성산동 667-1,37.568099,126.914835,640.0
성황당어린이공원,어린이공원,서울특별시 마포구 성산동 147-5,37.569036,126.907328,1367.0
큰길어린이공원,어린이공원,서울특별시 마포구 성산동 200-50,37.567792,126.908240,942.0
쌍둥이어린이공원,어린이공원,서울특별시 마포구 성산동 200-335,37.565742,126.906753,905.0
성사천어린이공원,어린이공원,서울특별시 마포구 성산동 199-11,37.565373,126.904868,166.0
중동소어린이공원,어린이공원,서울특별시 마포구 중동 36-27,37.570680,126.906726,779.0
상암공원,근린공원,서울특별시 마포구 상암동 산26-39,37.578696,126.883265,161153.0
매봉산공원,근린공원,서울특별시 마포구 상암동 1631,37.573807,126.895580,13137.0
구룡공원,근린공원,서울특별시 마포구 상암동 1583,37.582791,126.883713,14287.0
와우공원,근린공원,서울특별시 마포구 창전동3-231 등 59필지,37.552340,126.928984,73590.0
부엉이공원,근린공원,서울특별시 마포구 상암동1735,37.584788,126.883089,17640.0
성산공원,근린공원,서울특별시 마포구 성산동산11-1 등 38필지,37.562212,126.909895,103962.0
쌍룡산공원,근린공원,서울특별시 마포구 아현동 768,37.552928,126.950388,5791.0
샛터공원,근린공원,서울특별시 마포구 성산동200-326 등 19필지,37.566196,126.906180,31100.0
노고산공원,근린공원,서울특별시 마포구 대흥동 산1-30등17필지,37.551503,126.943063,528936.0
큰더기어린이공원,어린이공원,서울특별시 마포구 공덕동 470-1,37.550169,126.953199,1949.0
공덕역어린이공원,어린이공원,"서울특별시 마포구 공덕동 467-1,2,3",37.545107,126.951301,2435.0
마포어린이공원,어린이공원,서울특별시 마포구 마포동 350-5,37.535803,126.943667,2030.0
서울북부지방검찰청주변녹지,기타,서울특별시 도봉구 도봉2동 626-22,37.6756414,127.0466808,314
달맞이,근린공원,서울특별시 성동구 금호동4가 산 27,37.5433496006,127.0193024442,63411.43
무학봉,근린공원,서울특별시 성동구 하왕십리동 890-243,37.5612312466,127.0259523173,28843
금호,근린공원,서울특별시 성동구 금호동3가 1266,37.5490411673,127.0190198709,13467.8
샛  말,어린이공원,서울특별시 노원구 상계동 1116-50,37.67626473,127.05765700,331
선  녀,어린이공원,서울특별시 노원구 상계동 767-2,37.64630799,127.05895750,1500.2
소  망,어린이공원,서울특별시 노원구 상계동 720-1,37.65470356,127.06619100,1500
소곶네,어린이공원,서울특별시 노원구 월계동 411-47,37.62101391,127.06140410,814
송  림,어린이공원,서울특별시 노원구 공릉동 106-3,37.62769787,127.08729990,1500.3
씨  알,어린이공원,서울특별시 노원구 공릉동 371-1,37.62793146,127.07360810,991.3
안  골,어린이공원,서울특별시 노원구 월계동 781-1,37.63176137,127.05233860,1473.9
앵무새,어린이공원,서울특별시 노원구 하계동 251-13,37.63982606,127.07116740,1614.1
양  지,근린공원,서울특별시 노원구 중계동 362,37.64545773,127.07483580,10508.1
엄  지,어린이공원,서울특별시 노원구 상계동 720-4,37.65298873,127.06355860,1500.1
연  지,어린이공원,서울특별시 노원구 월계동 564,37.62895578,127.05665580,3847.1
연  촌,어린이공원,서울특별시 노원구 월계동 322-4,37.62811918,127.06295040,1509.7
연천내,어린이공원,서울특별시 노원구 월계동 411-50,37.62238292,127.06111500,152
영축산              <시공원>,근린공원,서울특별시 노원구 월계동 산108,37.62834719,127.05754100,260500
옹달샘,어린이공원,서울특별시 노원구 공릉동 270-4,37.62076239,127.08091200,341
용  화,어린이공원,서울특별시 노원구 상계동 695-1,37.65916949,127.05717130,1500
원  터,근린공원,서울특별시 노원구 상계동753-2,37.65043289,127.06275940,10121.4
월  계,어린이공원,서울특별시 노원구 월계동 429-44,37.62071011,127.06064600,858
이  화,어린이공원,서울특별시 노원구 중계동 363-8,37.64702362,127.07994920,1550.7
인덕마을,어린이공원,서울특별시 노원구 월계2동 277-22,37.63015582,127.05662700,2470
삼  들,어린이공원,서울특별시 노원구 상계동 623,37.67040400,127.05272660,1500
상  계,근린공원,서울특별시 노원구 상계동 620,37.66943924,127.05044020,30479.4
상계소공원1,소공원,서울특별시 노원구 상계동 680,37.66385315,127.06198500,2471
상계소공원2,소공원,서울특별시 노원구 상계동 677,37.66122126,127.06240260,1530
상계소공원3,소공원,서울특별시 노원구 상계3·4동 1355-6,37.66729090,127.07708270,574.2
상계소공원4,소공원,서울특별시 노원구 상계3·4동 1355-8,37.66443274,127.07456840,670
상록수,어린이공원,서울특별시 노원구 상계동 663,37.66040664,127.07032420,2130
새  싹,어린이공원,서울특별시 노원구 중계동 359-2,37.65101324,127.07504790,1516.9
새마을,어린이공원,서울특별시 노원구 상계동 1257-1,37.67970594,127.05241100,1307.8
샘  터,어린이공원,서울특별시 노원구 상계동 1255-1,37.68082342,127.05422010,1500
능동소공원,소공원,서울특별시 광진구 능동 242-26,37.55243686,127.082877,1062
홍련산의소공원,소공원,서울특별시 광진구 구의동 668-5,37.54613706,127.0886173,1291.1
뚝섬유원지역쉼터소공원,소공원,서울특별시 광진구 자양동 854-1,37.53189643,127.0673192,802.3
중곡역소공원(가칭),소공원,서울특별시 광진구 중곡동 30-79,37.56587772,127.084940,1276.7
온달공원,어린이공원,서울특별시 광진구 광장동 242-1,37.54598669,127.1040763,1012
평강공원,어린이공원,서울특별시 광진구 광장동 387-1,37.54811752,127.1005781,325
약초원공원,어린이공원,서울특별시 광진구 자양동 74-21,37.532914,127.0664003,826
정말공원,어린이공원,서울특별시 광진구 자양동 619-20,37.53316616,127.0781758,989.4
자마장공원,어린이공원,서울특별시 광진구 자양동 630,37.53444854,127.0821916,998.8
장독골공원,어린이공원,서울특별시 광진구 자양동 804-10,37.5356422,127.0778292,997.4
언덕배기공원,어린이공원,서울특별시 광진구 자양동 686-52,37.53214981,127.0879487,800.4
금모래공원,어린이공원,서울특별시 광진구 자양동 651-50,37.53030963,127.0825402,1022.5
동자공원,어린이공원,서울특별시 광진구 자양동 582-19,37.5318659,127.0742753,985.9
노유산공원,어린이공원,서울특별시 광진구 자양동 5-7,37.5391102,127.0685096,993.1
화양동정자마당소공원,소공원,서울특별시 광진구 화양동 110-34,37.54652182,127.0718116,2382
능동정자마당소공원,소공원,서울특별시 광진구 능동 369-12,37.55343589,127.0793355,1518
구의가로휴식소공원,소공원,서울특별시 광진구 구의동 589-4,37.53641296,127.0933277,95.2
약초원소공원,소공원,서울특별시 광진구 자양동 553-22,37.53498194,127.0679085,1337
세모꼴소공원,소공원,서울특별시 광진구 자양동 859-1,37.53839854,127.0815488,862
신일어린이공원,어린이공원,서울특별시 영등포구 신길동 455-1,37.510022,126.9221917,173
자매근린공원,근린공원,서울특별시 영등포구 여의도동 56,37.5166297,126.9290797,16458
문래근린공원,근린공원,서울특별시 영등포구 문래동3가 66,37.517456,126.894267,23611
신길근린공원,근린공원,서울특별시 영등포구 신길동 341-3,37.501712,126.905408,19604
당산근린공원,근린공원,서울특별시 영등포구 당산동3가 385,37.52521794,126.8951468,11154
메낙골근린공원,근린공원,서울특별시 영등포구 신길동 4934-4,37.50701967,126.915244,17229
중앙어린이공원,어린이공원,서울특별시 영등포구 영등포동6가 65-1,37.521363,126.904164,3671
평화어린이공원,어린이공원,서울특별시 영등포구 여의도동 50-2,37.52135273,126.9373261,4595
자유어린이공원,어린이공원,서울특별시 영등포구 여의도동 50-3,37.521353,126.937326,5385
강마을어린이공원,어린이공원,서울특별시 영등포구 당산6가 10-7,37.532972,126.906681,3329
서강어린이공원,어린이공원,서울특별시 영등포구 영등포동8가 28,37.5259219,126.905848,1797
원지어린이공원,어린이공원,서울특별시 영등포구 대림동 690,37.497618,126.899642,4845
동심어린이공원,어린이공원,서울특별시 영등포구 대림동 742,37.498712,126.897293,2820
두암어린이공원,어린이공원,서울특별시 영등포구 대림동 715,37.49551276,126.897371,1477
신우어린이공원,어린이공원,서울특별시 영등포구 대림동 657,37.503539,126.899081,3112
양화폭포근린공원,근린공원,서울특별시 영등포구 양평동 153-2,37.53904364,126.8985934,12404
영등포근린공원,근린공원,서울특별시 영등포구 영등포동 582-3,37.516127,126.912126,61544
양평어린이공원,어린이공원,서울특별시 영등포구 양평동4가 301-7,37.538015,126.898077,2845
성화공원,어린이공원,서울특별시 광진구 자양동 199-4,37.53620746,127.061859,253
양마장공원,어린이공원,서울특별시 광진구 자양동 689-6,37.5308707,127.0887271,1113
자양공원,어린이공원,서울특별시 광진구 자양동 792-1,37.5335548,127.0698629,494.8
가중나무공원,어린이공원,서울특별시 광진구 화양동 32-1,37.54651869,127.0677034,971.6
한아름공원,어린이공원,서울특별시 광진구 화양동 12-55,37.5443368,127.0704685,936.2
햇님공원,어린이공원,서울특별시 광진구 화양동 45-3,37.5426933,127.0670227,1002.3
화양공원,어린이공원,서울특별시 광진구 화양동 8-36,37.54160778,127.0696005,996.4
남일공원,어린이공원,서울특별시 광진구 군자동 159-1,37.5559474,127.0736903,238
군자공원,어린이공원,서울특별시 광진구 군자동 115-1,37.55456506,127.0728509,642
중곡공원,어린이공원,서울특별시 광진구 중곡동 232-44,37.5645362,127.079141,995.7
배나무터공원,어린이공원,서울특별시 광진구 중곡동 695,37.56834108,127.0802695,971.9
해오름공원,어린이공원,서울특별시 광진구 중곡동 100-16,37.55678467,127.0921845,840
한마음공원,어린이공원,서울특별시 광진구 중곡동 51-6,37.5595627,127.083993,897.8
긴고랑공원,어린이공원,서울특별시 광진구 중곡동 68-19,37.55888021,127.0910186,633
개나리공원,어린이공원,서울특별시 광진구 구의동 216-5,37.538013,127.0923645,988.8
목련공원,어린이공원,서울특별시 광진구 구의동 223-4,37.54064005,127.0906545,989.8
무궁화공원,어린이공원,서울특별시 광진구 구의동 206-10,37.5412468,127.0945509,1041.7
장미공원,어린이공원,서울특별시 광진구 구의동 590-2,37.5362728,127.0901418,986.5
푸른동산공원,어린이공원,서울특별시 광진구 구의동 227-13,37.5429034,127.0911933,933.2
구둘공원,어린이공원,서울특별시 광진구 구의동 60-8,37.5481208,127.0921708,788.1
산마루공원,어린이공원,서울특별시 광진구 구의동 560-5,37.555070,127.095143,917
구의공원,어린이공원,서울특별시 광진구 구의동 546-2,37.53650324,127.0947414,10464
명성공원,어린이공원,서울특별시 광진구 구의동 249-25,37.541424,127.0867221,548.4
해오라기,어린이공원,서울특별시 노원구 공릉동 503-17,37.62562133,127.07617650,959.7
햇  빛,어린이공원,서울특별시 노원구 상계동 646,37.67163547,127.08020810,1631.2
햇 살,어린이공원,서울특별시 노원구 월계동 563,37.62684160,127.05097090,2040.7
호돌이,어린이공원,서울특별시 노원구 상계동 622,37.67040400,127.05272660,1500.1
희망,어린이공원,서울특별시 노원구 상계동 111-201,37.67244300,127.07876300,984
월계 롯데캐슬 옆,기타,서울특별시 노원구 월계2동 865-5,37.62678470,127.04737370,764
불암초,기타,서울특별시 노원구 중계본동 107-8,37.65078442,127.08060180,412
불암소공원,기타,서울특별시 노원구 중계4동 453-38,37.65835220,127.07002500,1198
노원골 만남의광장,기타,서울특별시 노원구 상계1동 1001,37.67461430,127.05940440,800
천상병공원,기타,서울특별시 노원구 상계1동 996-27,37.67433280,127.05701980,197
비콘과대망사이,기타,서울특별시 노원구 상계1동 1116-120,37.67669180,127.05776990,231
중계1동 소공원,기타,서울특별시 노원구 중계1동 421-67외4,37.64994240,127.06911900,1642
소방파출소,기타,서울특별시 노원구 상계2동 197-11,37.65880710,127.06629720,233
순복음교회 뒤,기타,서울특별시 노원구 상계2동 178-18,37.65583840,127.06664350,76
순복음 목재소,기타,서울특별시 노원구 상계2동 330-41,37.65623110,127.06503500,77
상계2동 마을숲,기타,서울특별시 노원구 상계2동 373-13,37.65680740,127.06763770,1341
현대 초입,기타,서울특별시 노원구 상계3동 107-1798,37.66644140,127.08013870,110
간촌 인근,기타,서울특별시 노원구 상계5동 156-66,37.66301390,127.07187800,41
상계초,기타,서울특별시 노원구 상계5동 393-27,37.65917310,127.06383980,39
계상초 인근,기타,서울특별시 노원구 상계5동 434-8,37.66183730,127.06514160,62
석계역문화공원,기타,서울특별시 노원구 월계1동 47-45,37.61496111,127.06455250,3900
공릉가로공원,기타,서울특별시 노원구 공릉1동 657-8,37.61768123,127.07626600,8999
상계 5,기타,서울특별시 노원구 상계5동 155-23,37.66353480,127.06933110,417
한천가로공원,기타,서울특별시 노원구 공릉1동 406-1,37.62430860,127.07055000,7145
우이천가로공원,기타,서울특별시 노원구 월계2동 861-3,37.62571120,127.04701890,8098
월계2동쌈지(신화연립),기타,서울특별시 노원구 월계2동 912-1,37.63245860,127.04271440,164
월계2동쌈지(신우빌라),기타,서울특별시 노원구 월계2동 877-4,37.62906629,127.04575930,561
중계본동 보호수 근처,기타,서울특별시 노원구 중계동본 58-35,37.64649650,127.08086700,105
원암유치원,기타,서울특별시 노원구 중계동본 90-37,37.64980400,127.08430600,380
상계5동 쌈지마당,기타,서울특별시 노원구 상계5동 167-18,37.66201950,127.06877270,137
상계5동 간촌마을 가로공원,기타,서울특별시 노원구 상계5동 458-3,37.66611680,127.06585310,1298.2
힐링숲,기타,서울특별시 노원구 상계5동 441-3,37.66139630,127.06539310,862
해바라기,어린이공원,서울특별시 노원구 하계동 277,37.63463264,127.07095910,4504
방아다리공원,어린이공원,서울특별시 강동구 명일2동 236,37.548156,127.153648,2010.4
둔촌공원,어린이공원,서울특별시 강동구 둔촌2동 79-4,37.531437,127.143288,2226
암사동공원,소공원,서울특별시 강동구 암사동 518-1,37.54888077,127.1233123,1022
솔말소공원,근린공원,서울특별시 강동구 암사3동 400-1,37.556493,127.139147,1108.6
솜다래공원,근린공원,서울특별시 강동구 암사1동 413-4,37.553691,127.141229,3993.8
암사공원,근린공원,서울특별시 강동구 암사3동 414-20,37.5565294,127.1417157,7047
천일공원,어린이공원,서울특별시 강동구 천호1동 221-3,37.54498878,127.1362629,2408
당말공원,어린이공원,서울특별시 강동구 천호3동 167-195,37.53912769,127.133246,2409
다솜공원,어린이공원,서울특별시 강동구 강일동 333-1,37.546877,127.167582,3125
꽃보라공원,어린이공원,서울특별시 강동구 강일동 317-1,37.565352,127.175724,3185
윤슬공원,어린이공원,서울특별시 강동구 강일동 448-1,37.562677,127.177545,2591
꿈터공원,어린이공원,서울특별시 강동구 강일동 429-1,37.560861,127.180266,1804
나루공원,어린이공원,서울특별시 강동구 천호2동 569-1,37.547038,127.123604,1500
강일공원,근린공원,서울특별시 강동구 강일동 332-5,37.569526,127.1744407,34591.6
벌말공원,근린공원,서울특별시 강동구 강일동 산8-1,37.559936,127.177202,86205.7
암사공원,어린이공원,서울특별시 강동구 암사1동 산59-2,37.552756,127.137981,1780
강덕공원,근린공원,서울특별시 강동구 강일동 산11-6,37.558585,127.174682,46699.6
상계 1,기타,서울특별시 노원구 상계동1 1119-12,37.67648030,127.05285610,254
상계 3,기타,서울특별시 노원구 상계동3 107-1861,37.66611360,127.07798860,76
공릉2(산업대앞),기타,서울특별시 노원구 공릉동2 462-14,37.63052090,127.07335640,103
쌈지마당,기타,서울특별시 노원구 중계동본 16-2,37.64418344,127.08794470,992
"우체국 옆(엠코, 태릉입구 5번 출구)",기타,서울특별시 노원구 공릉1동 670-20외,37.61821610,127.07591200,487.7
노원역 역사문화마당,기타,서울특별시 노원구 상계2동 839-1,37.65447160,127.05586640,250
양지마을마당,기타,서울특별시 노원구 중계1동 580-2,37.65047110,127.06879710,563.7
공릉3동소공원,기타,서울특별시 노원구 공릉3동 318-3,37.62766279,127.06960590,3000
주민소통공간,기타,"서울특별시 노원구 상계5동 156-147,16",37.66280340,127.07133040,198
성북역,기타,서울특별시 노원구 월계1동 412-1,37.62315543,127.05918810,4216
샘말공원,기타,서울특별시 노원구 공릉1동 517-11,37.62371130,127.07302720,937.4
산성미소지움 앞,기타,서울특별시 노원구 공릉2동 224-18,37.62128712,127.08337870,113
우남아파트 앞,기타,서울특별시 노원구 월계1동 494-9,37.61555409,127.06736990,43
석계역 굴다리,기타,서울특별시 노원구 월계1동 66-11,37.61435700,127.06357900,413
월계 현대아파트앞,기타,서울특별시 노원구 월계1동 76-1,37.61722520,127.06253870,108
신사무궁화공원,어린이공원,서울특별시 강남구 신사동 625-5,37.524131,127.0319138,1641.8
신사까치공원,어린이공원,서울특별시 강남구 신사동 597,37.52342193,127.029229,992.9
신사개나리공원,어린이공원,서울특별시 강남구 신사동 609-2,37.52567303,127.029443,991.3
압구정목련공원,어린이공원,서울특별시 강남구 압구정동 466,37.53268534,127.0322088,2027.2
압구정은행나무공원,어린이공원,서울특별시 강남구 압구정동 459,37.53072221,127.0314438,2547.4
삼성목련공원,어린이공원,서울특별시 강남구 삼성동 55-1,37.518515,127.0538884,1641.4
삼성까치공원,어린이공원,서울특별시 강남구 삼성동 85,37.51841744,127.0605431,1462.9
청담은행나무공원,어린이공원,서울특별시 강남구 청담동 94-4,37.525154,127.0442417,1643.8
청담목련공원,어린이공원,서울특별시 강남구 청담동 51,37.52300518,127.0498445,1642.1
도곡까치공원,어린이공원,서울특별시 강남구 도곡동 455,37.483326,127.0451093,1793.8
도곡목련공원,어린이공원,서울특별시 강남구 도곡동 415-3,37.484915,127.0443053,1709.2
역삼장미공원,어린이공원,서울특별시 강남구 역삼동 780-25,37.495327,127.0447331,1636.6
역삼까치공원,어린이공원,서울특별시 강남구 역삼동 824-10,37.4972618,127.0307401,987.2
역삼무궁화공원,어린이공원,서울특별시 강남구 역삼동 830-23,37.493835,127.032209,991.5
역삼개나리공원,어린이공원,서울특별시 강남구 역삼동 739-15,37.497571,127.0362551,1635
역삼소나무공원,어린이공원,서울특별시 강남구 역삼동 836-21,37.49099783,127.0336992,987.3
역삼은행나무공원,어린이공원,서울특별시 강남구 역삼동 611,37.505409,127.0312225,1647.1
대치목련공원,어린이공원,서울특별시 강남구 대치동 929-10,37.49982553,127.0581713,1649.1
대치까치공원,어린이공원,서울특별시 강남구 대치동 1014-4,37.496941,127.059198,992.2
대치은행나무공원,어린이공원,서울특별시 강남구 대치동 899-25,37.501649,127.0515319,1618.7
돌곶이,어린이공원,서울특별시 노원구 월계1동 429-4,37.6193203481,127.0583380669,954
두루미,어린이공원,서울특별시 노원구 상계동 656-1,37.66649572,127.05234470,3580
들국화,어린이공원,서울특별시 노원구 중계동 501,37.64282684,127.06128460,3413.6
마실소공원,소공원,서울특별시 노원구 공릉2동 230-2,37.62679100,127.08535300,7752
목  련,어린이공원,서울특별시 노원구 하계동 167-12,37.63620800,127.07442900,112
무궁화,어린이공원,서울특별시 노원구 상계동 135-77,37.66547602,127.06923160,561
무지개,어린이공원,서울특별시 노원구 공릉동 89,37.62258381,127.08014310,1575.1
물보라,어린이공원,서울특별시 노원구 상계동 756,37.65052082,127.06734970,1500.1
민들레,어린이공원,서울특별시 노원구 상계동 667,37.66165211,127.05615600,1780.2
반  디,어린이공원,서울특별시 노원구 상계동 665,37.66165211,127.05612470,1500
배  꽃,어린이공원,서울특별시 노원구 공릉동 123-1,37.62632478,127.09249430,1537.2
백  합,어린이공원,서울특별시 노원구 중계동 514-4,37.64617746,127.06966000,4924.2
벼루말,소공원,서울특별시 노원구 월계동 949-3,37.62200512,127.05317370,990.2
별  빛,어린이공원,서울특별시 노원구 공릉동 690-1,37.61927400,127.07255500,132.5
봉숭아,어린이공원,서울특별시 노원구 상계동 628,37.66045209,127.07010630,1499.6
불  암,어린이공원,서울특별시 노원구 상계동 1275-4,37.66595919,127.08009370,1500.1
비둘기,어린이공원,서울특별시 노원구 공릉동 708-1,37.62992285,127.06894010,3382.6
뻐꾸기,어린이공원,서울특별시 노원구 하계동 256-3,37.64344507,127.07333720,1540.2
사  랑,어린이공원,서울특별시 노원구 상계동 765-1,37.64771001,127.06001930,2540.3
산철쭉,어린이공원,서울특별시 노원구 상계동 625,37.67070821,127.05577900,1500
쌍문1동,기타,서울특별시 도봉구 쌍문동 490-27,37.6545297,127.0163509,180
창5동,기타,서울특별시 도봉구 창동 700-87,37.6520013,127.0387085,262
도봉2동,기타,서울특별시 도봉구 도봉동 630-1,37.6768238,127.0490433,316
방학1동,기타,서울특별시 도봉구 방학동 265-4,37.661482,127.0371404,203
도봉1동(2),기타,서울특별시 도봉구 도봉동 638-1,37.6862776,127.0408206,1583
쌍문4동(1),기타,서울특별시 도봉구 쌍문동 259-6,37.6569337,127.0280205,108
쌍문4동(2),기타,서울특별시 도봉구 쌍문동 245-2,37.6590534,127.0287138,793
쌍문2동,기타,서울특별시 도봉구 쌍문동 69-59,37.6553216,127.0347283,585
발바닥공원,기타,서울특별시 도봉구 방학동 490-8,37.6591413,127.0279921,13879
방학사계광장,기타,서울특별시 도봉구 방학동 678,37.6624333,127.0418448,15780
도봉산역 만남의광장,기타,서울특별시 도봉구 도봉2동 41,37.6882419,127.0467981,5271
창동 공원,기타,서울특별시 도봉구 창4동 181-38,37.6601682,127.045372,792
방학동 공원,기타,서울특별시 도봉구 방학1동 714-15,37.6644754,127.0454838,631
방학3동 가로공원,기타,서울특별시 도봉구 방학3동 443,37.6634352,127.0276147,735
도봉마루공원,기타,서울특별시 도봉구 도봉1동 279,37.6877313,127.0439158,1361
한전변전소 자투리땅 휴게공원,기타,서울특별시 도봉구 쌍문3동 346-3,37.6482319,127.0268292,606
원당샘공원,기타,서울특별시 도봉구 방학3동 547,37.6607526,127.0220787,4671
도로개설잔여부 휴게공원,기타,서울특별시 도봉구 방학1동 725-31,37.6611929,127.0505123,121
뱃 골,어린이공원,서울특별시 도봉구 창동 367,37.6465834,127.0450164,2319
밤 골,어린이공원,서울특별시 도봉구 창동 368,37.6487859,127.0458545,2279
창 골,어린이공원,서울특별시 도봉구 창동 381,37.6430752,127.0486262,4236
신 창,어린이공원,서울특별시 도봉구 창동 449-103,37.6400636,127.040857,579
물방울,어린이공원,서울특별시 도봉구 창동 458-6,37.6375725,127.0412883,646
장 미,어린이공원,서울특별시 도봉구 창동 553-8,37.6381458,127.036365,1000
창고개,어린이공원,서울특별시 도봉구 창동 608-5,37.6447409,127.0393257,990
다람쥐,어린이공원,서울특별시 도봉구 창동 624-16,37.6452098,127.0349159,988
달 내,어린이공원,서울특별시 도봉구 창동 630-4,37.6427555,127.0352756,1001
꿈동산,어린이공원,서울특별시 도봉구 창동 663-1,37.6501236,127.0368382,1008
미 화,어린이공원,서울특별시 도봉구 창동 715-17,37.6549516,127.0397052,996
창3 마을공원,소공원,서울특별시 도봉구 창동 505-12,37.6333294,127.0412078,3314
창2 마을공원,소공원,서울특별시 도봉구 창동 582-22,37.6412657,127.0362989,3104
무수울 소공원,소공원,서울특별시 도봉구 도봉동 470,37.6778355,127.0338381,161
무수골 소공원,소공원,서울특별시 도봉구 도봉동 429-3,37.6784430342,127.0389232659,854
쌍문1구역 소공원,소공원,서울특별시 도봉구 쌍문동 732-1,37.6489288,127.0219352,1188
다락원 체육공원,체육공원,서울특별시 도봉구 도봉동 8번지,37.6907728498,127.046562363,49830
서울 창포원,기타,서울특별시 도봉구 도봉동 4,37.6892727,127.0475814,51486
방학3동,기타,서울특별시 도봉구 방학동 306-24,37.6633231,127.0292778,874
도봉1동(1),기타,서울특별시 도봉구 도봉동 282-275,37.6875164,127.0428127,489
유 만,어린이공원,서울특별시 도봉구 창동 33-4,37.650387,127.0529829,1500
대 창,어린이공원,서울특별시 도봉구 창동 38-4,37.644360,127.0522814,1500
창 원,어린이공원,서울특별시 도봉구 창동 307,37.6529957,127.0403553,2329
은행나무,어린이공원,서울특별시 도봉구 창동 347-3,37.6496529,127.0437757,3199
반 석,어린이공원,서울특별시 도봉구 창동 354,37.6471171,127.0412529,2596
북한산 국립공원,기타,서울특별시 도봉구 도봉1동 산29-2,37.6920803,127.0312043,8703000
초안산근린공원,근린공원,서울특별시 도봉구 창동 산24 초안산근린공원,37.6474261,127.0414291,664905
쌍문근린공원,근린공원,서울특별시 도봉구 쌍문동 산80,37.6541919,127.0290879,328018
월천근린공원,근린공원,서울특별시 도봉구 창동 28,37.6472711141,127.0523186642,10712
누 원,어린이공원,서울특별시 도봉구 도봉동 653,37.6803963,127.0500458,1515
새동네,어린이공원,서울특별시 도봉구 도봉동 289-5,37.6889748,127.0431725,1289
무지개,어린이공원,서울특별시 도봉구 도봉동 570-13,37.6856475,127.0450237,921
서 원,어린이공원,서울특별시 도봉구 도봉동 576-13,37.6838254,127.0433093,921
무 수,어린이공원,서울특별시 도봉구 도봉동 585-2,37.6806313,127.0427453,1003
해 태,어린이공원,서울특별시 도봉구 도봉동 614-37,37.6720052,127.0412072,962
갈대밭,어린이공원,서울특별시 도봉구 도봉동 625-123,37.6743303,127.0458103,973
방 학,어린이공원,서울특별시 도봉구 방학동 304-20,37.6631059,127.0322622,305
샘 말,어린이공원,서울특별시 도봉구 방학동 611-5,37.6684889,127.0315749,1085
개나리,어린이공원,서울특별시 도봉구 방학동 638-12,37.6673406,127.0371512,960
생잇들,어린이공원,서울특별시 도봉구 방학동 644-28,37.6689795,127.039176,970
무궁화,어린이공원,서울특별시 도봉구 방학동 655-31,37.6678419,127.0421955,1003
뒷 말,어린이공원,서울특별시 도봉구 방학동 663,37.6637475,127.0336461,1000
사 슴,어린이공원,서울특별시 도봉구 방학동 681-13,37.6644567,127.041749,970
소 망,어린이공원,서울특별시 도봉구 방학동 694-9,37.6635246,127.0369361,973
학 골,어린이공원,서울특별시 도봉구 방학동 735-4,37.6635246,127.0369361,149
금성윗들,어린이공원,서울특별시 도봉구 방학1동 717-1,37.6676592,127.0447831,1289
노 해,어린이공원,서울특별시 도봉구 쌍문동 709-32,37.6609382,127.0396947,1019
둥근달,어린이공원,서울특별시 도봉구 쌍문동 139-101,37.6497343,127.0301124,1013
꽃동네,어린이공원,서울특별시 도봉구 쌍문동 286-32,37.6506429,127.0229685,317
샛 별,어린이공원,서울특별시 도봉구 쌍문동 315-362,37.6480726,127.0291963,331
효 자,어린이공원,서울특별시 도봉구 창동 27-2,37.6500558,127.0510344,1573
모 랫,어린이공원,서울특별시 도봉구 창동 30-1,37.6468286,127.0517995,1500
원터공원,근린공원,서울특별시 강동구 명일2동 37,37.5524155,127.1430368,24508.5
송림공원,근린공원,서울특별시 강동구 고덕동 310,37.55504732,127.1539494,11491
까치공원,근린공원,서울특별시 강동구 고덕1동 493,37.557079,127.149995,19464.8
두레공원,근린공원,서울특별시 강동구 고덕1동 497,37.558206,127.152203,13460.2
동자공원,근린공원,서울특별시 강동구 고덕1동 648,37.559711,127.152467,6416.6
샘터공원,근린공원,서울특별시 강동구 고덕2동 287,37.561901,127.159087,63320.9
방죽공원,근린공원,서울특별시 강동구 고덕2동 296,37.5591586,127.1598268,87748.6
동명공원,근린공원,서울특별시 강동구 고덕2동 229 외1,37.561146,127.164455,99599.9
상일공원,근린공원,서울특별시 강동구 상일동 188,37.5469247,127.167312,9704
천일골목공원,어린이공원,서울특별시 강동구 천호1동 21-192,37.5405287,127.1314181,233
천호삼거리공원,어린이공원,서울특별시 강동구 천호1동 21-194,37.545489,127.138494,170
천호큰골목공원,어린이공원,서울특별시 강동구 천호1동 21-197,37.545101,127.138573,586
천암공원,어린이공원,서울특별시 강동구 천호1동 231-14,37.547844,127.136878,166
성내공원,근린공원,서울특별시 강동구 성내1동 533,37.529486,127.126516,8929
샛마을공원,근린공원,서울특별시 강동구 명일1동 288,37.550106,127.147099,11467
화랑공원,어린이공원,서울특별시 강동구 천호2동 431-2,37.540033,127.123192,220
꿈나래공원,어린이공원,서울특별시 강동구 고덕1동 536,37.5608275,127.153742,1500
곰돌이공원,어린이공원,서울특별시 강동구 고덕1동 308,37.556235,127.154997,1983
한우물공원,어린이공원,서울특별시 강동구 고덕2동 253,37.561635,127.162736,1500
무지개공원,어린이공원,서울특별시 강동구 고덕2동 219,37.559162,127.164191,1967.5
말우물공원,어린이공원,서울특별시 강동구 고덕2동 178,37.560012,127.169476,1619.1
미리내공원,어린이공원,서울특별시 강동구 상일동 122,37.554712,127.167908,4286.2
동자공원,어린이공원,서울특별시 강동구 상일동 132,37.552388,127.167009,1520.8
게내공원,어린이공원,서울특별시 강동구 상일동 278,37.549262,127.171472,1500
까치공원,어린이공원,서울특별시 강동구 상일동 177,37.547741,127.1621552,1965.8
하늬공원,어린이공원,서울특별시 강동구 상일동 175,37.546126,127.1597286,2233.2
파랑새공원,어린이공원,서울특별시 강동구 명일2동 258,37.547964,127.150864,2017.3
은하수공원,어린이공원,서울특별시 강동구 명일2동 55,37.552017,127.1435031,2018
진달래공원,어린이공원,서울특별시 강동구 명일2동 43,37.5521507,127.1436747,2024
노  해,체육공원,서울특별시 노원구 중계동 360-18,37.64815756,127.07069950,34646.8
느티울,근린공원,서울특별시 노원구 상계동 741,37.64826016,127.05821360,10000.1
늘푸른,어린이공원,서울특별시 노원구 상계동 1265-1,37.68184246,127.05699930,1502
다람쥐,어린이공원,서울특별시 노원구 중계동 360-3,37.64906203,127.07595220,1500.1
당  현,어린이공원,서울특별시 노원구 중계동 154-7,37.66009367,127.07484900,274
당현천,근린공원,서울특별시 노원구 상계동 762-1,37.64858199,127.06311570,9652.5
탄천근린공원,근린공원,서울특별시 강남구 수서동 722,37.487436,127.1064899,10011
한솔근린공원,근린공원,서울특별시 강남구 일원동 732,37.481203,127.0787962,12878.4
학동근린공원,근린공원,서울특별시 강남구 논현동 26,37.51548988,127.0252037,29947
삼성은행나무근린공원,근린공원,서울특별시 강남구 삼성동 14,37.51651533,127.0457554,1500
도곡근린공원,근린공원,서울특별시 강남구 도곡동 산31-1,37.48946129,127.0440022,254648
싸리고개근린공원,근린공원,서울특별시 강남구 도곡동 550,37.48962828,127.0363246,15072.5
갈매기근린공원,근린공원,서울특별시 강남구 압구정동 480,37.53139874,127.0345365,7732
도성근린공원,근린공원,서울특별시 강남구 역삼동 713-15,37.5003029,127.0488318,1988.8
송운근린공원,근린공원,서울특별시 강남구 역삼동 755-9,37.4993173,127.0490489,1175
언주근린공원,근린공원,서울특별시 강남구 역삼동 754-7,37.49864145,127.0475791,1110.8
영동근린공원,근린공원,서울특별시 강남구 역삼동 755-7,37.49801996,127.0486499,1293.6
도산근린공원,근린공원,서울특별시 강남구 신사동 649-9,37.523911,127.0356032,29816.5
길섶근린공원,근린공원,서울특별시 강남구 역삼동 757-1,37.49757437,127.0489095,1580.6
매봉근린공원,근린공원,서울특별시 강남구 도곡동 527-7,37.492112,127.0504068,6146.9
배꽃근린공원,근린공원,서울특별시 강남구 삼성동 11-3,37.51628496,127.0446033,1592.9
반달근린공원,근린공원,서울특별시 강남구 삼성동 7-4,37.5162258,127.0428717,679.3
샘터근린공원,근린공원,서울특별시 강남구 삼성동 16-4,37.51542123,127.0474657,1799.5
학봉근린공원,근린공원,서울특별시 강남구 삼성동 50-3,37.51303694,127.0521038,1343
큰골근린공원,근린공원,서울특별시 강남구 대치동 888-3,37.49397694,127.054871,1688.1
새뜰근린공원,근린공원,서울특별시 강남구 역삼동 765-30,37.49660384,127.0510177,427.6
수서제2근린공원,근린공원,서울특별시 강남구 수서동 749,37.48359088,127.0887929,44587.5
수서택지개발(대모산부근),근린공원,서울특별시 강남구 일원동 732-3,37.48093233,127.0805118,11588.6
수서택지개발(광평부근),근린공원,서울특별시 강남구 수서동 737-1,37.48674541,127.0971098,7569.1
세곡동 근린공원1,근린공원,서울특별시 강남구 세곡동 525-1,37.46058474,127.1038574,10310.4
강남세곡체육공원,체육공원,서울특별시 강남구 세곡동 산1-7,37.466699083,127.111479477,98417
광평공원,근린공원,서울특별시 강남구 수서동 산10-1,37.48651921,127.0921363,519782
